{
"type": "FeatureCollection",
"name": "geo_08_中等教育学校",
"crs": { "type": "name", "properties": { "name": "urn:ogc:def:crs:EPSG::6668" } },
"features": [
{ "type": "Feature", "properties": { "P29_001": "08204", "P29_002": "D208220400011", "P29_003": "16003", "P29_004": "茨城県立古河中等教育学校", "P29_005": "茨城県古河市磯部846", "P29_006": "2", "P29_007": "0", "P29_008": "00", "P29_009": null }, "geometry": { "type": "Point", "coordinates": [ 139.747784996089621, 36.169981003386056 ] } },
{ "type": "Feature", "properties": { "P29_001": "08220", "P29_002": "D208222000011", "P29_003": "16003", "P29_004": "茨城県立並木中等教育学校", "P29_005": "茨城県つくば市並木4-5-1", "P29_006": "2", "P29_007": "0", "P29_008": "00", "P29_009": null }, "geometry": { "type": "Point", "coordinates": [ 140.143325000449352, 36.060267712146526 ] } },
{ "type": "Feature", "properties": { "P29_001": "08221", "P29_002": "D208222100010", "P29_003": "16003", "P29_004": "茨城県立勝田中等教育学校", "P29_005": "茨城県ひたちなか市足崎1458", "P29_006": "2", "P29_007": "0", "P29_008": "00", "P29_009": null }, "geometry": { "type": "Point", "coordinates": [ 140.554806607984943, 36.405871413447059 ] } },
{ "type": "Feature", "properties": { "P29_001": "08201", "P29_002": "D208320100012", "P29_003": "16003", "P29_004": "智学館中等教育学校", "P29_005": "茨城県水戸市小吹町2092", "P29_006": "4", "P29_007": "0", "P29_008": "00", "P29_009": null }, "geometry": { "type": "Point", "coordinates": [ 140.427539126111469, 36.351962259309559 ] } },
{ "type": "Feature", "properties": { "P29_001": "08203", "P29_002": "D208320300010", "P29_003": "16003", "P29_004": "土浦日本大学中等教育学校", "P29_005": "茨城県土浦市小松ヶ丘町4-46", "P29_006": "4", "P29_007": "0", "P29_008": "00", "P29_009": null }, "geometry": { "type": "Point", "coordinates": [ 140.195988800327115, 36.063690498313925 ] } },
{ "type": "Feature", "properties": { "P29_001": "08224", "P29_002": "D208323500012", "P29_003": "16003", "P29_004": "開智望中等教育学校", "P29_005": "茨城県つくばみらい市筒戸字諏訪3400", "P29_006": "4", "P29_007": "0", "P29_008": "00", "P29_009": null }, "geometry": { "type": "Point", "coordinates": [ 139.987025361000548, 35.966563414532786 ] } }
]
}
