{
"type": "FeatureCollection",
"name": "geo_08_義務教育学校",
"crs": { "type": "name", "properties": { "name": "urn:ogc:def:crs:EPSG::6668" } },
"features": [
{ "type": "Feature", "properties": { "P29_001": "08201", "P29_002": "C208220100016", "P29_003": "16014", "P29_004": "水戸市立国田義務教育学校", "P29_005": "茨城県水戸市下国井町2595-1", "P29_006": "3", "P29_007": "1", "P29_008": "00", "P29_009": null }, "geometry": { "type": "Point", "coordinates": [ 140.433912181376002, 36.427374344778919 ] } },
{ "type": "Feature", "properties": { "P29_001": "08202", "P29_002": "C208220200015", "P29_003": "16014", "P29_004": "日立市立中里小中学校", "P29_005": "茨城県日立市東河内町1953-1", "P29_006": "3", "P29_007": "1", "P29_008": "00", "P29_009": null }, "geometry": { "type": "Point", "coordinates": [ 140.547054460563118, 36.632602191675872 ] } },
{ "type": "Feature", "properties": { "P29_001": "08203", "P29_002": "C208220300014", "P29_003": "16014", "P29_004": "土浦市立新治学園義務教育学校", "P29_005": "茨城県土浦市藤沢913", "P29_006": "3", "P29_007": "1", "P29_008": "00", "P29_009": null }, "geometry": { "type": "Point", "coordinates": [ 140.158336506151443, 36.136893534067553 ] } },
{ "type": "Feature", "properties": { "P29_001": "08216", "P29_002": "C208221600019", "P29_003": "16014", "P29_004": "笠間市立みなみ学園義務教育学校", "P29_005": "茨城県笠間市北吉原15", "P29_006": "3", "P29_007": "1", "P29_008": "00", "P29_009": null }, "geometry": { "type": "Point", "coordinates": [ 140.242804673350378, 36.362406276029873 ] } },
{ "type": "Feature", "properties": { "P29_001": "08219", "P29_002": "C208221900016", "P29_003": "16014", "P29_004": "牛久市立おくの義務教育学校", "P29_005": "茨城県牛久市久野町670-1", "P29_006": "3", "P29_007": "1", "P29_008": "00", "P29_009": null }, "geometry": { "type": "Point", "coordinates": [ 140.229765063767871, 35.960324435561127 ] } },
{ "type": "Feature", "properties": { "P29_001": "08220", "P29_002": "C208222000013", "P29_003": "16014", "P29_004": "つくば市立春日学園義務教育学校", "P29_005": "茨城県つくば市春日2-47", "P29_006": "3", "P29_007": "1", "P29_008": "00", "P29_009": null }, "geometry": { "type": "Point", "coordinates": [ 140.098329933539475, 36.088639309075148 ] } },
{ "type": "Feature", "properties": { "P29_001": "08220", "P29_002": "C208222000022", "P29_003": "16014", "P29_004": "つくば市立秀峰筑波義務教育学校", "P29_005": "茨城県つくば市北条5073", "P29_006": "3", "P29_007": "1", "P29_008": "00", "P29_009": null }, "geometry": { "type": "Point", "coordinates": [ 140.087188441233195, 36.172983573545466 ] } },
{ "type": "Feature", "properties": { "P29_001": "08220", "P29_002": "C208222000031", "P29_003": "16014", "P29_004": "つくば市立学園の森義務教育学校", "P29_005": "茨城県つくば市学園の森2-15-1", "P29_006": "3", "P29_007": "1", "P29_008": "00", "P29_009": null }, "geometry": { "type": "Point", "coordinates": [ 140.077412035012571, 36.096350743422725 ] } },
{ "type": "Feature", "properties": { "P29_001": "08220", "P29_002": "C208222000040", "P29_003": "16014", "P29_004": "つくば市立みどりの学園義務教育学校", "P29_005": "茨城県つくば市みどりの中央12-1", "P29_006": "3", "P29_007": "1", "P29_008": "00", "P29_009": null }, "geometry": { "type": "Point", "coordinates": [ 140.056746367767715, 36.026585190634123 ] } },
{ "type": "Feature", "properties": { "P29_001": "08221", "P29_002": "C208222100012", "P29_003": "16014", "P29_004": "ひたちなか市立美乃浜学園", "P29_005": "茨城県ひたちなか市磯崎町5135", "P29_006": "3", "P29_007": "1", "P29_008": "00", "P29_009": null }, "geometry": { "type": "Point", "coordinates": [ 140.61965924953563, 36.371376416106685 ] } },
{ "type": "Feature", "properties": { "P29_001": "08230", "P29_002": "C208223000011", "P29_003": "16014", "P29_004": "かすみがうら市立千代田義務教育学校", "P29_005": "茨城県かすみがうら市上佐谷990", "P29_006": "3", "P29_007": "1", "P29_008": "00", "P29_009": null }, "geometry": { "type": "Point", "coordinates": [ 140.223394554203423, 36.162083902574508 ] } },
{ "type": "Feature", "properties": { "P29_001": "08231", "P29_002": "C208223100010", "P29_003": "16014", "P29_004": "桜川市立桃山学園", "P29_005": "茨城県桜川市真壁町伊佐々158", "P29_006": "3", "P29_007": "1", "P29_008": "00", "P29_009": null }, "geometry": { "type": "Point", "coordinates": [ 140.087307449551986, 36.268566010322068 ] } },
{ "type": "Feature", "properties": { "P29_001": "08236", "P29_002": "C208223600015", "P29_003": "16014", "P29_004": "小美玉市立玉里学園義務教育学校", "P29_005": "茨城県小美玉市上玉里751-1", "P29_006": "3", "P29_007": "1", "P29_008": "00", "P29_009": null }, "geometry": { "type": "Point", "coordinates": [ 140.333251766970733, 36.162192304556726 ] } },
{ "type": "Feature", "properties": { "P29_001": "08236", "P29_002": "C208223600024", "P29_003": "16014", "P29_004": "小美玉市立小川北義務教育学校", "P29_005": "茨城県小美玉市川戸1347-1", "P29_006": "3", "P29_007": "1", "P29_008": "00", "P29_009": null }, "geometry": { "type": "Point", "coordinates": [ 140.382027163666038, 36.191161414067139 ] } },
{ "type": "Feature", "properties": { "P29_001": "08447", "P29_002": "C208244700010", "P29_003": "16014", "P29_004": "河内町立かわち学園", "P29_005": "茨城県稲敷郡河内町長竿5456-1", "P29_006": "3", "P29_007": "1", "P29_008": "00", "P29_009": null }, "geometry": { "type": "Point", "coordinates": [ 140.274101304951415, 35.881892227182455 ] } }
]
}
