{
"type": "FeatureCollection",
"name": "geo_08_地域密着型介護老人福祉施設入所者生活介護",
"crs": { "type": "name", "properties": { "name": "urn:ogc:def:crs:OGC:1.3:CRS84" } },
"features": [
{ "type": "Feature", "properties": { "内容": "特別養護老人ホーム　フォレストヴィラ水戸【地域密着型介護老人福祉施設入所者生活介護】茨城県水戸市全隈町１２５６－７", "url": "https://www.kaigokensaku.mhlw.go.jp/08/index.php?action_kouhyou_detail_004_kani=true&JigyosyoCd=0890100167-00&ServiceCd=540&Type=search", "url2": "http://www.hououkai-forest.jp" }, "geometry": { "type": "Point", "coordinates": [ 140.387796900000012, 36.4211669 ] } },
{ "type": "Feature", "properties": { "内容": "地域密着型特別養護老人ホーム　もみじ館【地域密着型介護老人福祉施設入所者生活介護】茨城県水戸市鯉淵町2222-1", "url": "https://www.kaigokensaku.mhlw.go.jp/08/index.php?action_kouhyou_detail_004_kani=true&JigyosyoCd=0890100175-00&ServiceCd=540&Type=search", "url2": "https://hokuyoukai.jp/momiji/" }, "geometry": { "type": "Point", "coordinates": [ 140.3685892, 36.3568759 ] } },
{ "type": "Feature", "properties": { "内容": "地域密着型特別養護老人ホーム　銀砂台「助川サテライト」【地域密着型介護老人福祉施設入所者生活介護】茨城県日立市鹿島町2-5-15", "url": "https://www.kaigokensaku.mhlw.go.jp/08/index.php?action_kouhyou_detail_004_kani=true&JigyosyoCd=0890200041-00&ServiceCd=540&Type=search", "url2": "http://www.ginsadai.com" }, "geometry": { "type": "Point", "coordinates": [ 140.649707273973149, 36.59394387608323 ] } },
{ "type": "Feature", "properties": { "内容": "特別養護老人ホームさくら館サテライト【地域密着型介護老人福祉施設入所者生活介護】茨城県日立市桜川町１－１－１ウェルニックプラザ4階", "url": "https://www.kaigokensaku.mhlw.go.jp/08/index.php?action_kouhyou_detail_004_kani=true&JigyosyoCd=0890200066-00&ServiceCd=540&Type=search", "url2": "http://www.syujinkai-kh.or.jp/wellnic/sakurakans/" }, "geometry": { "type": "Point", "coordinates": [ 140.627859700000045, 36.5566778 ] } },
{ "type": "Feature", "properties": { "内容": "特別養護老人ホーム山水苑サテライト【地域密着型介護老人福祉施設入所者生活介護】茨城県日立市神峰町1₋8₋6", "url": "https://www.kaigokensaku.mhlw.go.jp/08/index.php?action_kouhyou_detail_004_kani=true&JigyosyoCd=0890200470-00&ServiceCd=540&Type=search", "url2": "http://sansuien-care.com/" }, "geometry": { "type": "Point", "coordinates": [ 140.651912170361328, 36.597568554281821 ] } },
{ "type": "Feature", "properties": { "内容": "特別養護老人ホーム成華園サテライト【地域密着型介護老人福祉施設入所者生活介護】久慈町3-18-11", "url": "https://www.kaigokensaku.mhlw.go.jp/08/index.php?action_kouhyou_detail_004_kani=true&JigyosyoCd=0890200496-00&ServiceCd=540&Type=search", "url2": "http://seikaen-seiwakai.com" }, "geometry": { "type": "Point", "coordinates": [ 140.6172005, 36.4965838 ] } },
{ "type": "Feature", "properties": { "内容": "地域密着型特別養護老人ホームＭＡＯ【地域密着型介護老人福祉施設入所者生活介護】茨城県日立市下土木内町字荻町545-1", "url": "https://www.kaigokensaku.mhlw.go.jp/08/index.php?action_kouhyou_detail_004_kani=true&JigyosyoCd=0890200199-00&ServiceCd=540&Type=search", "url2": "http://care-net.biz/08/mao/" }, "geometry": { "type": "Point", "coordinates": [ 140.579843728836096, 36.496974314136018 ] } },
{ "type": "Feature", "properties": { "内容": "特別養護老人ホームやすらぎの園【地域密着型介護老人福祉施設入所者生活介護】茨城県土浦市小岩田西2-1-49", "url": "https://www.kaigokensaku.mhlw.go.jp/08/index.php?action_kouhyou_detail_004_kani=true&JigyosyoCd=0890300114-00&ServiceCd=540&Type=search", "url2": "juseikai-yasuraginosono.or.jp" }, "geometry": { "type": "Point", "coordinates": [ 140.189004800000021, 36.0607685 ] } },
{ "type": "Feature", "properties": { "内容": "特別養護老人ホームやすらぎの園アネックス【地域密着型介護老人福祉施設入所者生活介護】茨城県土浦市小岩田西2-7-41", "url": "https://www.kaigokensaku.mhlw.go.jp/08/index.php?action_kouhyou_detail_004_kani=true&JigyosyoCd=0890300213-00&ServiceCd=540&Type=search", "url2": "juseikai-yasuraginosono.or.jp" }, "geometry": { "type": "Point", "coordinates": [ 140.190160200000037, 36.0573301 ] } },
{ "type": "Feature", "properties": { "内容": "特別養護老人ホーム　飛羽ノ園・とわ【地域密着型介護老人福祉施設入所者生活介護】茨城県土浦市小松三丁目18番18号", "url": "https://www.kaigokensaku.mhlw.go.jp/08/index.php?action_kouhyou_detail_004_kani=true&JigyosyoCd=0890300106-00&ServiceCd=540&Type=search", "url2": "http://showfukai.com/" }, "geometry": { "type": "Point", "coordinates": [ 140.2021945, 36.0648706 ] } },
{ "type": "Feature", "properties": { "内容": "地域密着型小規模特別養護老人ホーム　滝の園別館　ねもとの里【地域密着型介護老人福祉施設入所者生活介護】茨城県土浦市宍塚1988番地1", "url": "https://www.kaigokensaku.mhlw.go.jp/08/index.php?action_kouhyou_detail_004_kani=true&JigyosyoCd=0890300148-00&ServiceCd=540&Type=search", "url2": "http://nemotonosato.kinsuikai.org/" }, "geometry": { "type": "Point", "coordinates": [ 140.171324611947625, 36.080865533202441 ] } },
{ "type": "Feature", "properties": { "内容": "地域密着型特別養護老人ホーム　もりの家サテライト【地域密着型介護老人福祉施設入所者生活介護】茨城県土浦市乙戸230-1", "url": "https://www.kaigokensaku.mhlw.go.jp/08/index.php?action_kouhyou_detail_004_kani=true&JigyosyoCd=0890300049-00&ServiceCd=540&Type=search", "url2": "http://www.morino-ie.jp/" }, "geometry": { "type": "Point", "coordinates": [ 140.155276194838876, 36.028451300085742 ] } },
{ "type": "Feature", "properties": { "内容": "地域密着型特別養護老人ホームはなのえんサテライトみちのえん【地域密着型介護老人福祉施設入所者生活介護】茨城県土浦市粟野町1829-4", "url": "https://www.kaigokensaku.mhlw.go.jp/08/index.php?action_kouhyou_detail_004_kani=true&JigyosyoCd=0890300130-00&ServiceCd=540&Type=search", "url2": "https://kasumigaurashikikai.com/" }, "geometry": { "type": "Point", "coordinates": [ 140.1988857, 36.1413343 ] } },
{ "type": "Feature", "properties": { "内容": "ユニット型特別養護老人ホーム　静霞園【地域密着型介護老人福祉施設入所者生活介護】茨城県土浦市東若松町3379番地", "url": "https://www.kaigokensaku.mhlw.go.jp/08/index.php?action_kouhyou_detail_004_kani=true&JigyosyoCd=0890300098-00&ServiceCd=540&Type=search", "url2": "http://www.aishinkai.or.jp" }, "geometry": { "type": "Point", "coordinates": [ 140.2093979, 36.1082959 ] } },
{ "type": "Feature", "properties": { "内容": "特別養護老人ホーム明翠苑【地域密着型介護老人福祉施設入所者生活介護】半ノ木11481-1", "url": "https://www.kaigokensaku.mhlw.go.jp/08/index.php?action_kouhyou_detail_004_kani=true&JigyosyoCd=0890500101-00&ServiceCd=540&Type=search", "url2": "http://tekisuikai.or.jp" }, "geometry": { "type": "Point", "coordinates": [ 140.2711787, 36.234383 ] } },
{ "type": "Feature", "properties": { "内容": "地域密着型特別養護老人ホームリカステ・サテライト【地域密着型介護老人福祉施設入所者生活介護】茨城県龍ケ崎市馴馬町３１２０", "url": "https://www.kaigokensaku.mhlw.go.jp/08/index.php?action_kouhyou_detail_004_kani=true&JigyosyoCd=0890800147-00&ServiceCd=540&Type=search", "url2": "https://lycaste.jp" }, "geometry": { "type": "Point", "coordinates": [ 140.182319799999959, 35.9148117 ] } },
{ "type": "Feature", "properties": { "内容": "特別養護老人ホーム　はなみずきの杜【地域密着型介護老人福祉施設入所者生活介護】茨城県下妻市下栗1223番地", "url": "https://www.kaigokensaku.mhlw.go.jp/08/index.php?action_kouhyou_detail_004_kani=true&JigyosyoCd=0891000028-00&ServiceCd=540&Type=search", "url2": "https://hanamizukinomori.jp/" }, "geometry": { "type": "Point", "coordinates": [ 139.9592500358292, 36.163253108073519 ] } },
{ "type": "Feature", "properties": { "内容": "地域密着型特別養護老人ホームもりの里【地域密着型介護老人福祉施設入所者生活介護】茨城県常陸太田市幡町278-3", "url": "https://www.kaigokensaku.mhlw.go.jp/08/index.php?action_kouhyou_detail_004_kani=true&JigyosyoCd=0891200180-00&ServiceCd=540&Type=search", "url2": "https://care-net.biz/08/syomakai/b43.p" }, "geometry": { "type": "Point", "coordinates": [ 140.543690459936244, 36.544544337370638 ] } },
{ "type": "Feature", "properties": { "内容": "松籟荘サテライト安良川別館【地域密着型介護老人福祉施設入所者生活介護】茨城県高萩市安良川９６３－１０", "url": "https://www.kaigokensaku.mhlw.go.jp/08/index.php?action_kouhyou_detail_004_kani=true&JigyosyoCd=0891400046-00&ServiceCd=540&Type=search", "url2": "http://www.health-care.or.jp" }, "geometry": { "type": "Point", "coordinates": [ 140.707077199999958, 36.7103645 ] } },
{ "type": "Feature", "properties": { "内容": "地域密着型特別養護老人ホーム宍戸苑【地域密着型介護老人福祉施設入所者生活介護】茨城県笠間市槁爪　462-1", "url": "https://www.kaigokensaku.mhlw.go.jp/08/index.php?action_kouhyou_detail_004_kani=true&JigyosyoCd=0891600108-00&ServiceCd=540&Type=search", "url2": "sisidoen.＠atlas.plala.or.jp" }, "geometry": { "type": "Point", "coordinates": [ 140.304322500000012, 36.3452638 ] } },
{ "type": "Feature", "properties": { "内容": "地域密着型特別養護老人ホーム　フロンティア牛久【地域密着型介護老人福祉施設入所者生活介護】茨城県牛久市柏田町1616-1", "url": "https://www.kaigokensaku.mhlw.go.jp/08/index.php?action_kouhyou_detail_004_kani=true&JigyosyoCd=0891900128-00&ServiceCd=540&Type=search", "url2": "https://ushikuhakuai-kai.or.jp" }, "geometry": { "type": "Point", "coordinates": [ 140.15632020000001, 35.9794441 ] } },
{ "type": "Feature", "properties": { "内容": "地域密着型特別養護老人ホーム　トレランス田村【地域密着型介護老人福祉施設入所者生活介護】茨城県つくば市上横場2290-9", "url": "https://www.kaigokensaku.mhlw.go.jp/08/index.php?action_kouhyou_detail_004_kani=true&JigyosyoCd=0892000191-00&ServiceCd=540&Type=search", "url2": null }, "geometry": { "type": "Point", "coordinates": [ 140.0899339, 36.039933 ] } },
{ "type": "Feature", "properties": { "内容": "地域密着型特別養護老人ホーム　桜華【地域密着型介護老人福祉施設入所者生活介護】茨城県つくば市柴崎79-2", "url": "https://www.kaigokensaku.mhlw.go.jp/08/index.php?action_kouhyou_detail_004_kani=true&JigyosyoCd=0892000308-00&ServiceCd=540&Type=search", "url2": "https://yoirougo.jp/senbaduru/" }, "geometry": { "type": "Point", "coordinates": [ 140.108325690533974, 36.114056886165159 ] } },
{ "type": "Feature", "properties": { "内容": "地域密着型特別養護老人ホーム　フロンティア【地域密着型介護老人福祉施設入所者生活介護】茨城県つくば市上郷1600-3", "url": "https://www.kaigokensaku.mhlw.go.jp/08/index.php?action_kouhyou_detail_004_kani=true&JigyosyoCd=0892000233-00&ServiceCd=540&Type=search", "url2": "https://hakuai-kai.or.jp" }, "geometry": { "type": "Point", "coordinates": [ 140.021562499999987, 36.1065793 ] } },
{ "type": "Feature", "properties": { "内容": "地域密着型小規模特別養護老人ホームシニアガーデン別館【地域密着型介護老人福祉施設入所者生活介護】茨城県つくば市大曽根3699-3", "url": "https://www.kaigokensaku.mhlw.go.jp/08/index.php?action_kouhyou_detail_004_kani=true&JigyosyoCd=0892000167-00&ServiceCd=540&Type=search", "url2": "https://f-kenseikai.or.jp/" }, "geometry": { "type": "Point", "coordinates": [ 140.0786823, 36.1384877 ] } },
{ "type": "Feature", "properties": { "内容": "特別養護老人ホーム　シニアガーデンアネックス【地域密着型介護老人福祉施設入所者生活介護】茨城県つくば市水守1189-5", "url": "https://www.kaigokensaku.mhlw.go.jp/08/index.php?action_kouhyou_detail_004_kani=true&JigyosyoCd=0892000084-00&ServiceCd=540&Type=search", "url2": "https://f-kenseikai.or.jp/facility/senior-garden-a/" }, "geometry": { "type": "Point", "coordinates": [ 140.0560037, 36.1671103 ] } },
{ "type": "Feature", "properties": { "内容": "ユニット型特別養護老人ホーム　いちょうの木【地域密着型介護老人福祉施設入所者生活介護】茨城県つくば市上岩崎834", "url": "https://www.kaigokensaku.mhlw.go.jp/08/index.php?action_kouhyou_detail_004_kani=true&JigyosyoCd=0892000209-00&ServiceCd=540&Type=search", "url2": "http://www.aishinkai.or.jp" }, "geometry": { "type": "Point", "coordinates": [ 140.100199217752106, 35.974496820038723 ] } },
{ "type": "Feature", "properties": { "内容": "地域密着型特別養護老人ホームはなみずきサテライト【地域密着型介護老人福祉施設入所者生活介護】下原338-1", "url": "https://www.kaigokensaku.mhlw.go.jp/08/index.php?action_kouhyou_detail_004_kani=true&JigyosyoCd=0892000282-00&ServiceCd=540&Type=search", "url2": "http://hanamizuki-care.jp/" }, "geometry": { "type": "Point", "coordinates": [ 140.1312785, 36.0384606 ] } },
{ "type": "Feature", "properties": { "内容": "特別養護老人ホームいくり苑【地域密着型介護老人福祉施設入所者生活介護】茨城県ひたちなか市磯崎町4561番地1", "url": "https://www.kaigokensaku.mhlw.go.jp/08/index.php?action_kouhyou_detail_004_kani=true&JigyosyoCd=0892100108-00&ServiceCd=540&Type=search", "url2": "http://www.ikurien.com" }, "geometry": { "type": "Point", "coordinates": [ 140.619729435581974, 36.377066471049673 ] } },
{ "type": "Feature", "properties": { "内容": "ユニット型特別養護老人ホーム　はまぎくの里【地域密着型介護老人福祉施設入所者生活介護】茨城県ひたちなか市中根９５２－１", "url": "https://www.kaigokensaku.mhlw.go.jp/08/index.php?action_kouhyou_detail_004_kani=true&JigyosyoCd=0892100124-00&ServiceCd=540&Type=search", "url2": "keiyuukai@cream.plala.co.jp" }, "geometry": { "type": "Point", "coordinates": [ 140.5618177, 36.3872552 ] } },
{ "type": "Feature", "properties": { "内容": "地域密着型介護老人福祉施設北勝園【地域密着型介護老人福祉施設入所者生活介護】茨城県ひたちなか市津田２０９３－１", "url": "https://www.kaigokensaku.mhlw.go.jp/08/index.php?action_kouhyou_detail_004_kani=true&JigyosyoCd=0892100082-00&ServiceCd=540&Type=search", "url2": "http://hokusuikai.or.jp" }, "geometry": { "type": "Point", "coordinates": [ 140.4922105, 36.4055704 ] } },
{ "type": "Feature", "properties": { "内容": "特別養護老人ホームサテライトさわの森【地域密着型介護老人福祉施設入所者生活介護】茨城県ひたちなか市西光地3丁目16-4", "url": "https://www.kaigokensaku.mhlw.go.jp/08/index.php?action_kouhyou_detail_004_kani=true&JigyosyoCd=0892100116-00&ServiceCd=540&Type=search", "url2": "http://www.morita-kinenkai.com/" }, "geometry": { "type": "Point", "coordinates": [ 140.5354193, 36.4206332 ] } },
{ "type": "Feature", "properties": { "内容": "サテライト松寿園　和【地域密着型介護老人福祉施設入所者生活介護】茨城県鹿嶋市和782-52", "url": "https://www.kaigokensaku.mhlw.go.jp/08/index.php?action_kouhyou_detail_004_kani=true&JigyosyoCd=0892200114-00&ServiceCd=540&Type=search", "url2": "http://matsukura-shojuen.jp/satellite" }, "geometry": { "type": "Point", "coordinates": [ 140.605361, 36.0500242 ] } },
{ "type": "Feature", "properties": { "内容": "サテライト松寿園　和【地域密着型介護老人福祉施設入所者生活介護】茨城県鹿嶋市和782-52", "url": "https://www.kaigokensaku.mhlw.go.jp/08/index.php?action_kouhyou_detail_004_kani=true&JigyosyoCd=0892200122-00&ServiceCd=540&Type=search", "url2": "http://matsukura-shojuen.jp/satellite" }, "geometry": { "type": "Point", "coordinates": [ 140.605361, 36.0500242 ] } },
{ "type": "Feature", "properties": { "内容": "特別養護老人ホーム和の家【地域密着型介護老人福祉施設入所者生活介護】茨城県鹿嶋市大字和字治825番1", "url": "https://www.kaigokensaku.mhlw.go.jp/08/index.php?action_kouhyou_detail_004_kani=true&JigyosyoCd=0892200049-00&ServiceCd=540&Type=search", "url2": null }, "geometry": { "type": "Point", "coordinates": [ 140.611750294328488, 36.039936406422648 ] } },
{ "type": "Feature", "properties": { "内容": "特別養護老人ホーム　松寿園【地域密着型介護老人福祉施設入所者生活介護】鹿嶋市武井1956-3", "url": "https://www.kaigokensaku.mhlw.go.jp/08/index.php?action_kouhyou_detail_004_kani=true&JigyosyoCd=0892200031-00&ServiceCd=540&Type=search", "url2": "http://matsukura-shojuen.jp/shojuen/" }, "geometry": { "type": "Point", "coordinates": [ 140.58403, 36.0564784 ] } },
{ "type": "Feature", "properties": { "内容": "特別養護老人ホーム峰林荘【地域密着型介護老人福祉施設入所者生活介護】茨城県守谷市野木崎1931", "url": "https://www.kaigokensaku.mhlw.go.jp/08/index.php?action_kouhyou_detail_004_kani=true&JigyosyoCd=0892400045-00&ServiceCd=540&Type=search", "url2": "https://hourinkai.com" }, "geometry": { "type": "Point", "coordinates": [ 139.95828, 35.9523298 ] } },
{ "type": "Feature", "properties": { "内容": "特別養護老人ホーム　サングリーンピア大宮【地域密着型介護老人福祉施設入所者生活介護】茨城県常陸大宮市若林1723-15", "url": "https://www.kaigokensaku.mhlw.go.jp/08/index.php?action_kouhyou_detail_004_kani=true&JigyosyoCd=0892500117-00&ServiceCd=540&Type=search", "url2": "http://sungreenpia.com/" }, "geometry": { "type": "Point", "coordinates": [ 140.382715552114831, 36.546776692355245 ] } },
{ "type": "Feature", "properties": { "内容": "ドルフィンサテライト【地域密着型介護老人福祉施設入所者生活介護】常陸大宮市泉503", "url": "https://www.kaigokensaku.mhlw.go.jp/08/index.php?action_kouhyou_detail_004_kani=true&JigyosyoCd=0892500083-00&ServiceCd=540&Type=search", "url2": "http://www.dolphin-net.or.jp" }, "geometry": { "type": "Point", "coordinates": [ 140.424902105140745, 36.528190103868013 ] } },
{ "type": "Feature", "properties": { "内容": "大宮フロイデドルフ【地域密着型介護老人福祉施設入所者生活介護】茨城県常陸大宮市抽ヶ台町889-1", "url": "https://www.kaigokensaku.mhlw.go.jp/08/index.php?action_kouhyou_detail_004_kani=true&JigyosyoCd=0892500091-00&ServiceCd=540&Type=search", "url2": "https://www.hakuyukai-sfg.com/dorf.php" }, "geometry": { "type": "Point", "coordinates": [ 140.406420900000057, 36.5480813 ] } },
{ "type": "Feature", "properties": { "内容": "小規模特別養護老人ホーム　みのりの森【地域密着型介護老人福祉施設入所者生活介護】常陸大宮市鷹巣2243-1", "url": "https://www.kaigokensaku.mhlw.go.jp/08/index.php?action_kouhyou_detail_004_kani=true&JigyosyoCd=0892500109-00&ServiceCd=540&Type=search", "url2": "htts://minorien.or.jp" }, "geometry": { "type": "Point", "coordinates": [ 140.395882499999971, 36.573039 ] } },
{ "type": "Feature", "properties": { "内容": "特別養護老人ホーム　ひまわり苑【地域密着型介護老人福祉施設入所者生活介護】茨城県筑西市吉田641-3", "url": "https://www.kaigokensaku.mhlw.go.jp/08/index.php?action_kouhyou_detail_004_kani=true&JigyosyoCd=0892700048-00&ServiceCd=540&Type=search", "url2": "https://www.himawari-akeno.jp" }, "geometry": { "type": "Point", "coordinates": [ 140.012336499999947, 36.2673497 ] } },
{ "type": "Feature", "properties": { "内容": "特別養護老人ホーム　さくら荘【地域密着型介護老人福祉施設入所者生活介護】茨城県筑西市宮山381-1", "url": "https://www.kaigokensaku.mhlw.go.jp/08/index.php?action_kouhyou_detail_004_kani=true&JigyosyoCd=0892700113-00&ServiceCd=540&Type=search", "url2": "http://www.shiun.or.jp" }, "geometry": { "type": "Point", "coordinates": [ 140.047564500000021, 36.2567323 ] } },
{ "type": "Feature", "properties": { "内容": "地域密着型特別養護老人ホーム「幸」【地域密着型介護老人福祉施設入所者生活介護】茨城県神栖市矢田部12681", "url": "https://www.kaigokensaku.mhlw.go.jp/08/index.php?action_kouhyou_detail_004_kani=true&JigyosyoCd=0895200087-00&ServiceCd=540&Type=search", "url2": "http:www.welfara-marinepia.or.jp/" }, "geometry": { "type": "Point", "coordinates": [ 140.757254, 35.7955153 ] } },
{ "type": "Feature", "properties": { "内容": "特別養護老人ホーム玉寿荘【地域密着型介護老人福祉施設入所者生活介護】茨城県　行方市　手賀1854-1", "url": "https://www.kaigokensaku.mhlw.go.jp/08/index.php?action_kouhyou_detail_004_kani=true&JigyosyoCd=0895300010-00&ServiceCd=540&Type=search", "url2": "care-net.biz/08/gyokujyusou/" }, "geometry": { "type": "Point", "coordinates": [ 140.433533799999964, 36.0847135 ] } },
{ "type": "Feature", "properties": { "内容": "特別養護老人ホーム晴風園の里【地域密着型介護老人福祉施設入所者生活介護】茨城県小美玉市高崎911番地1", "url": "https://www.kaigokensaku.mhlw.go.jp/08/index.php?action_kouhyou_detail_004_kani=true&JigyosyoCd=0895600047-00&ServiceCd=540&Type=search", "url2": null }, "geometry": { "type": "Point", "coordinates": [ 140.323361100000056, 36.1573745 ] } },
{ "type": "Feature", "properties": { "内容": "サテライトケアステーション桂【地域密着型介護老人福祉施設入所者生活介護】茨城県東茨城郡城里町高根台1-53", "url": "https://www.kaigokensaku.mhlw.go.jp/08/index.php?action_kouhyou_detail_004_kani=true&JigyosyoCd=0893100123-00&ServiceCd=540&Type=search", "url2": "www.shinaikai.or.jp" }, "geometry": { "type": "Point", "coordinates": [ 140.3447332, 36.5210991 ] } },
{ "type": "Feature", "properties": { "内容": "小規模特別養護老人ホーム　リヴァージュ【地域密着型介護老人福祉施設入所者生活介護】茨城県稲敷郡美浦村舟子字横田3143番１", "url": "https://www.kaigokensaku.mhlw.go.jp/08/index.php?action_kouhyou_detail_004_kani=true&JigyosyoCd=0893800037-00&ServiceCd=540&Type=search", "url2": null }, "geometry": { "type": "Point", "coordinates": [ 140.271660900000029, 36.0293327 ] } },
{ "type": "Feature", "properties": { "内容": "地域密着型特別養護老人ホーム鼎の郷【地域密着型介護老人福祉施設入所者生活介護】茨城県稲敷郡河内町金江津7501-2", "url": "https://www.kaigokensaku.mhlw.go.jp/08/index.php?action_kouhyou_detail_004_kani=true&JigyosyoCd=0893800052-00&ServiceCd=540&Type=search", "url2": "https://kawachikoseikai.com/" }, "geometry": { "type": "Point", "coordinates": [ 140.33596750000001, 35.8787419 ] } },
{ "type": "Feature", "properties": { "内容": "地域密着型特別養護老人ホーム　あおば【地域密着型介護老人福祉施設入所者生活介護】大平260-2", "url": "https://www.kaigokensaku.mhlw.go.jp/08/index.php?action_kouhyou_detail_004_kani=true&JigyosyoCd=0894400035-00&ServiceCd=540&Type=search", "url2": "https://kawachikoseikai.com/facility/aoba/aoba-top.html" }, "geometry": { "type": "Point", "coordinates": [ 140.159748400000012, 35.8778285 ] } }
]
}
