{
"type": "FeatureCollection",
"name": "geo_08_中学校",
"crs": { "type": "name", "properties": { "name": "urn:ogc:def:crs:EPSG::6668" } },
"features": [
{ "type": "Feature", "properties": { "P29_001": "08201", "P29_002": "C108110000011", "P29_003": "16002", "P29_004": "茨城大学教育学部附属中学校", "P29_005": "茨城県水戸市文京1-3-32", "P29_006": "1", "P29_007": "1", "P29_008": "00", "P29_009": null }, "geometry": { "type": "Point", "coordinates": [ 140.448242099001476, 36.39792152115897 ] } },
{ "type": "Feature", "properties": { "P29_001": "08201", "P29_002": "C108220100017", "P29_003": "16002", "P29_004": "水戸市立第一中学校", "P29_005": "茨城県水戸市東原3-1-1", "P29_006": "3", "P29_007": "1", "P29_008": "00", "P29_009": null }, "geometry": { "type": "Point", "coordinates": [ 140.448690644436226, 36.385599059586646 ] } },
{ "type": "Feature", "properties": { "P29_001": "08201", "P29_002": "C108220100026", "P29_003": "16002", "P29_004": "水戸市立第二中学校", "P29_005": "茨城県水戸市三の丸2-9-22", "P29_006": "3", "P29_007": "1", "P29_008": "00", "P29_009": null }, "geometry": { "type": "Point", "coordinates": [ 140.480159074695621, 36.375302276488249 ] } },
{ "type": "Feature", "properties": { "P29_001": "08201", "P29_002": "C108220100035", "P29_003": "16002", "P29_004": "水戸市立第三中学校", "P29_005": "茨城県水戸市朝日町2882-1", "P29_006": "3", "P29_007": "1", "P29_008": "00", "P29_009": null }, "geometry": { "type": "Point", "coordinates": [ 140.489563834081736, 36.361451469000961 ] } },
{ "type": "Feature", "properties": { "P29_001": "08201", "P29_002": "C108220100044", "P29_003": "16002", "P29_004": "水戸市立第四中学校", "P29_005": "茨城県水戸市元吉田町1987-3", "P29_006": "3", "P29_007": "1", "P29_008": "00", "P29_009": null }, "geometry": { "type": "Point", "coordinates": [ 140.48154949651385, 36.345409120806643 ] } },
{ "type": "Feature", "properties": { "P29_001": "08201", "P29_002": "C108220100053", "P29_003": "16002", "P29_004": "水戸市立第五中学校", "P29_005": "茨城県水戸市堀町1166-1", "P29_006": "3", "P29_007": "1", "P29_008": "00", "P29_009": null }, "geometry": { "type": "Point", "coordinates": [ 140.428444131600912, 36.39884828584713 ] } },
{ "type": "Feature", "properties": { "P29_001": "08201", "P29_002": "C108220100062", "P29_003": "16002", "P29_004": "水戸市立緑岡中学校", "P29_005": "茨城県水戸市見川町2563-81", "P29_006": "3", "P29_007": "1", "P29_008": "00", "P29_009": null }, "geometry": { "type": "Point", "coordinates": [ 140.444939607918826, 36.357624891448587 ] } },
{ "type": "Feature", "properties": { "P29_001": "08201", "P29_002": "C108220100071", "P29_003": "16002", "P29_004": "水戸市立飯富中学校", "P29_005": "茨城県水戸市飯富町4479-1", "P29_006": "3", "P29_007": "1", "P29_008": "00", "P29_009": null }, "geometry": { "type": "Point", "coordinates": [ 140.413743246879051, 36.438836891114896 ] } },
{ "type": "Feature", "properties": { "P29_001": "08201", "P29_002": "C108220100080", "P29_003": "16002", "P29_004": "水戸市立赤塚中学校", "P29_005": "茨城県水戸市河和田1-1708-4", "P29_006": "3", "P29_007": "1", "P29_008": "00", "P29_009": null }, "geometry": { "type": "Point", "coordinates": [ 140.410568237796298, 36.376647711073012 ] } },
{ "type": "Feature", "properties": { "P29_001": "08201", "P29_002": "C108220100099", "P29_003": "16002", "P29_004": "水戸市立見川中学校", "P29_005": "茨城県水戸市見川2-98", "P29_006": "3", "P29_007": "1", "P29_008": "00", "P29_009": null }, "geometry": { "type": "Point", "coordinates": [ 140.437632954262341, 36.37374182203061 ] } },
{ "type": "Feature", "properties": { "P29_001": "08201", "P29_002": "C108220100106", "P29_003": "16002", "P29_004": "水戸市立双葉台中学校", "P29_005": "茨城県水戸市双葉台5-27", "P29_006": "3", "P29_007": "1", "P29_008": "00", "P29_009": null }, "geometry": { "type": "Point", "coordinates": [ 140.407109175417418, 36.397345831429206 ] } },
{ "type": "Feature", "properties": { "P29_001": "08201", "P29_002": "C108220100115", "P29_003": "16002", "P29_004": "水戸市立笠原中学校", "P29_005": "茨城県水戸市笠原町417-3", "P29_006": "3", "P29_007": "1", "P29_008": "00", "P29_009": null }, "geometry": { "type": "Point", "coordinates": [ 140.45220401369636, 36.337420753244849 ] } },
{ "type": "Feature", "properties": { "P29_001": "08201", "P29_002": "C108220100124", "P29_003": "16002", "P29_004": "水戸市立石川中学校", "P29_005": "茨城県水戸市堀町2304-2", "P29_006": "3", "P29_007": "1", "P29_008": "00", "P29_009": null }, "geometry": { "type": "Point", "coordinates": [ 140.421152707619797, 36.396708554422901 ] } },
{ "type": "Feature", "properties": { "P29_001": "08201", "P29_002": "C108220100133", "P29_003": "16002", "P29_004": "水戸市立千波中学校", "P29_005": "茨城県水戸市元吉田町599-2", "P29_006": "3", "P29_007": "1", "P29_008": "00", "P29_009": null }, "geometry": { "type": "Point", "coordinates": [ 140.477079352168374, 36.358047139693333 ] } },
{ "type": "Feature", "properties": { "P29_001": "08201", "P29_002": "C108220100142", "P29_003": "16002", "P29_004": "水戸市立常澄中学校", "P29_005": "茨城県水戸市塩崎町1016", "P29_006": "3", "P29_007": "1", "P29_008": "00", "P29_009": null }, "geometry": { "type": "Point", "coordinates": [ 140.548269605866977, 36.333477871518532 ] } },
{ "type": "Feature", "properties": { "P29_001": "08201", "P29_002": "C108220100151", "P29_003": "16002", "P29_004": "水戸市立内原中学校", "P29_005": "茨城県水戸市内原町1463-29", "P29_006": "3", "P29_007": "1", "P29_008": "00", "P29_009": null }, "geometry": { "type": "Point", "coordinates": [ 140.360922661501235, 36.364297968313004 ] } },
{ "type": "Feature", "properties": { "P29_001": "08201", "P29_002": "C108220190018", "P29_003": "16002", "P29_004": "茨城県立水戸第一高等学校附属中学校", "P29_005": "茨城県水戸市三の丸3-10-1", "P29_006": "2", "P29_007": "1", "P29_008": "00", "P29_009": null }, "geometry": { "type": "Point", "coordinates": [ 140.483301203900709, 36.372102885217487 ] } },
{ "type": "Feature", "properties": { "P29_001": "08202", "P29_002": "C108220200016", "P29_003": "16002", "P29_004": "日立市立助川中学校", "P29_005": "茨城県日立市鹿島町3-5-1", "P29_006": "3", "P29_007": "1", "P29_008": "00", "P29_009": null }, "geometry": { "type": "Point", "coordinates": [ 140.647513997700713, 36.588509998787252 ] } },
{ "type": "Feature", "properties": { "P29_001": "08202", "P29_002": "C108220200025", "P29_003": "16002", "P29_004": "日立市立平沢中学校", "P29_005": "茨城県日立市高鈴町1-15-1", "P29_006": "3", "P29_007": "1", "P29_008": "00", "P29_009": null }, "geometry": { "type": "Point", "coordinates": [ 140.643651143810217, 36.600764712571618 ] } },
{ "type": "Feature", "properties": { "P29_001": "08202", "P29_002": "C108220200034", "P29_003": "16002", "P29_004": "日立市立駒王中学校", "P29_005": "茨城県日立市神峰町3-2-32", "P29_006": "3", "P29_007": "1", "P29_008": "00", "P29_009": null }, "geometry": { "type": "Point", "coordinates": [ 140.656642901669215, 36.601753483466076 ] } },
{ "type": "Feature", "properties": { "P29_001": "08202", "P29_002": "C108220200043", "P29_003": "16002", "P29_004": "日立市立多賀中学校", "P29_005": "茨城県日立市鮎川町3-11-2", "P29_006": "3", "P29_007": "1", "P29_008": "00", "P29_009": null }, "geometry": { "type": "Point", "coordinates": [ 140.639236125393666, 36.566767788647404 ] } },
{ "type": "Feature", "properties": { "P29_001": "08202", "P29_002": "C108220200052", "P29_003": "16002", "P29_004": "日立市立大久保中学校", "P29_005": "茨城県日立市末広町5-12-34", "P29_006": "3", "P29_007": "1", "P29_008": "00", "P29_009": null }, "geometry": { "type": "Point", "coordinates": [ 140.619118759333048, 36.558286681623244 ] } },
{ "type": "Feature", "properties": { "P29_001": "08202", "P29_002": "C108220200061", "P29_003": "16002", "P29_004": "日立市立泉丘中学校", "P29_005": "茨城県日立市水木町2-9-1", "P29_006": "3", "P29_007": "1", "P29_008": "00", "P29_009": null }, "geometry": { "type": "Point", "coordinates": [ 140.626702886802263, 36.523041963728552 ] } },
{ "type": "Feature", "properties": { "P29_001": "08202", "P29_002": "C108220200070", "P29_003": "16002", "P29_004": "日立市立日高中学校", "P29_005": "茨城県日立市小木津町3-26-1", "P29_006": "3", "P29_007": "1", "P29_008": "00", "P29_009": null }, "geometry": { "type": "Point", "coordinates": [ 140.681013254066357, 36.643057495441802 ] } },
{ "type": "Feature", "properties": { "P29_001": "08202", "P29_002": "C108220200089", "P29_003": "16002", "P29_004": "日立市立坂本中学校", "P29_005": "茨城県日立市石名坂町1-30-1", "P29_006": "3", "P29_007": "1", "P29_008": "00", "P29_009": null }, "geometry": { "type": "Point", "coordinates": [ 140.597376039841777, 36.509926440291359 ] } },
{ "type": "Feature", "properties": { "P29_001": "08202", "P29_002": "C108220200098", "P29_003": "16002", "P29_004": "日立市立久慈中学校", "P29_005": "茨城県日立市久慈町6-20-2", "P29_006": "3", "P29_007": "1", "P29_008": "00", "P29_009": null }, "geometry": { "type": "Point", "coordinates": [ 140.611011734172166, 36.505211032261208 ] } },
{ "type": "Feature", "properties": { "P29_001": "08202", "P29_002": "C108220200114", "P29_003": "16002", "P29_004": "日立市立豊浦中学校", "P29_005": "茨城県日立市川尻町3-11-1", "P29_006": "3", "P29_007": "1", "P29_008": "00", "P29_009": null }, "geometry": { "type": "Point", "coordinates": [ 140.703828051362933, 36.657670586864974 ] } },
{ "type": "Feature", "properties": { "P29_001": "08202", "P29_002": "C108220200123", "P29_003": "16002", "P29_004": "日立市立河原子中学校", "P29_005": "茨城県日立市東多賀町4-10-10", "P29_006": "3", "P29_007": "1", "P29_008": "00", "P29_009": null }, "geometry": { "type": "Point", "coordinates": [ 140.63078106018213, 36.545368145293146 ] } },
{ "type": "Feature", "properties": { "P29_001": "08202", "P29_002": "C108220200132", "P29_003": "16002", "P29_004": "日立市立台原中学校", "P29_005": "茨城県日立市台原町1-9-1", "P29_006": "3", "P29_007": "1", "P29_008": "00", "P29_009": null }, "geometry": { "type": "Point", "coordinates": [ 140.610901521253453, 36.533015179907274 ] } },
{ "type": "Feature", "properties": { "P29_001": "08202", "P29_002": "C108220200141", "P29_003": "16002", "P29_004": "日立市立滑川中学校", "P29_005": "茨城県日立市東滑川町3-17-1", "P29_006": "3", "P29_007": "1", "P29_008": "00", "P29_009": null }, "geometry": { "type": "Point", "coordinates": [ 140.674557205627394, 36.615088901964562 ] } },
{ "type": "Feature", "properties": { "P29_001": "08202", "P29_002": "C108220200150", "P29_003": "16002", "P29_004": "日立市立十王中学校", "P29_005": "茨城県日立市十王町友部600", "P29_006": "3", "P29_007": "1", "P29_008": "00", "P29_009": null }, "geometry": { "type": "Point", "coordinates": [ 140.679175255853153, 36.674919887125839 ] } },
{ "type": "Feature", "properties": { "P29_001": "08202", "P29_002": "C108220290017", "P29_003": "16002", "P29_004": "茨城県立日立第一高等学校附属中学校", "P29_005": "茨城県日立市若葉町3-15-1", "P29_006": "2", "P29_007": "1", "P29_008": "00", "P29_009": null }, "geometry": { "type": "Point", "coordinates": [ 140.658676932531677, 36.599579567389476 ] } },
{ "type": "Feature", "properties": { "P29_001": "08203", "P29_002": "C108220300015", "P29_003": "16002", "P29_004": "土浦市立土浦第一中学校", "P29_005": "茨城県土浦市文京町3-8", "P29_006": "3", "P29_007": "1", "P29_008": "00", "P29_009": null }, "geometry": { "type": "Point", "coordinates": [ 140.193987540984295, 36.084621140597427 ] } },
{ "type": "Feature", "properties": { "P29_001": "08203", "P29_002": "C108220300024", "P29_003": "16002", "P29_004": "土浦市立土浦第二中学校", "P29_005": "茨城県土浦市東真鍋町21-7", "P29_006": "3", "P29_007": "1", "P29_008": "00", "P29_009": null }, "geometry": { "type": "Point", "coordinates": [ 140.208223437208886, 36.096571778430807 ] } },
{ "type": "Feature", "properties": { "P29_001": "08203", "P29_002": "C108220300033", "P29_003": "16002", "P29_004": "土浦市立土浦第三中学校", "P29_005": "茨城県土浦市中村南1-25-15", "P29_006": "3", "P29_007": "1", "P29_008": "00", "P29_009": null }, "geometry": { "type": "Point", "coordinates": [ 140.167105999848303, 36.04181100360011 ] } },
{ "type": "Feature", "properties": { "P29_001": "08203", "P29_002": "C108220300042", "P29_003": "16002", "P29_004": "土浦市立土浦第四中学校", "P29_005": "茨城県土浦市中高津3-10-4", "P29_006": "3", "P29_007": "1", "P29_008": "00", "P29_009": null }, "geometry": { "type": "Point", "coordinates": [ 140.181929201912908, 36.068250738974015 ] } },
{ "type": "Feature", "properties": { "P29_001": "08203", "P29_002": "C108220300051", "P29_003": "16002", "P29_004": "土浦市立土浦第五中学校", "P29_005": "茨城県土浦市手野町3218-1", "P29_006": "3", "P29_007": "1", "P29_008": "00", "P29_009": null }, "geometry": { "type": "Point", "coordinates": [ 140.2446509957812, 36.098860995183287 ] } },
{ "type": "Feature", "properties": { "P29_001": "08203", "P29_002": "C108220300060", "P29_003": "16002", "P29_004": "土浦市立土浦第六中学校", "P29_005": "茨城県土浦市右籾428", "P29_006": "3", "P29_007": "1", "P29_008": "00", "P29_009": null }, "geometry": { "type": "Point", "coordinates": [ 140.195849351910425, 36.050698239450881 ] } },
{ "type": "Feature", "properties": { "P29_001": "08203", "P29_002": "C108220300079", "P29_003": "16002", "P29_004": "土浦市立都和中学校", "P29_005": "茨城県土浦市大字中貫1222-2", "P29_006": "3", "P29_007": "1", "P29_008": "00", "P29_009": null }, "geometry": { "type": "Point", "coordinates": [ 140.197488375392425, 36.120191377995738 ] } },
{ "type": "Feature", "properties": { "P29_001": "08203", "P29_002": "C108220390016", "P29_003": "16002", "P29_004": "茨城県立土浦第一高等学校附属中学校", "P29_005": "茨城県土浦市真鍋4-4-2", "P29_006": "2", "P29_007": "1", "P29_008": "00", "P29_009": null }, "geometry": { "type": "Point", "coordinates": [ 140.202868033251946, 36.097856532514434 ] } },
{ "type": "Feature", "properties": { "P29_001": "08204", "P29_002": "C108220400014", "P29_003": "16002", "P29_004": "古河市立古河第一中学校", "P29_005": "茨城県古河市常盤町11-26", "P29_006": "3", "P29_007": "1", "P29_008": "00", "P29_009": null }, "geometry": { "type": "Point", "coordinates": [ 139.714310859797138, 36.204483484446406 ] } },
{ "type": "Feature", "properties": { "P29_001": "08204", "P29_002": "C108220400023", "P29_003": "16002", "P29_004": "古河市立古河第二中学校", "P29_005": "茨城県古河市鴻巣780", "P29_006": "3", "P29_007": "1", "P29_008": "00", "P29_009": null }, "geometry": { "type": "Point", "coordinates": [ 139.713496875214702, 36.17190718060818 ] } },
{ "type": "Feature", "properties": { "P29_001": "08204", "P29_002": "C108220400032", "P29_003": "16002", "P29_004": "古河市立古河第三中学校", "P29_005": "茨城県古河市下山町9-5", "P29_006": "3", "P29_007": "1", "P29_008": "00", "P29_009": null }, "geometry": { "type": "Point", "coordinates": [ 139.725278000633153, 36.189672003356144 ] } },
{ "type": "Feature", "properties": { "P29_001": "08204", "P29_002": "C108220400041", "P29_003": "16002", "P29_004": "古河市立総和中学校", "P29_005": "茨城県古河市女沼290-1", "P29_006": "3", "P29_007": "1", "P29_008": "00", "P29_009": null }, "geometry": { "type": "Point", "coordinates": [ 139.752014337599206, 36.176443857951455 ] } },
{ "type": "Feature", "properties": { "P29_001": "08204", "P29_002": "C108220400050", "P29_003": "16002", "P29_004": "古河市立総和北中学校", "P29_005": "茨城県古河市小堤1775", "P29_006": "3", "P29_007": "1", "P29_008": "00", "P29_009": null }, "geometry": { "type": "Point", "coordinates": [ 139.76714601875662, 36.202774021564366 ] } },
{ "type": "Feature", "properties": { "P29_001": "08204", "P29_002": "C108220400069", "P29_003": "16002", "P29_004": "古河市立総和南中学校", "P29_005": "茨城県古河市磯部1773", "P29_006": "3", "P29_007": "1", "P29_008": "00", "P29_009": null }, "geometry": { "type": "Point", "coordinates": [ 139.753106585575324, 36.163797805217506 ] } },
{ "type": "Feature", "properties": { "P29_001": "08204", "P29_002": "C108220400078", "P29_003": "16002", "P29_004": "古河市立三和中学校", "P29_005": "茨城県古河市東山田472", "P29_006": "3", "P29_007": "1", "P29_008": "00", "P29_009": null }, "geometry": { "type": "Point", "coordinates": [ 139.814859474537712, 36.171885185897253 ] } },
{ "type": "Feature", "properties": { "P29_001": "08204", "P29_002": "C108220400087", "P29_003": "16002", "P29_004": "古河市立三和北中学校", "P29_005": "茨城県古河市諸川1995", "P29_006": "3", "P29_007": "1", "P29_008": "00", "P29_009": null }, "geometry": { "type": "Point", "coordinates": [ 139.806131995031677, 36.208701003242588 ] } },
{ "type": "Feature", "properties": { "P29_001": "08204", "P29_002": "C108220400096", "P29_003": "16002", "P29_004": "古河市立三和東中学校", "P29_005": "茨城県古河市尾崎4515", "P29_006": "3", "P29_007": "1", "P29_008": "00", "P29_009": null }, "geometry": { "type": "Point", "coordinates": [ 139.838017996054958, 36.194258998164614 ] } },
{ "type": "Feature", "properties": { "P29_001": "08205", "P29_002": "C108220500013", "P29_003": "16002", "P29_004": "石岡市立石岡中学校", "P29_005": "茨城県石岡市東石岡4-2-1", "P29_006": "3", "P29_007": "1", "P29_008": "00", "P29_009": null }, "geometry": { "type": "Point", "coordinates": [ 140.293929409677816, 36.188600861323273 ] } },
{ "type": "Feature", "properties": { "P29_001": "08205", "P29_002": "C108220500022", "P29_003": "16002", "P29_004": "石岡市立府中中学校", "P29_005": "茨城県石岡市若松2-6-5", "P29_006": "3", "P29_007": "1", "P29_008": "00", "P29_009": null }, "geometry": { "type": "Point", "coordinates": [ 140.264814269430673, 36.198995496194009 ] } },
{ "type": "Feature", "properties": { "P29_001": "08205", "P29_002": "C108220500031", "P29_003": "16002", "P29_004": "石岡市立国府中学校", "P29_005": "茨城県石岡市総社2-12-1", "P29_006": "3", "P29_007": "1", "P29_008": "00", "P29_009": null }, "geometry": { "type": "Point", "coordinates": [ 140.268229154390269, 36.185649576528867 ] } },
{ "type": "Feature", "properties": { "P29_001": "08205", "P29_002": "C108220500040", "P29_003": "16002", "P29_004": "石岡市立園部中学校", "P29_005": "茨城県石岡市山崎1862", "P29_006": "3", "P29_007": "1", "P29_008": "00", "P29_009": null }, "geometry": { "type": "Point", "coordinates": [ 140.25660591576937, 36.259128661425144 ] } },
{ "type": "Feature", "properties": { "P29_001": "08205", "P29_002": "C108220500059", "P29_003": "16002", "P29_004": "石岡市立八郷中学校", "P29_005": "茨城県石岡市柿岡3513-2", "P29_006": "3", "P29_007": "1", "P29_008": "00", "P29_009": null }, "geometry": { "type": "Point", "coordinates": [ 140.189889203133561, 36.248253875532733 ] } },
{ "type": "Feature", "properties": { "P29_001": "08207", "P29_002": "C108220700011", "P29_003": "16002", "P29_004": "結城市立結城中学校", "P29_005": "茨城県結城市小田林2600", "P29_006": "3", "P29_007": "1", "P29_008": "00", "P29_009": null }, "geometry": { "type": "Point", "coordinates": [ 139.854483867782022, 36.299424215741467 ] } },
{ "type": "Feature", "properties": { "P29_001": "08207", "P29_002": "C108220700020", "P29_003": "16002", "P29_004": "結城市立結城南中学校", "P29_005": "茨城県結城市大木1123", "P29_006": "3", "P29_007": "1", "P29_008": "00", "P29_009": null }, "geometry": { "type": "Point", "coordinates": [ 139.865038009847666, 36.255318216339596 ] } },
{ "type": "Feature", "properties": { "P29_001": "08207", "P29_002": "C108220700039", "P29_003": "16002", "P29_004": "結城市立結城東中学校", "P29_005": "茨城県結城市結城3381", "P29_006": "3", "P29_007": "1", "P29_008": "00", "P29_009": null }, "geometry": { "type": "Point", "coordinates": [ 139.885833897872914, 36.298746943944899 ] } },
{ "type": "Feature", "properties": { "P29_001": "08208", "P29_002": "C108220800038", "P29_003": "16002", "P29_004": "龍ケ崎市立長山中学校", "P29_005": "茨城県龍ケ崎市長山3-1", "P29_006": "3", "P29_007": "1", "P29_008": "00", "P29_009": null }, "geometry": { "type": "Point", "coordinates": [ 140.156090538497693, 35.942255092522302 ] } },
{ "type": "Feature", "properties": { "P29_001": "08208", "P29_002": "C108220800047", "P29_003": "16002", "P29_004": "龍ケ崎市立城西中学校", "P29_005": "茨城県龍ケ崎市川原代町710", "P29_006": "3", "P29_007": "1", "P29_008": "00", "P29_009": null }, "geometry": { "type": "Point", "coordinates": [ 140.138583996356402, 35.920769999986746 ] } },
{ "type": "Feature", "properties": { "P29_001": "08208", "P29_002": "C108220800056", "P29_003": "16002", "P29_004": "龍ケ崎市立中根台中学校", "P29_005": "茨城県龍ケ崎市中根台1-12", "P29_006": "3", "P29_007": "1", "P29_008": "00", "P29_009": null }, "geometry": { "type": "Point", "coordinates": [ 140.171281824766709, 35.928307542594226 ] } },
{ "type": "Feature", "properties": { "P29_001": "08208", "P29_002": "C108220800065", "P29_003": "16002", "P29_004": "龍ケ崎市立城ノ内中学校", "P29_005": "茨城県龍ケ崎市城ノ内5-3", "P29_006": "3", "P29_007": "1", "P29_008": "00", "P29_009": null }, "geometry": { "type": "Point", "coordinates": [ 140.207715444084073, 35.922108729274328 ] } },
{ "type": "Feature", "properties": { "P29_001": "08208", "P29_002": "C108220800074", "P29_003": "16002", "P29_004": "龍ケ崎市立龍ケ崎中学校", "P29_005": "茨城県龍ケ崎市3777", "P29_006": "3", "P29_007": "1", "P29_008": "00", "P29_009": null }, "geometry": { "type": "Point", "coordinates": [ 140.179947779650348, 35.914050970856408 ] } },
{ "type": "Feature", "properties": { "P29_001": "08208", "P29_002": "C108220890011", "P29_003": "16002", "P29_004": "茨城県立竜ヶ崎第一高等学校附属中学校", "P29_005": "茨城県龍ケ崎市平畑248", "P29_006": "2", "P29_007": "1", "P29_008": "00", "P29_009": null }, "geometry": { "type": "Point", "coordinates": [ 140.187178893663514, 35.914960917489388 ] } },
{ "type": "Feature", "properties": { "P29_001": "08210", "P29_002": "C108221000016", "P29_003": "16002", "P29_004": "下妻市立下妻中学校", "P29_005": "茨城県下妻市長塚乙38-1", "P29_006": "3", "P29_007": "1", "P29_008": "00", "P29_009": null }, "geometry": { "type": "Point", "coordinates": [ 139.945224704339182, 36.191140814728172 ] } },
{ "type": "Feature", "properties": { "P29_001": "08210", "P29_002": "C108221000025", "P29_003": "16002", "P29_004": "下妻市立東部中学校", "P29_005": "茨城県下妻市大串1279", "P29_006": "3", "P29_007": "1", "P29_008": "00", "P29_009": null }, "geometry": { "type": "Point", "coordinates": [ 139.976768336206391, 36.200637783986586 ] } },
{ "type": "Feature", "properties": { "P29_001": "08210", "P29_002": "C108221000034", "P29_003": "16002", "P29_004": "下妻市立千代川中学校", "P29_005": "茨城県下妻市鎌庭2777", "P29_006": "3", "P29_007": "1", "P29_008": "00", "P29_009": null }, "geometry": { "type": "Point", "coordinates": [ 139.959769296372457, 36.153281112139524 ] } },
{ "type": "Feature", "properties": { "P29_001": "08210", "P29_002": "C108221090017", "P29_003": "16002", "P29_004": "茨城県立下妻第一高等学校附属中学校", "P29_005": "茨城県下妻市下妻乙226-1", "P29_006": "2", "P29_007": "1", "P29_008": "00", "P29_009": null }, "geometry": { "type": "Point", "coordinates": [ 139.961832932171632, 36.183024717333637 ] } },
{ "type": "Feature", "properties": { "P29_001": "08211", "P29_002": "C108221100015", "P29_003": "16002", "P29_004": "常総市立水海道中学校", "P29_005": "茨城県常総市小山戸町61", "P29_006": "3", "P29_007": "1", "P29_008": "00", "P29_009": null }, "geometry": { "type": "Point", "coordinates": [ 139.985232997053174, 36.035002998011784 ] } },
{ "type": "Feature", "properties": { "P29_001": "08211", "P29_002": "C108221100024", "P29_003": "16002", "P29_004": "常総市立水海道西中学校", "P29_005": "茨城県常総市豊岡町乙1005-1", "P29_006": "3", "P29_007": "1", "P29_008": "00", "P29_009": null }, "geometry": { "type": "Point", "coordinates": [ 139.968231224036856, 36.027847819847715 ] } },
{ "type": "Feature", "properties": { "P29_001": "08211", "P29_002": "C108221100033", "P29_003": "16002", "P29_004": "常総市立鬼怒中学校", "P29_005": "茨城県常総市中妻町4180", "P29_006": "3", "P29_007": "1", "P29_008": "00", "P29_009": null }, "geometry": { "type": "Point", "coordinates": [ 139.981322618839926, 36.069469911481491 ] } },
{ "type": "Feature", "properties": { "P29_001": "08211", "P29_002": "C108221100042", "P29_003": "16002", "P29_004": "常総市立石下中学校", "P29_005": "茨城県常総市本石下1000-1", "P29_006": "3", "P29_007": "1", "P29_008": "00", "P29_009": null }, "geometry": { "type": "Point", "coordinates": [ 139.975711317838375, 36.123000979093163 ] } },
{ "type": "Feature", "properties": { "P29_001": "08211", "P29_002": "C108221100051", "P29_003": "16002", "P29_004": "常総市立石下西中学校", "P29_005": "茨城県常総市杉山910-1", "P29_006": "3", "P29_007": "1", "P29_008": "00", "P29_009": null }, "geometry": { "type": "Point", "coordinates": [ 139.946318001365825, 36.117383001831314 ] } },
{ "type": "Feature", "properties": { "P29_001": "08211", "P29_002": "C108221190016", "P29_003": "16002", "P29_004": "茨城県立水海道第一高等学校附属中学校", "P29_005": "茨城県常総市亀岡町2543", "P29_006": "2", "P29_007": "1", "P29_008": "00", "P29_009": null }, "geometry": { "type": "Point", "coordinates": [ 139.985777403412015, 36.018468964928928 ] } },
{ "type": "Feature", "properties": { "P29_001": "08212", "P29_002": "C108221200014", "P29_003": "16002", "P29_004": "常陸太田市立太田中学校", "P29_005": "茨城県常陸太田市新宿町466", "P29_006": "3", "P29_007": "1", "P29_008": "00", "P29_009": null }, "geometry": { "type": "Point", "coordinates": [ 140.51471904934283, 36.54493688968801 ] } },
{ "type": "Feature", "properties": { "P29_001": "08212", "P29_002": "C108221200023", "P29_003": "16002", "P29_004": "常陸太田市立世矢中学校", "P29_005": "茨城県常陸太田市真弓町1878", "P29_006": "3", "P29_007": "1", "P29_008": "00", "P29_009": null }, "geometry": { "type": "Point", "coordinates": [ 140.569460512733315, 36.525919418885159 ] } },
{ "type": "Feature", "properties": { "P29_001": "08212", "P29_002": "C108221200032", "P29_003": "16002", "P29_004": "常陸太田市立峰山中学校", "P29_005": "茨城県常陸太田市磯部町1620", "P29_006": "3", "P29_007": "1", "P29_008": "00", "P29_009": null }, "geometry": { "type": "Point", "coordinates": [ 140.536649448140565, 36.515953400775437 ] } },
{ "type": "Feature", "properties": { "P29_001": "08212", "P29_002": "C108221200041", "P29_003": "16002", "P29_004": "常陸太田市立瑞竜中学校", "P29_005": "茨城県常陸太田市瑞龍町570", "P29_006": "3", "P29_007": "1", "P29_008": "00", "P29_009": null }, "geometry": { "type": "Point", "coordinates": [ 140.530700573360633, 36.554768444254641 ] } },
{ "type": "Feature", "properties": { "P29_001": "08212", "P29_002": "C108221200050", "P29_003": "16002", "P29_004": "常陸太田市立金砂郷中学校", "P29_005": "茨城県常陸太田市大里町3577", "P29_006": "3", "P29_007": "1", "P29_008": "00", "P29_009": null }, "geometry": { "type": "Point", "coordinates": [ 140.477656999466603, 36.536822999620512 ] } },
{ "type": "Feature", "properties": { "P29_001": "08212", "P29_002": "C108221200069", "P29_003": "16002", "P29_004": "常陸太田市立水府中学校", "P29_005": "茨城県常陸太田市町田町696", "P29_006": "3", "P29_007": "1", "P29_008": "00", "P29_009": null }, "geometry": { "type": "Point", "coordinates": [ 140.485268820596104, 36.621444459788741 ] } },
{ "type": "Feature", "properties": { "P29_001": "08212", "P29_002": "C108221200078", "P29_003": "16002", "P29_004": "常陸太田市立里美中学校", "P29_005": "茨城県常陸太田市大中町60-1", "P29_006": "3", "P29_007": "1", "P29_008": "00", "P29_009": null }, "geometry": { "type": "Point", "coordinates": [ 140.496060434606079, 36.723664194308157 ] } },
{ "type": "Feature", "properties": { "P29_001": "08212", "P29_002": "C108221290015", "P29_003": "16002", "P29_004": "茨城県立太田第一高等学校附属中学校", "P29_005": "茨城県常陸太田市栄町58", "P29_006": "2", "P29_007": "1", "P29_008": "00", "P29_009": null }, "geometry": { "type": "Point", "coordinates": [ 140.521510005621565, 36.548704995745474 ] } },
{ "type": "Feature", "properties": { "P29_001": "08214", "P29_002": "C108221400012", "P29_003": "16002", "P29_004": "高萩市立高萩中学校", "P29_005": "茨城県高萩市高浜町1-77", "P29_006": "3", "P29_007": "1", "P29_008": "00", "P29_009": null }, "geometry": { "type": "Point", "coordinates": [ 140.71945945647866, 36.709766271632162 ] } },
{ "type": "Feature", "properties": { "P29_001": "08214", "P29_002": "C108221400021", "P29_003": "16002", "P29_004": "高萩市立松岡中学校", "P29_005": "茨城県高萩市下手綱4", "P29_006": "3", "P29_007": "1", "P29_008": "00", "P29_009": null }, "geometry": { "type": "Point", "coordinates": [ 140.70208534610299, 36.739983584393997 ] } },
{ "type": "Feature", "properties": { "P29_001": "08214", "P29_002": "C108221400030", "P29_003": "16002", "P29_004": "高萩市立秋山中学校", "P29_005": "茨城県高萩市高萩273", "P29_006": "3", "P29_007": "1", "P29_008": "00", "P29_009": null }, "geometry": { "type": "Point", "coordinates": [ 140.689061194993826, 36.72126643132772 ] } },
{ "type": "Feature", "properties": { "P29_001": "08215", "P29_002": "C108221500011", "P29_003": "16002", "P29_004": "北茨城市立中郷中学校", "P29_005": "茨城県北茨城市中郷町足洗508", "P29_006": "3", "P29_007": "1", "P29_008": "00", "P29_009": null }, "geometry": { "type": "Point", "coordinates": [ 140.735425539069752, 36.774223180168377 ] } },
{ "type": "Feature", "properties": { "P29_001": "08215", "P29_002": "C108221500020", "P29_003": "16002", "P29_004": "北茨城市立磯原中学校", "P29_005": "茨城県北茨城市磯原町豊田979-1", "P29_006": "3", "P29_007": "1", "P29_008": "00", "P29_009": null }, "geometry": { "type": "Point", "coordinates": [ 140.729668823790149, 36.7963197973571 ] } },
{ "type": "Feature", "properties": { "P29_001": "08215", "P29_002": "C108221500048", "P29_003": "16002", "P29_004": "北茨城市立常北中学校", "P29_005": "茨城県北茨城市大津町2448", "P29_006": "3", "P29_007": "1", "P29_008": "00", "P29_009": null }, "geometry": { "type": "Point", "coordinates": [ 140.786445687860777, 36.840670665950029 ] } },
{ "type": "Feature", "properties": { "P29_001": "08215", "P29_002": "C108221500057", "P29_003": "16002", "P29_004": "北茨城市立関本中学校", "P29_005": "茨城県北茨城市関本町関本上1470", "P29_006": "3", "P29_007": "1", "P29_008": "00", "P29_009": null }, "geometry": { "type": "Point", "coordinates": [ 140.759956789010232, 36.86042605312543 ] } },
{ "type": "Feature", "properties": { "P29_001": "08216", "P29_002": "C108221600010", "P29_003": "16002", "P29_004": "笠間市立笠間中学校", "P29_005": "茨城県笠間市笠間2702", "P29_006": "3", "P29_007": "1", "P29_008": "00", "P29_009": null }, "geometry": { "type": "Point", "coordinates": [ 140.257945998786766, 36.380358000270569 ] } },
{ "type": "Feature", "properties": { "P29_001": "08216", "P29_002": "C108221600029", "P29_003": "16002", "P29_004": "笠間市立稲田中学校", "P29_005": "茨城県笠間市稲田2145-3", "P29_006": "3", "P29_007": "1", "P29_008": "00", "P29_009": null }, "geometry": { "type": "Point", "coordinates": [ 140.204716663982936, 36.360499713571713 ] } },
{ "type": "Feature", "properties": { "P29_001": "08216", "P29_002": "C108221600038", "P29_003": "16002", "P29_004": "笠間市立友部中学校", "P29_005": "茨城県笠間市中央4-1-1", "P29_006": "3", "P29_007": "1", "P29_008": "00", "P29_009": null }, "geometry": { "type": "Point", "coordinates": [ 140.300483135818126, 36.343118090723642 ] } },
{ "type": "Feature", "properties": { "P29_001": "08216", "P29_002": "C108221600047", "P29_003": "16002", "P29_004": "笠間市立友部第二中学校", "P29_005": "茨城県笠間市旭町510-1", "P29_006": "3", "P29_007": "1", "P29_008": "00", "P29_009": null }, "geometry": { "type": "Point", "coordinates": [ 140.330375955498113, 36.326027876227059 ] } },
{ "type": "Feature", "properties": { "P29_001": "08216", "P29_002": "C108221600056", "P29_003": "16002", "P29_004": "笠間市立岩間中学校", "P29_005": "茨城県笠間市下郷4997-1", "P29_006": "3", "P29_007": "1", "P29_008": "00", "P29_009": null }, "geometry": { "type": "Point", "coordinates": [ 140.287686308501463, 36.300331269921834 ] } },
{ "type": "Feature", "properties": { "P29_001": "08217", "P29_002": "C108221700019", "P29_003": "16002", "P29_004": "取手市立取手第一中学校", "P29_005": "茨城県取手市吉田470", "P29_006": "3", "P29_007": "1", "P29_008": "00", "P29_009": null }, "geometry": { "type": "Point", "coordinates": [ 140.086221997135652, 35.893231000805891 ] } },
{ "type": "Feature", "properties": { "P29_001": "08217", "P29_002": "C108221700028", "P29_003": "16002", "P29_004": "取手市立取手第二中学校", "P29_005": "茨城県取手市寺田5147", "P29_006": "3", "P29_007": "1", "P29_008": "00", "P29_009": null }, "geometry": { "type": "Point", "coordinates": [ 140.051870663482362, 35.91101671580887 ] } },
{ "type": "Feature", "properties": { "P29_001": "08217", "P29_002": "C108221700037", "P29_003": "16002", "P29_004": "取手市立永山中学校", "P29_005": "茨城県取手市下高井2311", "P29_006": "3", "P29_007": "1", "P29_008": "00", "P29_009": null }, "geometry": { "type": "Point", "coordinates": [ 140.030105095477836, 35.925255602277204 ] } },
{ "type": "Feature", "properties": { "P29_001": "08217", "P29_002": "C108221700046", "P29_003": "16002", "P29_004": "取手市立戸頭中学校", "P29_005": "茨城県取手市戸頭7-1-1", "P29_006": "3", "P29_007": "1", "P29_008": "00", "P29_009": null }, "geometry": { "type": "Point", "coordinates": [ 140.011753575590063, 35.920765155394356 ] } },
{ "type": "Feature", "properties": { "P29_001": "08217", "P29_002": "C108221700055", "P29_003": "16002", "P29_004": "取手市立藤代中学校", "P29_005": "茨城県取手市椚木1343", "P29_006": "3", "P29_007": "1", "P29_008": "00", "P29_009": null }, "geometry": { "type": "Point", "coordinates": [ 140.092644001470376, 35.925240997769407 ] } },
{ "type": "Feature", "properties": { "P29_001": "08217", "P29_002": "C108221700064", "P29_003": "16002", "P29_004": "取手市立藤代南中学校", "P29_005": "茨城県取手市中田880", "P29_006": "3", "P29_007": "1", "P29_008": "00", "P29_009": null }, "geometry": { "type": "Point", "coordinates": [ 140.117781974043993, 35.906542241021192 ] } },
{ "type": "Feature", "properties": { "P29_001": "08219", "P29_002": "C108221900017", "P29_003": "16002", "P29_004": "牛久市立牛久第一中学校", "P29_005": "茨城県牛久市柏田町1017-2", "P29_006": "3", "P29_007": "1", "P29_008": "00", "P29_009": null }, "geometry": { "type": "Point", "coordinates": [ 140.154698000156742, 35.976966998847416 ] } },
{ "type": "Feature", "properties": { "P29_001": "08219", "P29_002": "C108221900026", "P29_003": "16002", "P29_004": "牛久市立牛久第三中学校", "P29_005": "茨城県牛久市城中町1830-1", "P29_006": "3", "P29_007": "1", "P29_008": "00", "P29_009": null }, "geometry": { "type": "Point", "coordinates": [ 140.127641483622085, 35.964408461681245 ] } },
{ "type": "Feature", "properties": { "P29_001": "08219", "P29_002": "C108221900035", "P29_003": "16002", "P29_004": "牛久市立下根中学校", "P29_005": "茨城県牛久市下根町829", "P29_006": "3", "P29_007": "1", "P29_008": "00", "P29_009": null }, "geometry": { "type": "Point", "coordinates": [ 140.16478731850475, 35.995717392294928 ] } },
{ "type": "Feature", "properties": { "P29_001": "08219", "P29_002": "C108221900044", "P29_003": "16002", "P29_004": "牛久市立牛久南中学校", "P29_005": "茨城県牛久市さくら台1-73-1", "P29_006": "3", "P29_007": "1", "P29_008": "00", "P29_009": null }, "geometry": { "type": "Point", "coordinates": [ 140.155792921757268, 35.957966920719542 ] } },
{ "type": "Feature", "properties": { "P29_001": "08219", "P29_002": "C108221900053", "P29_003": "16002", "P29_004": "牛久市立ひたち野うしく中学校", "P29_005": "茨城県牛久市東猯穴町1341-1", "P29_006": "3", "P29_007": "1", "P29_008": "00", "P29_009": null }, "geometry": { "type": "Point", "coordinates": [ 140.153071659365111, 36.015074055177955 ] } },
{ "type": "Feature", "properties": { "P29_001": "08220", "P29_002": "C108222000014", "P29_003": "16002", "P29_004": "つくば市立茎崎中学校", "P29_005": "茨城県つくば市小茎450", "P29_006": "3", "P29_007": "1", "P29_008": "00", "P29_009": null }, "geometry": { "type": "Point", "coordinates": [ 140.116152690299913, 35.990598156338891 ] } },
{ "type": "Feature", "properties": { "P29_001": "08220", "P29_002": "C108222000023", "P29_003": "16002", "P29_004": "つくば市立高崎中学校", "P29_005": "茨城県つくば市高崎1730", "P29_006": "3", "P29_007": "1", "P29_008": "00", "P29_009": null }, "geometry": { "type": "Point", "coordinates": [ 140.124643229677559, 36.005987482615581 ] } },
{ "type": "Feature", "properties": { "P29_001": "08220", "P29_002": "C108222000032", "P29_003": "16002", "P29_004": "つくば市立桜中学校", "P29_005": "茨城県つくば市さくらの森32", "P29_006": "3", "P29_007": "1", "P29_008": "00", "P29_009": null }, "geometry": { "type": "Point", "coordinates": [ 140.129995998388154, 36.098552997214611 ] } },
{ "type": "Feature", "properties": { "P29_001": "08220", "P29_002": "C108222000041", "P29_003": "16002", "P29_004": "つくば市立竹園東中学校", "P29_005": "茨城県つくば市竹園3-11", "P29_006": "3", "P29_007": "1", "P29_008": "00", "P29_009": null }, "geometry": { "type": "Point", "coordinates": [ 140.126278075667784, 36.082277338589691 ] } },
{ "type": "Feature", "properties": { "P29_001": "08220", "P29_002": "C108222000050", "P29_003": "16002", "P29_004": "つくば市立並木中学校", "P29_005": "茨城県つくば市並木3-8", "P29_006": "3", "P29_007": "1", "P29_008": "00", "P29_009": null }, "geometry": { "type": "Point", "coordinates": [ 140.147217995402627, 36.063918995097147 ] } },
{ "type": "Feature", "properties": { "P29_001": "08220", "P29_002": "C108222000069", "P29_003": "16002", "P29_004": "つくば市立吾妻中学校", "P29_005": "茨城県つくば市天久保1-9-1", "P29_006": "3", "P29_007": "1", "P29_008": "00", "P29_009": null }, "geometry": { "type": "Point", "coordinates": [ 140.107791287084211, 36.093031036203115 ] } },
{ "type": "Feature", "properties": { "P29_001": "08220", "P29_002": "C108222000078", "P29_003": "16002", "P29_004": "つくば市立谷田部中学校", "P29_005": "茨城県つくば市谷田部6100", "P29_006": "3", "P29_007": "1", "P29_008": "00", "P29_009": null }, "geometry": { "type": "Point", "coordinates": [ 140.079728408204346, 36.045691963236727 ] } },
{ "type": "Feature", "properties": { "P29_001": "08220", "P29_002": "C108222000087", "P29_003": "16002", "P29_004": "つくば市立高山中学校", "P29_005": "茨城県つくば市下河原崎503", "P29_006": "3", "P29_007": "1", "P29_008": "00", "P29_009": null }, "geometry": { "type": "Point", "coordinates": [ 140.041141323493434, 36.063406310418152 ] } },
{ "type": "Feature", "properties": { "P29_001": "08220", "P29_002": "C108222000096", "P29_003": "16002", "P29_004": "つくば市立手代木中学校", "P29_005": "茨城県つくば市松代5-10", "P29_006": "3", "P29_007": "1", "P29_008": "00", "P29_009": null }, "geometry": { "type": "Point", "coordinates": [ 140.106006784423357, 36.063039954002264 ] } },
{ "type": "Feature", "properties": { "P29_001": "08220", "P29_002": "C108222000103", "P29_003": "16002", "P29_004": "つくば市立谷田部東中学校", "P29_005": "茨城県つくば市東2-25-1", "P29_006": "3", "P29_007": "1", "P29_008": "00", "P29_009": null }, "geometry": { "type": "Point", "coordinates": [ 140.131607994196202, 36.05380899788873 ] } },
{ "type": "Feature", "properties": { "P29_001": "08220", "P29_002": "C108222000112", "P29_003": "16002", "P29_004": "つくば市立豊里中学校", "P29_005": "茨城県つくば市高野1213", "P29_006": "3", "P29_007": "1", "P29_008": "00", "P29_009": null }, "geometry": { "type": "Point", "coordinates": [ 140.036756575986715, 36.108239942380273 ] } },
{ "type": "Feature", "properties": { "P29_001": "08220", "P29_002": "C108222000121", "P29_003": "16002", "P29_004": "つくば市立大穂中学校", "P29_005": "茨城県つくば市篠崎475", "P29_006": "3", "P29_007": "1", "P29_008": "00", "P29_009": null }, "geometry": { "type": "Point", "coordinates": [ 140.061715476688505, 36.138984835378565 ] } },
{ "type": "Feature", "properties": { "P29_001": "08220", "P29_002": "C108222000130", "P29_003": "16002", "P29_004": "つくば市立研究学園中学校", "P29_005": "茨城県つくば市研究学園2-26", "P29_006": "3", "P29_007": "1", "P29_008": "00", "P29_009": null }, "geometry": { "type": "Point", "coordinates": [ 140.070328926114144, 36.080800983950304 ] } },
{ "type": "Feature", "properties": { "P29_001": "08221", "P29_002": "C108222100013", "P29_003": "16002", "P29_004": "ひたちなか市立那珂湊中学校", "P29_005": "茨城県ひたちなか市廻り目2896", "P29_006": "3", "P29_007": "1", "P29_008": "00", "P29_009": null }, "geometry": { "type": "Point", "coordinates": [ 140.596079702459605, 36.350050726504129 ] } },
{ "type": "Feature", "properties": { "P29_001": "08221", "P29_002": "C108222100040", "P29_003": "16002", "P29_004": "ひたちなか市立勝田第一中学校", "P29_005": "茨城県ひたちなか市大成町38-1", "P29_006": "3", "P29_007": "1", "P29_008": "00", "P29_009": null }, "geometry": { "type": "Point", "coordinates": [ 140.537487916226382, 36.386529894868616 ] } },
{ "type": "Feature", "properties": { "P29_001": "08221", "P29_002": "C108222100059", "P29_003": "16002", "P29_004": "ひたちなか市立勝田第二中学校", "P29_005": "茨城県ひたちなか市市毛979", "P29_006": "3", "P29_007": "1", "P29_008": "00", "P29_009": null }, "geometry": { "type": "Point", "coordinates": [ 140.509852750786308, 36.397506169515552 ] } },
{ "type": "Feature", "properties": { "P29_001": "08221", "P29_002": "C108222100068", "P29_003": "16002", "P29_004": "ひたちなか市立勝田第三中学校", "P29_005": "茨城県ひたちなか市馬渡2982", "P29_006": "3", "P29_007": "1", "P29_008": "00", "P29_009": null }, "geometry": { "type": "Point", "coordinates": [ 140.571865877927621, 36.411249784428122 ] } },
{ "type": "Feature", "properties": { "P29_001": "08221", "P29_002": "C108222100077", "P29_003": "16002", "P29_004": "ひたちなか市立佐野中学校", "P29_005": "茨城県ひたちなか市佐和1504", "P29_006": "3", "P29_007": "1", "P29_008": "00", "P29_009": null }, "geometry": { "type": "Point", "coordinates": [ 140.530225348590733, 36.44088121282433 ] } },
{ "type": "Feature", "properties": { "P29_001": "08221", "P29_002": "C108222100086", "P29_003": "16002", "P29_004": "ひたちなか市立大島中学校", "P29_005": "茨城県ひたちなか市東大島4-6-1", "P29_006": "3", "P29_007": "1", "P29_008": "00", "P29_009": null }, "geometry": { "type": "Point", "coordinates": [ 140.533446046305642, 36.404473510220278 ] } },
{ "type": "Feature", "properties": { "P29_001": "08221", "P29_002": "C108222100095", "P29_003": "16002", "P29_004": "ひたちなか市立田彦中学校", "P29_005": "茨城県ひたちなか市田彦1442-1", "P29_006": "3", "P29_007": "1", "P29_008": "00", "P29_009": null }, "geometry": { "type": "Point", "coordinates": [ 140.517230670592596, 36.412038293759657 ] } },
{ "type": "Feature", "properties": { "P29_001": "08222", "P29_002": "C108222200012", "P29_003": "16002", "P29_004": "鹿嶋市立大野中学校", "P29_005": "茨城県鹿嶋市津賀1925-1", "P29_006": "3", "P29_007": "1", "P29_008": "00", "P29_009": null }, "geometry": { "type": "Point", "coordinates": [ 140.600377089865304, 36.051113986251345 ] } },
{ "type": "Feature", "properties": { "P29_001": "08222", "P29_002": "C108222200021", "P29_003": "16002", "P29_004": "鹿嶋市立鹿島中学校", "P29_005": "茨城県鹿嶋市宮中2398-1", "P29_006": "3", "P29_007": "1", "P29_008": "00", "P29_009": null }, "geometry": { "type": "Point", "coordinates": [ 140.639168142830044, 35.97638064478825 ] } },
{ "type": "Feature", "properties": { "P29_001": "08222", "P29_002": "C108222200030", "P29_003": "16002", "P29_004": "鹿嶋市立高松中学校", "P29_005": "茨城県鹿嶋市木滝274", "P29_006": "3", "P29_007": "1", "P29_008": "00", "P29_009": null }, "geometry": { "type": "Point", "coordinates": [ 140.649749348443521, 35.942496549526055 ] } },
{ "type": "Feature", "properties": { "P29_001": "08222", "P29_002": "C108222200049", "P29_003": "16002", "P29_004": "鹿嶋市立鹿野中学校", "P29_005": "茨城県鹿嶋市城山4-7-10", "P29_006": "3", "P29_007": "1", "P29_008": "00", "P29_009": null }, "geometry": { "type": "Point", "coordinates": [ 140.621147173064315, 35.963290309004918 ] } },
{ "type": "Feature", "properties": { "P29_001": "08222", "P29_002": "C108222200058", "P29_003": "16002", "P29_004": "鹿嶋市立平井中学校", "P29_005": "茨城県鹿嶋市平井1125-1", "P29_006": "3", "P29_007": "1", "P29_008": "00", "P29_009": null }, "geometry": { "type": "Point", "coordinates": [ 140.66441386080632, 35.969175886895407 ] } },
{ "type": "Feature", "properties": { "P29_001": "08222", "P29_002": "C108222290013", "P29_003": "16002", "P29_004": "茨城県立鹿島高等学校附属中学校", "P29_005": "茨城県鹿嶋市城山2-2-19", "P29_006": "2", "P29_007": "1", "P29_008": "00", "P29_009": null }, "geometry": { "type": "Point", "coordinates": [ 140.623851903750989, 35.965371773339406 ] } },
{ "type": "Feature", "properties": { "P29_001": "08223", "P29_002": "C108222300011", "P29_003": "16002", "P29_004": "潮来市立牛堀中学校", "P29_005": "茨城県潮来市堀之内1009", "P29_006": "3", "P29_007": "1", "P29_008": "00", "P29_009": null }, "geometry": { "type": "Point", "coordinates": [ 140.52600302150617, 35.967527959484777 ] } },
{ "type": "Feature", "properties": { "P29_001": "08223", "P29_002": "C108222300020", "P29_003": "16002", "P29_004": "潮来市立潮来第一中学校", "P29_005": "茨城県潮来市潮来1270", "P29_006": "3", "P29_007": "1", "P29_008": "00", "P29_009": null }, "geometry": { "type": "Point", "coordinates": [ 140.553142640794874, 35.94733603060871 ] } },
{ "type": "Feature", "properties": { "P29_001": "08223", "P29_002": "C108222300039", "P29_003": "16002", "P29_004": "潮来市立潮来第二中学校", "P29_005": "茨城県潮来市新宮1868-1", "P29_006": "3", "P29_007": "1", "P29_008": "00", "P29_009": null }, "geometry": { "type": "Point", "coordinates": [ 140.582768435344605, 35.962505989160583 ] } },
{ "type": "Feature", "properties": { "P29_001": "08223", "P29_002": "C108222300048", "P29_003": "16002", "P29_004": "潮来市立日の出中学校", "P29_005": "茨城県潮来市日の出3-9-18", "P29_006": "3", "P29_007": "1", "P29_008": "00", "P29_009": null }, "geometry": { "type": "Point", "coordinates": [ 140.571423996282789, 35.934806443184428 ] } },
{ "type": "Feature", "properties": { "P29_001": "08224", "P29_002": "C108222400010", "P29_003": "16002", "P29_004": "守谷市立守谷中学校", "P29_005": "茨城県守谷市百合ヶ丘2-2675", "P29_006": "3", "P29_007": "1", "P29_008": "00", "P29_009": null }, "geometry": { "type": "Point", "coordinates": [ 139.985380042889005, 35.94899106592112 ] } },
{ "type": "Feature", "properties": { "P29_001": "08224", "P29_002": "C108222400029", "P29_003": "16002", "P29_004": "守谷市立愛宕中学校", "P29_005": "茨城県守谷市本町4325-2", "P29_006": "3", "P29_007": "1", "P29_008": "00", "P29_009": null }, "geometry": { "type": "Point", "coordinates": [ 140.001703044266833, 35.939410311815038 ] } },
{ "type": "Feature", "properties": { "P29_001": "08224", "P29_002": "C108222400038", "P29_003": "16002", "P29_004": "守谷市立御所ケ丘中学校", "P29_005": "茨城県守谷市御所ケ丘4-16", "P29_006": "3", "P29_007": "1", "P29_008": "00", "P29_009": null }, "geometry": { "type": "Point", "coordinates": [ 139.974109058720387, 35.963287630854552 ] } },
{ "type": "Feature", "properties": { "P29_001": "08224", "P29_002": "C108222400047", "P29_003": "16002", "P29_004": "守谷市立けやき台中学校", "P29_005": "茨城県守谷市けやき台5-21-1", "P29_006": "3", "P29_007": "1", "P29_008": "00", "P29_009": null }, "geometry": { "type": "Point", "coordinates": [ 139.992351264520181, 35.939476958214151 ] } },
{ "type": "Feature", "properties": { "P29_001": "08225", "P29_002": "C108222500019", "P29_003": "16002", "P29_004": "常陸大宮市立大宮中学校", "P29_005": "茨城県常陸大宮市抽ケ台町3117", "P29_006": "3", "P29_007": "1", "P29_008": "00", "P29_009": null }, "geometry": { "type": "Point", "coordinates": [ 140.400291144524118, 36.552441488775962 ] } },
{ "type": "Feature", "properties": { "P29_001": "08225", "P29_002": "C108222500028", "P29_003": "16002", "P29_004": "常陸大宮市立第二中学校", "P29_005": "茨城県常陸大宮市石沢1555", "P29_006": "3", "P29_007": "1", "P29_008": "00", "P29_009": null }, "geometry": { "type": "Point", "coordinates": [ 140.416271936296937, 36.536125123895594 ] } },
{ "type": "Feature", "properties": { "P29_001": "08225", "P29_002": "C108222500037", "P29_003": "16002", "P29_004": "常陸大宮市立山方中学校", "P29_005": "茨城県常陸大宮市山方3267", "P29_006": "3", "P29_007": "1", "P29_008": "00", "P29_009": null }, "geometry": { "type": "Point", "coordinates": [ 140.392954952330996, 36.627768035646092 ] } },
{ "type": "Feature", "properties": { "P29_001": "08225", "P29_002": "C108222500046", "P29_003": "16002", "P29_004": "常陸大宮市立明峰中学校", "P29_005": "茨城県常陸大宮市上小瀬1281", "P29_006": "3", "P29_007": "1", "P29_008": "00", "P29_009": null }, "geometry": { "type": "Point", "coordinates": [ 140.32183828767964, 36.604121118881487 ] } },
{ "type": "Feature", "properties": { "P29_001": "08226", "P29_002": "C108222600018", "P29_003": "16002", "P29_004": "那珂市立第一中学校", "P29_005": "茨城県那珂市後台2547", "P29_006": "3", "P29_007": "1", "P29_008": "00", "P29_009": null }, "geometry": { "type": "Point", "coordinates": [ 140.490759926709586, 36.437436835870528 ] } },
{ "type": "Feature", "properties": { "P29_001": "08226", "P29_002": "C108222600027", "P29_003": "16002", "P29_004": "那珂市立第二中学校", "P29_005": "茨城県那珂市額田南郷2386-4", "P29_006": "3", "P29_007": "1", "P29_008": "00", "P29_009": null }, "geometry": { "type": "Point", "coordinates": [ 140.520591809314197, 36.479606448175836 ] } },
{ "type": "Feature", "properties": { "P29_001": "08226", "P29_002": "C108222600036", "P29_003": "16002", "P29_004": "那珂市立第三中学校", "P29_005": "茨城県那珂市飯田3645", "P29_006": "3", "P29_007": "1", "P29_008": "00", "P29_009": null }, "geometry": { "type": "Point", "coordinates": [ 140.462102830698456, 36.469005584590036 ] } },
{ "type": "Feature", "properties": { "P29_001": "08226", "P29_002": "C108222600045", "P29_003": "16002", "P29_004": "那珂市立第四中学校", "P29_005": "茨城県那珂市菅谷2476", "P29_006": "3", "P29_007": "1", "P29_008": "00", "P29_009": null }, "geometry": { "type": "Point", "coordinates": [ 140.505575535967949, 36.447148272818758 ] } },
{ "type": "Feature", "properties": { "P29_001": "08226", "P29_002": "C108222600054", "P29_003": "16002", "P29_004": "那珂市立瓜連中学校", "P29_005": "茨城県那珂市瓜連1015", "P29_006": "3", "P29_007": "1", "P29_008": "00", "P29_009": null }, "geometry": { "type": "Point", "coordinates": [ 140.456342239433155, 36.500734108106109 ] } },
{ "type": "Feature", "properties": { "P29_001": "08227", "P29_002": "C108222700017", "P29_003": "16002", "P29_004": "筑西市立下館中学校", "P29_005": "茨城県筑西市岡芹1000", "P29_006": "3", "P29_007": "1", "P29_008": "00", "P29_009": null }, "geometry": { "type": "Point", "coordinates": [ 139.974003626064814, 36.319718117884314 ] } },
{ "type": "Feature", "properties": { "P29_001": "08227", "P29_002": "C108222700026", "P29_003": "16002", "P29_004": "筑西市立下館南中学校", "P29_005": "茨城県筑西市一本松546", "P29_006": "3", "P29_007": "1", "P29_008": "00", "P29_009": null }, "geometry": { "type": "Point", "coordinates": [ 139.97320249787208, 36.293393634291469 ] } },
{ "type": "Feature", "properties": { "P29_001": "08227", "P29_002": "C108222700044", "P29_003": "16002", "P29_004": "筑西市立下館西中学校", "P29_005": "茨城県筑西市飯島600", "P29_006": "3", "P29_007": "1", "P29_008": "00", "P29_009": null }, "geometry": { "type": "Point", "coordinates": [ 139.937854323058559, 36.306114469739924 ] } },
{ "type": "Feature", "properties": { "P29_001": "08227", "P29_002": "C108222700053", "P29_003": "16002", "P29_004": "筑西市立関城中学校", "P29_005": "茨城県筑西市犬塚100", "P29_006": "3", "P29_007": "1", "P29_008": "00", "P29_009": null }, "geometry": { "type": "Point", "coordinates": [ 139.950038191176105, 36.249850835986074 ] } },
{ "type": "Feature", "properties": { "P29_001": "08227", "P29_002": "C108222700062", "P29_003": "16002", "P29_004": "筑西市立明野中学校", "P29_005": "茨城県筑西市倉持1138", "P29_006": "3", "P29_007": "1", "P29_008": "00", "P29_009": null }, "geometry": { "type": "Point", "coordinates": [ 140.024823772905137, 36.245359139349809 ] } },
{ "type": "Feature", "properties": { "P29_001": "08227", "P29_002": "C108222700071", "P29_003": "16002", "P29_004": "筑西市立協和中学校", "P29_005": "茨城県筑西市門井1803-7", "P29_006": "3", "P29_007": "1", "P29_008": "00", "P29_009": null }, "geometry": { "type": "Point", "coordinates": [ 140.026690006025547, 36.329741807023872 ] } },
{ "type": "Feature", "properties": { "P29_001": "08227", "P29_002": "C108222790018", "P29_003": "16002", "P29_004": "茨城県立下館第一高等学校附属中学校", "P29_005": "茨城県筑西市下中山590", "P29_006": "2", "P29_007": "1", "P29_008": "00", "P29_009": null }, "geometry": { "type": "Point", "coordinates": [ 139.987735394289189, 36.309199330435533 ] } },
{ "type": "Feature", "properties": { "P29_001": "08228", "P29_002": "C108222800016", "P29_003": "16002", "P29_004": "坂東市立東中学校", "P29_005": "茨城県坂東市猫実1093-2", "P29_006": "3", "P29_007": "1", "P29_008": "00", "P29_009": null }, "geometry": { "type": "Point", "coordinates": [ 139.927126995751507, 36.043806000686921 ] } },
{ "type": "Feature", "properties": { "P29_001": "08228", "P29_002": "C108222800025", "P29_003": "16002", "P29_004": "坂東市立岩井中学校", "P29_005": "茨城県坂東市上出島1053", "P29_006": "3", "P29_007": "1", "P29_008": "00", "P29_009": null }, "geometry": { "type": "Point", "coordinates": [ 139.878363397114157, 36.061874250477615 ] } },
{ "type": "Feature", "properties": { "P29_001": "08228", "P29_002": "C108222800034", "P29_003": "16002", "P29_004": "坂東市立南中学校", "P29_005": "茨城県坂東市矢作326", "P29_006": "3", "P29_007": "1", "P29_008": "00", "P29_009": null }, "geometry": { "type": "Point", "coordinates": [ 139.900788333275386, 36.007900215605865 ] } },
{ "type": "Feature", "properties": { "P29_001": "08228", "P29_002": "C108222800043", "P29_003": "16002", "P29_004": "坂東市立猿島中学校", "P29_005": "茨城県坂東市山2807", "P29_006": "3", "P29_007": "1", "P29_008": "00", "P29_009": null }, "geometry": { "type": "Point", "coordinates": [ 139.882721534470477, 36.115508702374328 ] } },
{ "type": "Feature", "properties": { "P29_001": "08229", "P29_002": "C108222900015", "P29_003": "16002", "P29_004": "稲敷市立江戸崎中学校", "P29_005": "茨城県稲敷市江戸崎甲2595", "P29_006": "3", "P29_007": "1", "P29_008": "00", "P29_009": null }, "geometry": { "type": "Point", "coordinates": [ 140.319389004650162, 35.96192200207075 ] } },
{ "type": "Feature", "properties": { "P29_001": "08229", "P29_002": "C108222900024", "P29_003": "16002", "P29_004": "稲敷市立新利根中学校", "P29_005": "茨城県稲敷市柴崎7139", "P29_006": "3", "P29_007": "1", "P29_008": "00", "P29_009": null }, "geometry": { "type": "Point", "coordinates": [ 140.294474809183953, 35.908593048459274 ] } },
{ "type": "Feature", "properties": { "P29_001": "08229", "P29_002": "C108222900033", "P29_003": "16002", "P29_004": "稲敷市立桜川中学校", "P29_005": "茨城県稲敷市下馬渡770", "P29_006": "3", "P29_007": "1", "P29_008": "00", "P29_009": null }, "geometry": { "type": "Point", "coordinates": [ 140.403785939740715, 35.970440789018937 ] } },
{ "type": "Feature", "properties": { "P29_001": "08229", "P29_002": "C108222900042", "P29_003": "16002", "P29_004": "稲敷市立東中学校", "P29_005": "茨城県稲敷市八千石77", "P29_006": "3", "P29_007": "1", "P29_008": "00", "P29_009": null }, "geometry": { "type": "Point", "coordinates": [ 140.42786187943949, 35.932359066569354 ] } },
{ "type": "Feature", "properties": { "P29_001": "08230", "P29_002": "C108223000012", "P29_003": "16002", "P29_004": "かすみがうら市立霞ヶ浦中学校", "P29_005": "茨城県かすみがうら市深谷3398-2", "P29_006": "3", "P29_007": "1", "P29_008": "00", "P29_009": null }, "geometry": { "type": "Point", "coordinates": [ 140.305794091989554, 36.089567042291321 ] } },
{ "type": "Feature", "properties": { "P29_001": "08230", "P29_002": "C108223000030", "P29_003": "16002", "P29_004": "かすみがうら市立下稲吉中学校", "P29_005": "茨城県かすみがうら市下稲吉2273-2", "P29_006": "3", "P29_007": "1", "P29_008": "00", "P29_009": null }, "geometry": { "type": "Point", "coordinates": [ 140.248154693443951, 36.13260357615296 ] } },
{ "type": "Feature", "properties": { "P29_001": "08231", "P29_002": "C108223100011", "P29_003": "16002", "P29_004": "桜川市立岩瀬西中学校", "P29_005": "茨城県桜川市富岡535", "P29_006": "3", "P29_007": "1", "P29_008": "00", "P29_009": null }, "geometry": { "type": "Point", "coordinates": [ 140.088180865470662, 36.369597683433703 ] } },
{ "type": "Feature", "properties": { "P29_001": "08231", "P29_002": "C108223100020", "P29_003": "16002", "P29_004": "桜川市立岩瀬東中学校", "P29_005": "茨城県桜川市磯部466", "P29_006": "3", "P29_007": "1", "P29_008": "00", "P29_009": null }, "geometry": { "type": "Point", "coordinates": [ 140.141345998254138, 36.37016199856 ] } },
{ "type": "Feature", "properties": { "P29_001": "08231", "P29_002": "C108223100039", "P29_003": "16002", "P29_004": "桜川市立桜川中学校", "P29_005": "茨城県桜川市真壁町亀熊570", "P29_006": "3", "P29_007": "1", "P29_008": "00", "P29_009": null }, "geometry": { "type": "Point", "coordinates": [ 140.096539417349192, 36.294086829008904 ] } },
{ "type": "Feature", "properties": { "P29_001": "08231", "P29_002": "C108223100048", "P29_003": "16002", "P29_004": "桜川市立大和中学校", "P29_005": "茨城県桜川市羽田1000", "P29_006": "3", "P29_007": "1", "P29_008": "00", "P29_009": null }, "geometry": { "type": "Point", "coordinates": [ 140.092788487745565, 36.326741293334017 ] } },
{ "type": "Feature", "properties": { "P29_001": "08232", "P29_002": "C108223200010", "P29_003": "16002", "P29_004": "神栖市立神栖第一中学校", "P29_005": "茨城県神栖市知手100-3", "P29_006": "3", "P29_007": "1", "P29_008": "00", "P29_009": null }, "geometry": { "type": "Point", "coordinates": [ 140.670868075094404, 35.871275131887693 ] } },
{ "type": "Feature", "properties": { "P29_001": "08232", "P29_002": "C108223200029", "P29_003": "16002", "P29_004": "神栖市立神栖第二中学校", "P29_005": "茨城県神栖市平泉東1-60-1", "P29_006": "3", "P29_007": "1", "P29_008": "00", "P29_009": null }, "geometry": { "type": "Point", "coordinates": [ 140.640167910815705, 35.903009798730046 ] } },
{ "type": "Feature", "properties": { "P29_001": "08232", "P29_002": "C108223200038", "P29_003": "16002", "P29_004": "神栖市立神栖第三中学校", "P29_005": "茨城県神栖市知手中央7-1-17", "P29_006": "3", "P29_007": "1", "P29_008": "00", "P29_009": null }, "geometry": { "type": "Point", "coordinates": [ 140.706098644908394, 35.874319630904687 ] } },
{ "type": "Feature", "properties": { "P29_001": "08232", "P29_002": "C108223200047", "P29_003": "16002", "P29_004": "神栖市立神栖第四中学校", "P29_005": "茨城県神栖市大野原中央2-8-46", "P29_006": "3", "P29_007": "1", "P29_008": "00", "P29_009": null }, "geometry": { "type": "Point", "coordinates": [ 140.638474220891851, 35.886463658577391 ] } },
{ "type": "Feature", "properties": { "P29_001": "08232", "P29_002": "C108223200056", "P29_003": "16002", "P29_004": "神栖市立波崎第一中学校", "P29_005": "茨城県神栖市波崎7070", "P29_006": "3", "P29_007": "1", "P29_008": "00", "P29_009": null }, "geometry": { "type": "Point", "coordinates": [ 140.818395030606894, 35.756364992827194 ] } },
{ "type": "Feature", "properties": { "P29_001": "08232", "P29_002": "C108223200065", "P29_003": "16002", "P29_004": "神栖市立波崎第二中学校", "P29_005": "茨城県神栖市矢田部3120", "P29_006": "3", "P29_007": "1", "P29_008": "00", "P29_009": null }, "geometry": { "type": "Point", "coordinates": [ 140.753123399507786, 35.789229680511703 ] } },
{ "type": "Feature", "properties": { "P29_001": "08232", "P29_002": "C108223200074", "P29_003": "16002", "P29_004": "神栖市立波崎第三中学校", "P29_005": "茨城県神栖市須田2340-1", "P29_006": "3", "P29_007": "1", "P29_008": "00", "P29_009": null }, "geometry": { "type": "Point", "coordinates": [ 140.741680756382664, 35.838586216461444 ] } },
{ "type": "Feature", "properties": { "P29_001": "08232", "P29_002": "C108223200083", "P29_003": "16002", "P29_004": "神栖市立波崎第四中学校", "P29_005": "茨城県神栖市土合北1-8-10", "P29_006": "3", "P29_007": "1", "P29_008": "00", "P29_009": null }, "geometry": { "type": "Point", "coordinates": [ 140.785254578666326, 35.79102456470099 ] } },
{ "type": "Feature", "properties": { "P29_001": "08233", "P29_002": "C108223300019", "P29_003": "16002", "P29_004": "行方市立麻生中学校", "P29_005": "茨城県行方市南327-3", "P29_006": "3", "P29_007": "1", "P29_008": "00", "P29_009": null }, "geometry": { "type": "Point", "coordinates": [ 140.477209998968306, 36.023454000236704 ] } },
{ "type": "Feature", "properties": { "P29_001": "08233", "P29_002": "C108223300028", "P29_003": "16002", "P29_004": "行方市立北浦中学校", "P29_005": "茨城県行方市内宿390", "P29_006": "3", "P29_007": "1", "P29_008": "00", "P29_009": null }, "geometry": { "type": "Point", "coordinates": [ 140.504686824099736, 36.088964970640113 ] } },
{ "type": "Feature", "properties": { "P29_001": "08233", "P29_002": "C108223300037", "P29_003": "16002", "P29_004": "行方市立玉造中学校", "P29_005": "茨城県行方市玉造甲2807", "P29_006": "3", "P29_007": "1", "P29_008": "00", "P29_009": null }, "geometry": { "type": "Point", "coordinates": [ 140.425125191926526, 36.102848507564318 ] } },
{ "type": "Feature", "properties": { "P29_001": "08234", "P29_002": "C108223400018", "P29_003": "16002", "P29_004": "鉾田市立旭中学校", "P29_005": "茨城県鉾田市造谷863-5", "P29_006": "3", "P29_007": "1", "P29_008": "00", "P29_009": null }, "geometry": { "type": "Point", "coordinates": [ 140.534316192506367, 36.230023003692921 ] } },
{ "type": "Feature", "properties": { "P29_001": "08234", "P29_002": "C108223400027", "P29_003": "16002", "P29_004": "鉾田市立鉾田南中学校", "P29_005": "茨城県鉾田市鉾田1469-1", "P29_006": "3", "P29_007": "1", "P29_008": "00", "P29_009": null }, "geometry": { "type": "Point", "coordinates": [ 140.516100662567681, 36.157664509302663 ] } },
{ "type": "Feature", "properties": { "P29_001": "08234", "P29_002": "C108223400036", "P29_003": "16002", "P29_004": "鉾田市立鉾田北中学校", "P29_005": "茨城県鉾田市上冨田1011-1", "P29_006": "3", "P29_007": "1", "P29_008": "00", "P29_009": null }, "geometry": { "type": "Point", "coordinates": [ 140.471803733045306, 36.206683236187011 ] } },
{ "type": "Feature", "properties": { "P29_001": "08234", "P29_002": "C108223400045", "P29_003": "16002", "P29_004": "鉾田市立大洋中学校", "P29_005": "茨城県鉾田市大蔵1337-1", "P29_006": "3", "P29_007": "1", "P29_008": "00", "P29_009": null }, "geometry": { "type": "Point", "coordinates": [ 140.572050580995864, 36.104703991441028 ] } },
{ "type": "Feature", "properties": { "P29_001": "08234", "P29_002": "C108223490019", "P29_003": "16002", "P29_004": "茨城県立鉾田第一高等学校附属中学校", "P29_005": "茨城県鉾田市鉾田1090-2", "P29_006": "2", "P29_007": "1", "P29_008": "00", "P29_009": null }, "geometry": { "type": "Point", "coordinates": [ 140.517358485101425, 36.155297872119824 ] } },
{ "type": "Feature", "properties": { "P29_001": "08235", "P29_002": "C108223500017", "P29_003": "16002", "P29_004": "つくばみらい市立伊奈中学校", "P29_005": "茨城県つくばみらい市野深600", "P29_006": "3", "P29_007": "1", "P29_008": "00", "P29_009": null }, "geometry": { "type": "Point", "coordinates": [ 140.032945569651702, 35.96766563045324 ] } },
{ "type": "Feature", "properties": { "P29_001": "08235", "P29_002": "C108223500026", "P29_003": "16002", "P29_004": "つくばみらい市立伊奈東中学校", "P29_005": "茨城県つくばみらい市南太田254", "P29_006": "3", "P29_007": "1", "P29_008": "00", "P29_009": null }, "geometry": { "type": "Point", "coordinates": [ 140.059171840927661, 35.972936649612627 ] } },
{ "type": "Feature", "properties": { "P29_001": "08235", "P29_002": "C108223500035", "P29_003": "16002", "P29_004": "つくばみらい市立谷和原中学校", "P29_005": "茨城県つくばみらい市古川950", "P29_006": "3", "P29_007": "1", "P29_008": "00", "P29_009": null }, "geometry": { "type": "Point", "coordinates": [ 140.012349373347348, 35.991513691433056 ] } },
{ "type": "Feature", "properties": { "P29_001": "08235", "P29_002": "C108223500044", "P29_003": "16002", "P29_004": "つくばみらい市立小絹中学校", "P29_005": "茨城県つくばみらい市絹の台1-14-2", "P29_006": "3", "P29_007": "1", "P29_008": "00", "P29_009": null }, "geometry": { "type": "Point", "coordinates": [ 139.977510249227123, 35.980314633500086 ] } },
{ "type": "Feature", "properties": { "P29_001": "08236", "P29_002": "C108223600016", "P29_003": "16002", "P29_004": "小美玉市立小川南中学校", "P29_005": "茨城県小美玉市小川650", "P29_006": "3", "P29_007": "1", "P29_008": "00", "P29_009": null }, "geometry": { "type": "Point", "coordinates": [ 140.361448571534623, 36.164580703663248 ] } },
{ "type": "Feature", "properties": { "P29_001": "08236", "P29_002": "C108223600034", "P29_003": "16002", "P29_004": "小美玉市立美野里中学校", "P29_005": "茨城県小美玉市部室1196-3", "P29_006": "3", "P29_007": "1", "P29_008": "00", "P29_009": null }, "geometry": { "type": "Point", "coordinates": [ 140.324868261677693, 36.238680658294989 ] } },
{ "type": "Feature", "properties": { "P29_001": "08302", "P29_002": "C108230200015", "P29_003": "16002", "P29_004": "茨城町立明光中学校", "P29_005": "茨城県東茨城郡茨城町谷田部510", "P29_006": "3", "P29_007": "1", "P29_008": "00", "P29_009": null }, "geometry": { "type": "Point", "coordinates": [ 140.445611187832384, 36.290857207602848 ] } },
{ "type": "Feature", "properties": { "P29_001": "08302", "P29_002": "C108230200024", "P29_003": "16002", "P29_004": "茨城町立青葉中学校", "P29_005": "茨城県東茨城郡茨城町奥谷862", "P29_006": "3", "P29_007": "1", "P29_008": "00", "P29_009": null }, "geometry": { "type": "Point", "coordinates": [ 140.414324352999046, 36.284876210430909 ] } },
{ "type": "Feature", "properties": { "P29_001": "08309", "P29_002": "C108230900018", "P29_003": "16002", "P29_004": "大洗町立第一中学校", "P29_005": "茨城県東茨城郡大洗町磯浜町5247", "P29_006": "3", "P29_007": "1", "P29_008": "00", "P29_009": null }, "geometry": { "type": "Point", "coordinates": [ 140.575153695641262, 36.317368635558665 ] } },
{ "type": "Feature", "properties": { "P29_001": "08309", "P29_002": "C108230900027", "P29_003": "16002", "P29_004": "大洗町立南中学校", "P29_005": "茨城県東茨城郡大洗町大貫町1212-14", "P29_006": "3", "P29_007": "1", "P29_008": "00", "P29_009": null }, "geometry": { "type": "Point", "coordinates": [ 140.557472608151016, 36.294379869430095 ] } },
{ "type": "Feature", "properties": { "P29_001": "08310", "P29_002": "C108231000015", "P29_003": "16002", "P29_004": "城里町立常北中学校", "P29_005": "茨城県東茨城郡城里町下青山10", "P29_006": "3", "P29_007": "1", "P29_008": "00", "P29_009": null }, "geometry": { "type": "Point", "coordinates": [ 140.372727081525341, 36.475626005545692 ] } },
{ "type": "Feature", "properties": { "P29_001": "08310", "P29_002": "C108231000024", "P29_003": "16002", "P29_004": "城里町立桂中学校", "P29_005": "茨城県東茨城郡城里町阿波山799", "P29_006": "3", "P29_007": "1", "P29_008": "00", "P29_009": null }, "geometry": { "type": "Point", "coordinates": [ 140.3644057223473, 36.518842189661726 ] } },
{ "type": "Feature", "properties": { "P29_001": "08341", "P29_002": "C108234100018", "P29_003": "16002", "P29_004": "東海村立東海中学校", "P29_005": "茨城県那珂郡東海村舟石川825-12", "P29_006": "3", "P29_007": "1", "P29_008": "00", "P29_009": null }, "geometry": { "type": "Point", "coordinates": [ 140.574533417820732, 36.466523230650296 ] } },
{ "type": "Feature", "properties": { "P29_001": "08341", "P29_002": "C108234100027", "P29_003": "16002", "P29_004": "東海村立東海南中学校", "P29_005": "茨城県那珂郡東海村船場784-7", "P29_006": "3", "P29_007": "1", "P29_008": "00", "P29_009": null }, "geometry": { "type": "Point", "coordinates": [ 140.560719550372994, 36.457876317825374 ] } },
{ "type": "Feature", "properties": { "P29_001": "08364", "P29_002": "C108236400010", "P29_003": "16002", "P29_004": "大子町立大子中学校", "P29_005": "茨城県久慈郡大子町池田1648", "P29_006": "3", "P29_007": "1", "P29_008": "00", "P29_009": null }, "geometry": { "type": "Point", "coordinates": [ 140.360149000649898, 36.782252998163948 ] } },
{ "type": "Feature", "properties": { "P29_001": "08364", "P29_002": "C108236400029", "P29_003": "16002", "P29_004": "大子町立生瀬中学校", "P29_005": "茨城県久慈郡大子町内大野2963-1", "P29_006": "3", "P29_007": "1", "P29_008": "00", "P29_009": null }, "geometry": { "type": "Point", "coordinates": [ 140.417549238307515, 36.788155223573746 ] } },
{ "type": "Feature", "properties": { "P29_001": "08364", "P29_002": "C108236400038", "P29_003": "16002", "P29_004": "大子町立南中学校", "P29_005": "茨城県久慈郡大子町頃藤3708", "P29_006": "3", "P29_007": "1", "P29_008": "00", "P29_009": null }, "geometry": { "type": "Point", "coordinates": [ 140.386617004982583, 36.724127001211215 ] } },
{ "type": "Feature", "properties": { "P29_001": "08364", "P29_002": "C108236400047", "P29_003": "16002", "P29_004": "大子町立大子西中学校", "P29_005": "茨城県久慈郡大子町大字芦野倉733", "P29_006": "3", "P29_007": "1", "P29_008": "00", "P29_009": null }, "geometry": { "type": "Point", "coordinates": [ 140.315291855344441, 36.794341438943633 ] } },
{ "type": "Feature", "properties": { "P29_001": "08442", "P29_002": "C108244200016", "P29_003": "16002", "P29_004": "美浦村立美浦中学校", "P29_005": "茨城県稲敷郡美浦村大字受領1435", "P29_006": "3", "P29_007": "1", "P29_008": "00", "P29_009": null }, "geometry": { "type": "Point", "coordinates": [ 140.304235000260121, 36.007966002981199 ] } },
{ "type": "Feature", "properties": { "P29_001": "08443", "P29_002": "C108244300015", "P29_003": "16002", "P29_004": "阿見町立阿見中学校", "P29_005": "茨城県稲敷郡阿見町中央1-2-1", "P29_006": "3", "P29_007": "1", "P29_008": "00", "P29_009": null }, "geometry": { "type": "Point", "coordinates": [ 140.214574002513643, 36.030035997743703 ] } },
{ "type": "Feature", "properties": { "P29_001": "08443", "P29_002": "C108244300024", "P29_003": "16002", "P29_004": "阿見町立朝日中学校", "P29_005": "茨城県稲敷郡阿見町荒川本郷1855-1", "P29_006": "3", "P29_007": "1", "P29_008": "00", "P29_009": null }, "geometry": { "type": "Point", "coordinates": [ 140.18523646234641, 36.015304065449364 ] } },
{ "type": "Feature", "properties": { "P29_001": "08443", "P29_002": "C108244300033", "P29_003": "16002", "P29_004": "阿見町立竹来中学校", "P29_005": "茨城県稲敷郡阿見町竹来400-1", "P29_006": "3", "P29_007": "1", "P29_008": "00", "P29_009": null }, "geometry": { "type": "Point", "coordinates": [ 140.231590365277981, 36.033107353984157 ] } },
{ "type": "Feature", "properties": { "P29_001": "08521", "P29_002": "C108252100010", "P29_003": "16002", "P29_004": "八千代町立八千代第一中学校", "P29_005": "茨城県結城郡八千代町若1808", "P29_006": "3", "P29_007": "1", "P29_008": "00", "P29_009": null }, "geometry": { "type": "Point", "coordinates": [ 139.886419895470056, 36.174387282910921 ] } },
{ "type": "Feature", "properties": { "P29_001": "08521", "P29_002": "C108252100029", "P29_003": "16002", "P29_004": "八千代町立東中学校", "P29_005": "茨城県結城郡八千代町沼森50", "P29_006": "3", "P29_007": "1", "P29_008": "00", "P29_009": null }, "geometry": { "type": "Point", "coordinates": [ 139.918099555814621, 36.188737351251177 ] } },
{ "type": "Feature", "properties": { "P29_001": "08542", "P29_002": "C108254200015", "P29_003": "16002", "P29_004": "五霞町立五霞中学校", "P29_005": "茨城県猿島郡五霞町元栗橋953", "P29_006": "3", "P29_007": "1", "P29_008": "00", "P29_009": null }, "geometry": { "type": "Point", "coordinates": [ 139.742105267961648, 36.113663756335832 ] } },
{ "type": "Feature", "properties": { "P29_001": "08546", "P29_002": "C108254600011", "P29_003": "16002", "P29_004": "境町立境第一中学校", "P29_005": "茨城県猿島郡境町長井戸1682", "P29_006": "3", "P29_007": "1", "P29_008": "00", "P29_009": null }, "geometry": { "type": "Point", "coordinates": [ 139.794430326942631, 36.122723001611746 ] } },
{ "type": "Feature", "properties": { "P29_001": "08546", "P29_002": "C108254600020", "P29_003": "16002", "P29_004": "境町立境第二中学校", "P29_005": "茨城県猿島郡境町伏木1310-1", "P29_006": "3", "P29_007": "1", "P29_008": "00", "P29_009": null }, "geometry": { "type": "Point", "coordinates": [ 139.823120559428247, 36.099178600327704 ] } },
{ "type": "Feature", "properties": { "P29_001": "08564", "P29_002": "C108256400018", "P29_003": "16002", "P29_004": "利根町立利根中学校", "P29_005": "茨城県北相馬郡利根町横須賀1277", "P29_006": "3", "P29_007": "1", "P29_008": "00", "P29_009": null }, "geometry": { "type": "Point", "coordinates": [ 140.16140900188833, 35.87283299691348 ] } },
{ "type": "Feature", "properties": { "P29_001": "08201", "P29_002": "C108320100015", "P29_003": "16002", "P29_004": "茨城中学校", "P29_005": "茨城県水戸市八幡町16-1", "P29_006": "4", "P29_007": "1", "P29_008": "00", "P29_009": null }, "geometry": { "type": "Point", "coordinates": [ 140.457679493969977, 36.389312317111177 ] } },
{ "type": "Feature", "properties": { "P29_001": "08201", "P29_002": "C108320100024", "P29_003": "16002", "P29_004": "水戸英宏中学校", "P29_005": "茨城県水戸市見川町字手負山2582-15", "P29_006": "4", "P29_007": "1", "P29_008": "00", "P29_009": null }, "geometry": { "type": "Point", "coordinates": [ 140.445602784997817, 36.361322762043947 ] } },
{ "type": "Feature", "properties": { "P29_001": "08202", "P29_002": "C108320200014", "P29_003": "16002", "P29_004": "茨城キリスト教学園中学校", "P29_005": "茨城県日立市大みか町6-11-1", "P29_006": "4", "P29_007": "1", "P29_008": "00", "P29_009": null }, "geometry": { "type": "Point", "coordinates": [ 140.616643720484319, 36.513444715158244 ] } },
{ "type": "Feature", "properties": { "P29_001": "08203", "P29_002": "C108320300013", "P29_003": "16002", "P29_004": "常総学院中学校", "P29_005": "茨城県土浦市中村西根1010", "P29_006": "4", "P29_007": "1", "P29_008": "00", "P29_009": null }, "geometry": { "type": "Point", "coordinates": [ 140.163065645731848, 36.058309142688557 ] } },
{ "type": "Feature", "properties": { "P29_001": "08205", "P29_002": "C108320500011", "P29_003": "16002", "P29_004": "青丘学院つくば中学校", "P29_005": "茨城県石岡市柿岡字寺田1604-1", "P29_006": "4", "P29_007": "1", "P29_008": "00", "P29_009": null }, "geometry": { "type": "Point", "coordinates": [ 140.183750497926155, 36.246277382954823 ] } },
{ "type": "Feature", "properties": { "P29_001": "08217", "P29_002": "C108321700017", "P29_003": "16002", "P29_004": "聖徳大学附属取手聖徳女子中学校", "P29_005": "茨城県取手市山王1000", "P29_006": "4", "P29_007": "1", "P29_008": "00", "P29_009": null }, "geometry": { "type": "Point", "coordinates": [ 140.075324942181595, 35.929564140884779 ] } },
{ "type": "Feature", "properties": { "P29_001": "08217", "P29_002": "C108321700026", "P29_003": "16002", "P29_004": "江戸川学園取手中学校", "P29_005": "茨城県取手市西1-37-1", "P29_006": "4", "P29_007": "1", "P29_008": "00", "P29_009": null }, "geometry": { "type": "Point", "coordinates": [ 140.041765400470553, 35.903133717802483 ] } },
{ "type": "Feature", "properties": { "P29_001": "08219", "P29_002": "C108321900015", "P29_003": "16002", "P29_004": "東洋大学附属牛久中学校", "P29_005": "茨城県牛久市柏田町1360-2", "P29_006": "4", "P29_007": "1", "P29_008": "00", "P29_009": null }, "geometry": { "type": "Point", "coordinates": [ 140.160924992050923, 35.979133489059471 ] } },
{ "type": "Feature", "properties": { "P29_001": "08220", "P29_002": "C108322000012", "P29_003": "16002", "P29_004": "学校法人茗溪学園茗溪学園中学校", "P29_005": "茨城県つくば市稲荷前1-1", "P29_006": "4", "P29_007": "1", "P29_008": "00", "P29_009": null }, "geometry": { "type": "Point", "coordinates": [ 140.127991897020593, 36.051900669144445 ] } },
{ "type": "Feature", "properties": { "P29_001": "08222", "P29_002": "C108322200010", "P29_003": "16002", "P29_004": "学校法人清真学園清真学園中学校", "P29_005": "茨城県鹿嶋市宮中伏見4448-5", "P29_006": "4", "P29_007": "1", "P29_008": "00", "P29_009": null }, "geometry": { "type": "Point", "coordinates": [ 140.634738995327183, 35.977060997597967 ] } },
{ "type": "Feature", "properties": { "P29_001": "08230", "P29_002": "C108323000010", "P29_003": "16002", "P29_004": "青葉台中等学部", "P29_005": "茨城県かすみがうら市上稲吉1518", "P29_006": "4", "P29_007": "1", "P29_008": "00", "P29_009": null }, "geometry": { "type": "Point", "coordinates": [ 140.196535688633304, 36.129234229321156 ] } },
{ "type": "Feature", "properties": { "P29_001": "08443", "P29_002": "C108344300013", "P29_003": "16002", "P29_004": "霞ヶ浦高等学校附属中学校", "P29_005": "茨城県稲敷郡阿見町青宿50", "P29_006": "4", "P29_007": "1", "P29_008": "00", "P29_009": null }, "geometry": { "type": "Point", "coordinates": [ 140.217486656746729, 36.051917283419343 ] } }
]
}
