{
"type": "FeatureCollection",
"name": "geo_08_幼保連携型認定こども園",
"crs": { "type": "name", "properties": { "name": "urn:ogc:def:crs:EPSG::6668" } },
"features": [
{ "type": "Feature", "properties": { "P29_001": "08201", "P29_002": "A208220100010", "P29_003": "16013", "P29_004": "常澄認定こども園", "P29_005": "茨城県水戸市大串町789-2", "P29_006": "3", "P29_007": "0", "P29_008": "00", "P29_009": null }, "geometry": { "type": "Point", "coordinates": [ 140.538935442146311, 36.336420869287529 ] } },
{ "type": "Feature", "properties": { "P29_001": "08201", "P29_002": "A208220100029", "P29_003": "16013", "P29_004": "内原認定こども園", "P29_005": "茨城県水戸市内原町720-1", "P29_006": "3", "P29_007": "0", "P29_008": "00", "P29_009": null }, "geometry": { "type": "Point", "coordinates": [ 140.359335547652989, 36.369253024772753 ] } },
{ "type": "Feature", "properties": { "P29_001": "08202", "P29_002": "A208220200019", "P29_003": "16013", "P29_004": "みやた認定こども園", "P29_005": "茨城県日立市本宮町2-10-22", "P29_006": "3", "P29_007": "0", "P29_008": "00", "P29_009": null }, "geometry": { "type": "Point", "coordinates": [ 140.661839089009533, 36.604717084689923 ] } },
{ "type": "Feature", "properties": { "P29_001": "08202", "P29_002": "A208220200028", "P29_003": "16013", "P29_004": "はなやま認定こども園", "P29_005": "茨城県日立市金沢町2-10-23", "P29_006": "3", "P29_007": "0", "P29_008": "00", "P29_009": null }, "geometry": { "type": "Point", "coordinates": [ 140.617416169655797, 36.54651043317817 ] } },
{ "type": "Feature", "properties": { "P29_001": "08212", "P29_002": "A208221200017", "P29_003": "16013", "P29_004": "のぞみこども園", "P29_005": "茨城県常陸太田市幡町1311", "P29_006": "3", "P29_007": "0", "P29_008": "00", "P29_009": null }, "geometry": { "type": "Point", "coordinates": [ 140.543134613408142, 36.536755864066841 ] } },
{ "type": "Feature", "properties": { "P29_001": "08212", "P29_002": "A208221200026", "P29_003": "16013", "P29_004": "うぐいすこども園", "P29_005": "茨城県常陸太田市高柿町257-5", "P29_006": "3", "P29_007": "0", "P29_008": "00", "P29_009": null }, "geometry": { "type": "Point", "coordinates": [ 140.462415003124477, 36.557011001683023 ] } },
{ "type": "Feature", "properties": { "P29_001": "08212", "P29_002": "A208221200035", "P29_003": "16013", "P29_004": "すいふこども園", "P29_005": "茨城県常陸太田市松平町1136", "P29_006": "3", "P29_007": "0", "P29_008": "00", "P29_009": null }, "geometry": { "type": "Point", "coordinates": [ 140.486704001288075, 36.585438998148227 ] } },
{ "type": "Feature", "properties": { "P29_001": "08212", "P29_002": "A208221200044", "P29_003": "16013", "P29_004": "さとみこども園", "P29_005": "茨城県常陸太田市大中町60-8", "P29_006": "3", "P29_007": "0", "P29_008": "00", "P29_009": null }, "geometry": { "type": "Point", "coordinates": [ 140.497601063293416, 36.722624460837636 ] } },
{ "type": "Feature", "properties": { "P29_001": "08214", "P29_002": "A208221400015", "P29_003": "16013", "P29_004": "高萩市立たかはぎ認定こども園", "P29_005": "茨城県高萩市本町4-5", "P29_006": "3", "P29_007": "0", "P29_008": "00", "P29_009": null }, "geometry": { "type": "Point", "coordinates": [ 140.715616006662742, 36.71739205229126 ] } },
{ "type": "Feature", "properties": { "P29_001": "08222", "P29_002": "A208222200015", "P29_003": "16013", "P29_004": "平井認定こども園", "P29_005": "茨城県鹿嶋市平井東部土地区画整理地17街区4", "P29_006": "3", "P29_007": "0", "P29_008": "00", "P29_009": null }, "geometry": { "type": "Point", "coordinates": [ 140.66742499704111, 35.96163099903891 ] } },
{ "type": "Feature", "properties": { "P29_001": "08223", "P29_002": "A208222300014", "P29_003": "16013", "P29_004": "あやめこども園", "P29_005": "茨城県潮来市潮来471", "P29_006": "3", "P29_007": "0", "P29_008": "00", "P29_009": null }, "geometry": { "type": "Point", "coordinates": [ 140.547090485569953, 35.942135733214656 ] } },
{ "type": "Feature", "properties": { "P29_001": "08225", "P29_002": "A208222500012", "P29_003": "16013", "P29_004": "美和認定こども園", "P29_005": "茨城県常陸大宮市高部2044", "P29_006": "3", "P29_007": "0", "P29_008": "00", "P29_009": null }, "geometry": { "type": "Point", "coordinates": [ 140.297896003095616, 36.672308996601551 ] } },
{ "type": "Feature", "properties": { "P29_001": "08227", "P29_002": "A208222700010", "P29_003": "16013", "P29_004": "認定こども園せきじょう", "P29_005": "茨城県筑西市黒子216-1", "P29_006": "3", "P29_007": "0", "P29_008": "00", "P29_009": null }, "geometry": { "type": "Point", "coordinates": [ 139.976414004979233, 36.250858999643192 ] } },
{ "type": "Feature", "properties": { "P29_001": "08228", "P29_002": "A208222800019", "P29_003": "16013", "P29_004": "認定こども園ふたば", "P29_005": "茨城県坂東市岩井2211-25", "P29_006": "3", "P29_007": "0", "P29_008": "00", "P29_009": null }, "geometry": { "type": "Point", "coordinates": [ 139.881813384875841, 36.054406761794041 ] } },
{ "type": "Feature", "properties": { "P29_001": "08228", "P29_002": "A208222800028", "P29_003": "16013", "P29_004": "認定こども園ひまわり", "P29_005": "茨城県坂東市辺田1188-3", "P29_006": "3", "P29_007": "0", "P29_008": "00", "P29_009": null }, "geometry": { "type": "Point", "coordinates": [ 139.898097002983434, 36.04075600247171 ] } },
{ "type": "Feature", "properties": { "P29_001": "08229", "P29_002": "A208222900018", "P29_003": "16013", "P29_004": "認定こども園えどさき", "P29_005": "茨城県稲敷市高田930-1", "P29_006": "3", "P29_007": "0", "P29_008": "00", "P29_009": null }, "geometry": { "type": "Point", "coordinates": [ 140.340501998036189, 35.945107001953183 ] } },
{ "type": "Feature", "properties": { "P29_001": "08229", "P29_002": "A208222900027", "P29_003": "16013", "P29_004": "桜川こども園", "P29_005": "茨城県稲敷市古渡305", "P29_006": "3", "P29_007": "0", "P29_008": "00", "P29_009": null }, "geometry": { "type": "Point", "coordinates": [ 140.356005003580321, 35.972622000152796 ] } },
{ "type": "Feature", "properties": { "P29_001": "08232", "P29_002": "A208223200013", "P29_003": "16013", "P29_004": "波崎こども園", "P29_005": "茨城県神栖市波崎8759-3", "P29_006": "3", "P29_007": "0", "P29_008": "00", "P29_009": null }, "geometry": { "type": "Point", "coordinates": [ 140.826782332767124, 35.747913919010699 ] } },
{ "type": "Feature", "properties": { "P29_001": "08232", "P29_002": "A208223200022", "P29_003": "16013", "P29_004": "土合こども園", "P29_005": "茨城県神栖市土合東2-6-18", "P29_006": "3", "P29_007": "0", "P29_008": "00", "P29_009": null }, "geometry": { "type": "Point", "coordinates": [ 140.779036771139005, 35.782302080430362 ] } },
{ "type": "Feature", "properties": { "P29_001": "08341", "P29_002": "A208234100011", "P29_003": "16013", "P29_004": "とうかい村松宿こども園", "P29_005": "茨城県那珂郡東海村村松3370-1", "P29_006": "3", "P29_007": "0", "P29_008": "00", "P29_009": null }, "geometry": { "type": "Point", "coordinates": [ 140.593222136195521, 36.444800081707704 ] } },
{ "type": "Feature", "properties": { "P29_001": "08447", "P29_002": "A208244700014", "P29_003": "16013", "P29_004": "かわち認定こども園", "P29_005": "茨城県稲敷郡河内町源清田5244", "P29_006": "3", "P29_007": "0", "P29_008": "00", "P29_009": null }, "geometry": { "type": "Point", "coordinates": [ 140.251153000464768, 35.880364001892119 ] } },
{ "type": "Feature", "properties": { "P29_001": "08201", "P29_002": "A208320100018", "P29_003": "16013", "P29_004": "認定こども園プリンセスリリーリリー幼稚園", "P29_005": "茨城県水戸市中丸町2052-17", "P29_006": "4", "P29_007": "0", "P29_008": "00", "P29_009": null }, "geometry": { "type": "Point", "coordinates": [ 140.409503002310686, 36.385847995662708 ] } },
{ "type": "Feature", "properties": { "P29_001": "08201", "P29_002": "A208320100027", "P29_003": "16013", "P29_004": "認定こども園フォレストリリーリリーの森幼稚園", "P29_005": "茨城県水戸市内原町1397-3", "P29_006": "4", "P29_007": "0", "P29_008": "00", "P29_009": null }, "geometry": { "type": "Point", "coordinates": [ 140.357315575974042, 36.360707920541195 ] } },
{ "type": "Feature", "properties": { "P29_001": "08201", "P29_002": "A208320100036", "P29_003": "16013", "P29_004": "認定こども園プリンセスリリーリリー幼稚園分園チャイルドランドナーサリー", "P29_005": "茨城県水戸市大塚町1863-186", "P29_006": "4", "P29_007": "0", "P29_008": "00", "P29_009": null }, "geometry": { "type": "Point", "coordinates": [ 140.409379888563421, 36.385438021823035 ] } },
{ "type": "Feature", "properties": { "P29_001": "08201", "P29_002": "A208320100045", "P29_003": "16013", "P29_004": "認定こども園グレイスリリーヴィクトリアナーサリー", "P29_005": "茨城県水戸市姫子2-751-17", "P29_006": "4", "P29_007": "0", "P29_008": "00", "P29_009": null }, "geometry": { "type": "Point", "coordinates": [ 140.424383998961588, 36.378860001472944 ] } },
{ "type": "Feature", "properties": { "P29_001": "08201", "P29_002": "A208320100054", "P29_003": "16013", "P29_004": "元吉田さくら認定こども園", "P29_005": "茨城県水戸市元吉田町1833-44", "P29_006": "4", "P29_007": "0", "P29_008": "00", "P29_009": null }, "geometry": { "type": "Point", "coordinates": [ 140.474370927152449, 36.341080688529424 ] } },
{ "type": "Feature", "properties": { "P29_001": "08202", "P29_002": "A208320200017", "P29_003": "16013", "P29_004": "茨城キリスト教大学附属認定こども園せいじ園", "P29_005": "茨城県日立市助川町1-16-1", "P29_006": "4", "P29_007": "0", "P29_008": "00", "P29_009": null }, "geometry": { "type": "Point", "coordinates": [ 140.649245224046325, 36.595071379158455 ] } },
{ "type": "Feature", "properties": { "P29_001": "08202", "P29_002": "A208320200026", "P29_003": "16013", "P29_004": "茨城キリスト教大学附属認定こども園みらい園", "P29_005": "茨城県日立市大みか町6-11-1", "P29_006": "4", "P29_007": "0", "P29_008": "00", "P29_009": null }, "geometry": { "type": "Point", "coordinates": [ 140.617767236226427, 36.513031421550686 ] } },
{ "type": "Feature", "properties": { "P29_001": "08202", "P29_002": "A208320200035", "P29_003": "16013", "P29_004": "認定こども園ほほえみ水木わかば幼稚園", "P29_005": "茨城県日立市水木町1-20-12", "P29_006": "4", "P29_007": "0", "P29_008": "00", "P29_009": null }, "geometry": { "type": "Point", "coordinates": [ 140.628157594379331, 36.519021677718378 ] } },
{ "type": "Feature", "properties": { "P29_001": "08202", "P29_002": "A208320200044", "P29_003": "16013", "P29_004": "おおくぼ認定こども園大久保幼稚園", "P29_005": "茨城県日立市大久保町4-10-7", "P29_006": "4", "P29_007": "0", "P29_008": "00", "P29_009": null }, "geometry": { "type": "Point", "coordinates": [ 140.618990524558399, 36.554577324860951 ] } },
{ "type": "Feature", "properties": { "P29_001": "08202", "P29_002": "A208320200053", "P29_003": "16013", "P29_004": "幼保連携型認定こども園おぎつ幼稚園", "P29_005": "茨城県日立市砂沢町364-9", "P29_006": "4", "P29_007": "0", "P29_008": "00", "P29_009": null }, "geometry": { "type": "Point", "coordinates": [ 140.67795127286638, 36.663027396418798 ] } },
{ "type": "Feature", "properties": { "P29_001": "08202", "P29_002": "A208320200062", "P29_003": "16013", "P29_004": "多賀さくら認定こども園", "P29_005": "茨城県日立市東金沢町4-2-1", "P29_006": "4", "P29_007": "0", "P29_008": "00", "P29_009": null }, "geometry": { "type": "Point", "coordinates": [ 140.629609791590013, 36.540871374522766 ] } },
{ "type": "Feature", "properties": { "P29_001": "08202", "P29_002": "A208320200071", "P29_003": "16013", "P29_004": "こどものいえ認定こども園", "P29_005": "茨城県日立市日高町1-14-11", "P29_006": "4", "P29_007": "0", "P29_008": "00", "P29_009": null }, "geometry": { "type": "Point", "coordinates": [ 140.676191004478994, 36.634823000362971 ] } },
{ "type": "Feature", "properties": { "P29_001": "08202", "P29_002": "A208320200080", "P29_003": "16013", "P29_004": "いしまち認定こども園", "P29_005": "茨城県日立市十王町伊師3447-1", "P29_006": "4", "P29_007": "0", "P29_008": "00", "P29_009": null }, "geometry": { "type": "Point", "coordinates": [ 140.699939763248636, 36.677815871245343 ] } },
{ "type": "Feature", "properties": { "P29_001": "08202", "P29_002": "A208320200099", "P29_003": "16013", "P29_004": "認定こども園十王幼稚園・保育園", "P29_005": "茨城県日立市十王町友部566-1", "P29_006": "4", "P29_007": "0", "P29_008": "00", "P29_009": null }, "geometry": { "type": "Point", "coordinates": [ 140.68142400346332, 36.672752999270109 ] } },
{ "type": "Feature", "properties": { "P29_001": "08202", "P29_002": "A208320200106", "P29_003": "16013", "P29_004": "認定こども園ひがしなるさわ幼稚園", "P29_005": "茨城県日立市東成沢町3-16-8", "P29_006": "4", "P29_007": "0", "P29_008": "00", "P29_009": null }, "geometry": { "type": "Point", "coordinates": [ 140.645246935287503, 36.572266161470495 ] } },
{ "type": "Feature", "properties": { "P29_001": "08202", "P29_002": "A208320200115", "P29_003": "16013", "P29_004": "認定こども園ほほえみ学びの森わかば園", "P29_005": "茨城県日立市森山町1085-1", "P29_006": "4", "P29_007": "0", "P29_008": "00", "P29_009": null }, "geometry": { "type": "Point", "coordinates": [ 140.609060701338962, 36.523833674458189 ] } },
{ "type": "Feature", "properties": { "P29_001": "08203", "P29_002": "A208320300016", "P29_003": "16013", "P29_004": "もみじこども園", "P29_005": "茨城県土浦市下高津2-10-22", "P29_006": "4", "P29_007": "0", "P29_008": "00", "P29_009": null }, "geometry": { "type": "Point", "coordinates": [ 140.188464182035659, 36.074757653519185 ] } },
{ "type": "Feature", "properties": { "P29_001": "08203", "P29_002": "A208320300025", "P29_003": "16013", "P29_004": "もみじ第二こども園", "P29_005": "茨城県土浦市若松町1-73", "P29_006": "4", "P29_007": "0", "P29_008": "00", "P29_009": null }, "geometry": { "type": "Point", "coordinates": [ 140.201394358666477, 36.106385459557195 ] } },
{ "type": "Feature", "properties": { "P29_001": "08203", "P29_002": "A208320300034", "P29_003": "16013", "P29_004": "認定こども園まなべすみれ幼稚園", "P29_005": "茨城県土浦市東真鍋町22-11", "P29_006": "4", "P29_007": "0", "P29_008": "00", "P29_009": null }, "geometry": { "type": "Point", "coordinates": [ 140.209066004990916, 36.09738299703303 ] } },
{ "type": "Feature", "properties": { "P29_001": "08203", "P29_002": "A208320300043", "P29_003": "16013", "P29_004": "エンゼルスポーツ幼稚園", "P29_005": "茨城県土浦市烏山5-2039", "P29_006": "4", "P29_007": "0", "P29_008": "00", "P29_009": null }, "geometry": { "type": "Point", "coordinates": [ 140.197390427306033, 36.04496221230832 ] } },
{ "type": "Feature", "properties": { "P29_001": "08204", "P29_002": "A208320400015", "P29_003": "16013", "P29_004": "認定こども園なさき", "P29_005": "茨城県古河市尾崎954", "P29_006": "4", "P29_007": "0", "P29_008": "00", "P29_009": null }, "geometry": { "type": "Point", "coordinates": [ 139.83302329294699, 36.203327238247923 ] } },
{ "type": "Feature", "properties": { "P29_001": "08204", "P29_002": "A208320400024", "P29_003": "16013", "P29_004": "認定こども園ゆりかご幼稚園", "P29_005": "茨城県古河市古河644-5", "P29_006": "4", "P29_007": "0", "P29_008": "00", "P29_009": null }, "geometry": { "type": "Point", "coordinates": [ 139.715099008714532, 36.19010880658201 ] } },
{ "type": "Feature", "properties": { "P29_001": "08204", "P29_002": "A208320400033", "P29_003": "16013", "P29_004": "認定こども園古河白梅幼稚園", "P29_005": "茨城県古河市大山1521-3", "P29_006": "4", "P29_007": "0", "P29_008": "00", "P29_009": null }, "geometry": { "type": "Point", "coordinates": [ 139.718110036728802, 36.151124756612539 ] } },
{ "type": "Feature", "properties": { "P29_001": "08204", "P29_002": "A208320400042", "P29_003": "16013", "P29_004": "認定こども園しらぎくこどもの城幼稚園", "P29_005": "茨城県古河市小堤2399", "P29_006": "4", "P29_007": "0", "P29_008": "00", "P29_009": null }, "geometry": { "type": "Point", "coordinates": [ 139.762140463068818, 36.206116971350426 ] } },
{ "type": "Feature", "properties": { "P29_001": "08204", "P29_002": "A208320400051", "P29_003": "16013", "P29_004": "認定こども園総和第一幼稚園", "P29_005": "茨城県古河市下大野853-2", "P29_006": "4", "P29_007": "0", "P29_008": "00", "P29_009": null }, "geometry": { "type": "Point", "coordinates": [ 139.768721198030761, 36.171079865973581 ] } },
{ "type": "Feature", "properties": { "P29_001": "08204", "P29_002": "A208320400060", "P29_003": "16013", "P29_004": "認定こども園三田幼稚園", "P29_005": "茨城県古河市上辺見931-1", "P29_006": "4", "P29_007": "0", "P29_008": "00", "P29_009": null }, "geometry": { "type": "Point", "coordinates": [ 139.733170994908079, 36.190283114429093 ] } },
{ "type": "Feature", "properties": { "P29_001": "08204", "P29_002": "A208320400079", "P29_003": "16013", "P29_004": "認定こども園ひかり幼稚園", "P29_005": "茨城県古河市仁連33", "P29_006": "4", "P29_007": "0", "P29_008": "00", "P29_009": null }, "geometry": { "type": "Point", "coordinates": [ 139.807926569651841, 36.180609766168573 ] } },
{ "type": "Feature", "properties": { "P29_001": "08204", "P29_002": "A208320400088", "P29_003": "16013", "P29_004": "認定こども園しらゆり幼稚園", "P29_005": "茨城県古河市東山田2010-2", "P29_006": "4", "P29_007": "0", "P29_008": "00", "P29_009": null }, "geometry": { "type": "Point", "coordinates": [ 139.824626002115679, 36.15626299993766 ] } },
{ "type": "Feature", "properties": { "P29_001": "08204", "P29_002": "A208320400097", "P29_003": "16013", "P29_004": "認定こども園こまごめ幼稚園", "P29_005": "茨城県古河市駒込922-16", "P29_006": "4", "P29_007": "0", "P29_008": "00", "P29_009": null }, "geometry": { "type": "Point", "coordinates": [ 139.808527999874684, 36.219699622068319 ] } },
{ "type": "Feature", "properties": { "P29_001": "08204", "P29_002": "A208320400104", "P29_003": "16013", "P29_004": "認定こども園さんわ", "P29_005": "茨城県古河市尾崎3521-9", "P29_006": "4", "P29_007": "0", "P29_008": "00", "P29_009": null }, "geometry": { "type": "Point", "coordinates": [ 139.852460536012046, 36.195153031093248 ] } },
{ "type": "Feature", "properties": { "P29_001": "08204", "P29_002": "A208320400113", "P29_003": "16013", "P29_004": "柊幼稚園", "P29_005": "茨城県古河市東山田3", "P29_006": "4", "P29_007": "0", "P29_008": "00", "P29_009": null }, "geometry": { "type": "Point", "coordinates": [ 139.808089165313618, 36.169556002325216 ] } },
{ "type": "Feature", "properties": { "P29_001": "08204", "P29_002": "A208320400122", "P29_003": "16013", "P29_004": "もろかわ認定こども園", "P29_005": "茨城県古河市諸川字明神下1779-1、1779-3", "P29_006": "4", "P29_007": "0", "P29_008": "00", "P29_009": null }, "geometry": { "type": "Point", "coordinates": [ 139.807599614894428, 36.203126026315161 ] } },
{ "type": "Feature", "properties": { "P29_001": "08205", "P29_002": "A208320500014", "P29_003": "16013", "P29_004": "認定こども園恋瀬ことりの森幼保園", "P29_005": "茨城県石岡市宇治会2116-7", "P29_006": "4", "P29_007": "0", "P29_008": "00", "P29_009": null }, "geometry": { "type": "Point", "coordinates": [ 140.185491624595471, 36.27778946961206 ] } },
{ "type": "Feature", "properties": { "P29_001": "08205", "P29_002": "A208320500023", "P29_003": "16013", "P29_004": "泉ヶ丘こども園", "P29_005": "茨城県石岡市石岡2-19-7", "P29_006": "4", "P29_007": "0", "P29_008": "00", "P29_009": null }, "geometry": { "type": "Point", "coordinates": [ 140.280638345171695, 36.193158656534536 ] } },
{ "type": "Feature", "properties": { "P29_001": "08207", "P29_002": "A208320700012", "P29_003": "16013", "P29_004": "玉岡尭舜認定こども園", "P29_005": "茨城県結城市結城12018-1", "P29_006": "4", "P29_007": "0", "P29_008": "00", "P29_009": null }, "geometry": { "type": "Point", "coordinates": [ 139.871968998968299, 36.313399004523241 ] } },
{ "type": "Feature", "properties": { "P29_001": "08208", "P29_002": "A208320800011", "P29_003": "16013", "P29_004": "認定こども園あいゆう園", "P29_005": "茨城県龍ケ崎市八代町2901", "P29_006": "4", "P29_007": "0", "P29_008": "00", "P29_009": null }, "geometry": { "type": "Point", "coordinates": [ 140.210887056295633, 35.920771622441634 ] } },
{ "type": "Feature", "properties": { "P29_001": "08208", "P29_002": "A208320800020", "P29_003": "16013", "P29_004": "認定こども園ぶどうの木竜ヶ崎幼稚園", "P29_005": "茨城県龍ケ崎市羽原町1366-3", "P29_006": "4", "P29_007": "0", "P29_008": "00", "P29_009": null }, "geometry": { "type": "Point", "coordinates": [ 140.198303995191651, 35.923672003403674 ] } },
{ "type": "Feature", "properties": { "P29_001": "08208", "P29_002": "A208320800039", "P29_003": "16013", "P29_004": "認定こども園北竜台ふたば文化", "P29_005": "茨城県龍ケ崎市若柴町1507", "P29_006": "4", "P29_007": "0", "P29_008": "00", "P29_009": null }, "geometry": { "type": "Point", "coordinates": [ 140.150905002702984, 35.93163000259856 ] } },
{ "type": "Feature", "properties": { "P29_001": "08208", "P29_002": "A208320800048", "P29_003": "16013", "P29_004": "認定こども園竜ヶ崎みどり", "P29_005": "茨城県龍ケ崎市佐貫1-6-6", "P29_006": "4", "P29_007": "0", "P29_008": "00", "P29_009": null }, "geometry": { "type": "Point", "coordinates": [ 140.139987040771302, 35.928377317745309 ] } },
{ "type": "Feature", "properties": { "P29_001": "08208", "P29_002": "A208320800057", "P29_003": "16013", "P29_004": "ながと夢認定こども園", "P29_005": "茨城県龍ケ崎市貝原塚町3072-4", "P29_006": "4", "P29_007": "0", "P29_008": "00", "P29_009": null }, "geometry": { "type": "Point", "coordinates": [ 140.191803005465118, 35.937759998171693 ] } },
{ "type": "Feature", "properties": { "P29_001": "08208", "P29_002": "A208320800066", "P29_003": "16013", "P29_004": "しらはね認定こども園", "P29_005": "茨城県龍ケ崎市白羽1-5-2", "P29_006": "4", "P29_007": "0", "P29_008": "00", "P29_009": null }, "geometry": { "type": "Point", "coordinates": [ 140.2163129985083, 35.923090000168358 ] } },
{ "type": "Feature", "properties": { "P29_001": "08211", "P29_002": "A208321100016", "P29_003": "16013", "P29_004": "認定こども園みつかいどう", "P29_005": "茨城県常総市水海道橋本町3346", "P29_006": "4", "P29_007": "0", "P29_008": "00", "P29_009": null }, "geometry": { "type": "Point", "coordinates": [ 139.987853910787749, 36.024107387495498 ] } },
{ "type": "Feature", "properties": { "P29_001": "08211", "P29_002": "A208321100025", "P29_003": "16013", "P29_004": "認定こども園二葉こども園", "P29_005": "茨城県常総市水海道天満町1712-7", "P29_006": "4", "P29_007": "0", "P29_008": "00", "P29_009": null }, "geometry": { "type": "Point", "coordinates": [ 139.986892884375067, 36.015710180172348 ] } },
{ "type": "Feature", "properties": { "P29_001": "08211", "P29_002": "A208321100034", "P29_003": "16013", "P29_004": "認定こども園きぬ学園", "P29_005": "茨城県常総市羽生町946", "P29_006": "4", "P29_007": "0", "P29_008": "00", "P29_009": null }, "geometry": { "type": "Point", "coordinates": [ 139.979367058024906, 36.04284481421714 ] } },
{ "type": "Feature", "properties": { "P29_001": "08211", "P29_002": "A208321100043", "P29_003": "16013", "P29_004": "認定こども園石下保育園", "P29_005": "茨城県常総市新石下1031", "P29_006": "4", "P29_007": "0", "P29_008": "00", "P29_009": null }, "geometry": { "type": "Point", "coordinates": [ 139.973692996865452, 36.109917003069285 ] } },
{ "type": "Feature", "properties": { "P29_001": "08212", "P29_002": "A208321200015", "P29_003": "16013", "P29_004": "太田さくら認定こども園", "P29_005": "茨城県常陸太田市中城町4451", "P29_006": "4", "P29_007": "0", "P29_008": "00", "P29_009": null }, "geometry": { "type": "Point", "coordinates": [ 140.530965806303385, 36.546686968882369 ] } },
{ "type": "Feature", "properties": { "P29_001": "08214", "P29_002": "A208321400013", "P29_003": "16013", "P29_004": "松ヶ丘認定こども園", "P29_005": "茨城県高萩市下手綱825-3", "P29_006": "4", "P29_007": "0", "P29_008": "00", "P29_009": null }, "geometry": { "type": "Point", "coordinates": [ 140.703691038356851, 36.734856085775753 ] } },
{ "type": "Feature", "properties": { "P29_001": "08216", "P29_002": "A208321600011", "P29_003": "16013", "P29_004": "かさまこども園", "P29_005": "茨城県笠間市金井83-1", "P29_006": "4", "P29_007": "0", "P29_008": "00", "P29_009": null }, "geometry": { "type": "Point", "coordinates": [ 140.262623193855376, 36.396127795580576 ] } },
{ "type": "Feature", "properties": { "P29_001": "08216", "P29_002": "A208321600020", "P29_003": "16013", "P29_004": "いなだこども園", "P29_005": "茨城県笠間市稲田2151-1", "P29_006": "4", "P29_007": "0", "P29_008": "00", "P29_009": null }, "geometry": { "type": "Point", "coordinates": [ 140.201609356246962, 36.359005814092157 ] } },
{ "type": "Feature", "properties": { "P29_001": "08216", "P29_002": "A208321600039", "P29_003": "16013", "P29_004": "幼保連携型認定こども園すみれこども園", "P29_005": "茨城県笠間市旭町345-1", "P29_006": "4", "P29_007": "0", "P29_008": "00", "P29_009": null }, "geometry": { "type": "Point", "coordinates": [ 140.314051001058516, 36.328039996515329 ] } },
{ "type": "Feature", "properties": { "P29_001": "08216", "P29_002": "A208321600048", "P29_003": "16013", "P29_004": "めぐみこども園", "P29_005": "茨城県笠間市下郷4425-31", "P29_006": "4", "P29_007": "0", "P29_008": "00", "P29_009": null }, "geometry": { "type": "Point", "coordinates": [ 140.273881997193115, 36.292851997371386 ] } },
{ "type": "Feature", "properties": { "P29_001": "08216", "P29_002": "A208321600057", "P29_003": "16013", "P29_004": "おしのべこども園", "P29_005": "茨城県笠間市押辺2709-561", "P29_006": "4", "P29_007": "0", "P29_008": "00", "P29_009": null }, "geometry": { "type": "Point", "coordinates": [ 140.301155047569438, 36.288718262247698 ] } },
{ "type": "Feature", "properties": { "P29_001": "08217", "P29_002": "A208321700010", "P29_003": "16013", "P29_004": "取手ふたば文化", "P29_005": "茨城県取手市西1-21-18", "P29_006": "4", "P29_007": "0", "P29_008": "00", "P29_009": null }, "geometry": { "type": "Point", "coordinates": [ 140.046797002908761, 35.90027599909935 ] } },
{ "type": "Feature", "properties": { "P29_001": "08217", "P29_002": "A208321700029", "P29_003": "16013", "P29_004": "認定こども園めぐみ幼稚園", "P29_005": "茨城県取手市戸頭3-4", "P29_006": "4", "P29_007": "0", "P29_008": "00", "P29_009": null }, "geometry": { "type": "Point", "coordinates": [ 140.013077994941057, 35.919986003992491 ] } },
{ "type": "Feature", "properties": { "P29_001": "08217", "P29_002": "A208321700038", "P29_003": "16013", "P29_004": "認定こども園戸頭さくらの森", "P29_005": "茨城県取手市戸頭4-5-7", "P29_006": "4", "P29_007": "0", "P29_008": "00", "P29_009": null }, "geometry": { "type": "Point", "coordinates": [ 140.015224003205162, 35.926432998023749 ] } },
{ "type": "Feature", "properties": { "P29_001": "08217", "P29_002": "A208321700047", "P29_003": "16013", "P29_004": "認定こども園みどりが丘幼稚園", "P29_005": "茨城県取手市本郷4-10-7", "P29_006": "4", "P29_007": "0", "P29_008": "00", "P29_009": null }, "geometry": { "type": "Point", "coordinates": [ 140.057028002978541, 35.914437001920376 ] } },
{ "type": "Feature", "properties": { "P29_001": "08217", "P29_002": "A208321700056", "P29_003": "16013", "P29_004": "認定こども園たかさごスクール取手", "P29_005": "茨城県取手市井野3-16-1", "P29_006": "4", "P29_007": "0", "P29_008": "00", "P29_009": null }, "geometry": { "type": "Point", "coordinates": [ 140.076773981268929, 35.896190206825274 ] } },
{ "type": "Feature", "properties": { "P29_001": "08217", "P29_002": "A208321700065", "P29_003": "16013", "P29_004": "認定こども園たかさごスクール取手アネックス", "P29_005": "茨城県取手市中央町2-25", "P29_006": "4", "P29_007": "0", "P29_008": "00", "P29_009": null }, "geometry": { "type": "Point", "coordinates": [ 140.063564999136815, 35.897666001797838 ] } },
{ "type": "Feature", "properties": { "P29_001": "08217", "P29_002": "A208321700074", "P29_003": "16013", "P29_004": "認定こども園取手幼稚園", "P29_005": "茨城県取手市小文間中妻4188", "P29_006": "4", "P29_007": "0", "P29_008": "00", "P29_009": null }, "geometry": { "type": "Point", "coordinates": [ 140.106694001234217, 35.885981995790345 ] } },
{ "type": "Feature", "properties": { "P29_001": "08217", "P29_002": "A208321700083", "P29_003": "16013", "P29_004": "つつみ幼稚園", "P29_005": "茨城県取手市双葉3-7-1", "P29_006": "4", "P29_007": "0", "P29_008": "00", "P29_009": null }, "geometry": { "type": "Point", "coordinates": [ 140.12134599586804, 35.939303002931496 ] } },
{ "type": "Feature", "properties": { "P29_001": "08219", "P29_002": "A208321900018", "P29_003": "16013", "P29_004": "うしく文化認定こども園", "P29_005": "茨城県牛久市遠山町643-2", "P29_006": "4", "P29_007": "0", "P29_008": "00", "P29_009": null }, "geometry": { "type": "Point", "coordinates": [ 140.145015995060277, 35.956822000614686 ] } },
{ "type": "Feature", "properties": { "P29_001": "08219", "P29_002": "A208321900027", "P29_003": "16013", "P29_004": "認定こども園フレンド幼稚園", "P29_005": "茨城県牛久市柏田町3489-2", "P29_006": "4", "P29_007": "0", "P29_008": "00", "P29_009": null }, "geometry": { "type": "Point", "coordinates": [ 140.161521586020285, 35.969042752396135 ] } },
{ "type": "Feature", "properties": { "P29_001": "08220", "P29_002": "A208322000015", "P29_003": "16013", "P29_004": "認定こども園みのり", "P29_005": "茨城県つくば市高崎字古橋643-9", "P29_006": "4", "P29_007": "0", "P29_008": "00", "P29_009": null }, "geometry": { "type": "Point", "coordinates": [ 140.118471005754571, 35.994444996262537 ] } },
{ "type": "Feature", "properties": { "P29_001": "08220", "P29_002": "A208322000024", "P29_003": "16013", "P29_004": "豊里もみじこども園", "P29_005": "茨城県つくば市土田13-34", "P29_006": "4", "P29_007": "0", "P29_008": "00", "P29_009": null }, "geometry": { "type": "Point", "coordinates": [ 140.065138821952701, 36.094960957633248 ] } },
{ "type": "Feature", "properties": { "P29_001": "08220", "P29_002": "A208322000033", "P29_003": "16013", "P29_004": "つくば中央保育園", "P29_005": "茨城県つくば市赤塚480-7", "P29_006": "4", "P29_007": "0", "P29_008": "00", "P29_009": null }, "geometry": { "type": "Point", "coordinates": [ 140.120064001598877, 36.045091002587753 ] } },
{ "type": "Feature", "properties": { "P29_001": "08220", "P29_002": "A208322000042", "P29_003": "16013", "P29_004": "みどり流星こども園", "P29_005": "茨城県つくば市柴崎禄呂師818-1", "P29_006": "4", "P29_007": "0", "P29_008": "00", "P29_009": null }, "geometry": { "type": "Point", "coordinates": [ 140.120540058108361, 36.105333411640856 ] } },
{ "type": "Feature", "properties": { "P29_001": "08220", "P29_002": "A208322000051", "P29_003": "16013", "P29_004": "学園の森こども園", "P29_005": "茨城県つくば市学園の森2-14-6", "P29_006": "4", "P29_007": "0", "P29_008": "00", "P29_009": null }, "geometry": { "type": "Point", "coordinates": [ 140.076622080994639, 36.095210959059294 ] } },
{ "type": "Feature", "properties": { "P29_001": "08220", "P29_002": "A208322000060", "P29_003": "16013", "P29_004": "かやまるこども園", "P29_005": "茨城県つくば市上萱丸154-1", "P29_006": "4", "P29_007": "0", "P29_008": "00", "P29_009": null }, "geometry": { "type": "Point", "coordinates": [ 140.060373042029283, 36.033598687484812 ] } },
{ "type": "Feature", "properties": { "P29_001": "08222", "P29_002": "A208322200013", "P29_003": "16013", "P29_004": "認定こども園鹿島幼稚園", "P29_005": "茨城県鹿嶋市宮中7-10-7", "P29_006": "4", "P29_007": "0", "P29_008": "00", "P29_009": null }, "geometry": { "type": "Point", "coordinates": [ 140.633622772120333, 35.960476543552879 ] } },
{ "type": "Feature", "properties": { "P29_001": "08222", "P29_002": "A208322200022", "P29_003": "16013", "P29_004": "認定こども園こじか", "P29_005": "茨城県鹿嶋市平井1-100", "P29_006": "4", "P29_007": "0", "P29_008": "00", "P29_009": null }, "geometry": { "type": "Point", "coordinates": [ 140.673625133480385, 35.964737778165635 ] } },
{ "type": "Feature", "properties": { "P29_001": "08222", "P29_002": "A208322200031", "P29_003": "16013", "P29_004": "認定こども園大野めぐみ保育園", "P29_005": "茨城県鹿嶋市浜津賀457-6", "P29_006": "4", "P29_007": "0", "P29_008": "00", "P29_009": null }, "geometry": { "type": "Point", "coordinates": [ 140.61379314084499, 36.061210195993183 ] } },
{ "type": "Feature", "properties": { "P29_001": "08222", "P29_002": "A208322200040", "P29_003": "16013", "P29_004": "認定こども園大野ひかり保育園", "P29_005": "茨城県鹿嶋市中1593-1", "P29_006": "4", "P29_007": "0", "P29_008": "00", "P29_009": null }, "geometry": { "type": "Point", "coordinates": [ 140.587692001701015, 36.022462999754083 ] } },
{ "type": "Feature", "properties": { "P29_001": "08222", "P29_002": "A208322200059", "P29_003": "16013", "P29_004": "認定こども園鹿島いずみ園", "P29_005": "茨城県鹿嶋市宮中4526-5", "P29_006": "4", "P29_007": "0", "P29_008": "00", "P29_009": null }, "geometry": { "type": "Point", "coordinates": [ 140.629697001863406, 35.977961998109755 ] } },
{ "type": "Feature", "properties": { "P29_001": "08222", "P29_002": "A208322200068", "P29_003": "16013", "P29_004": "認定こども園港ケ丘園", "P29_005": "茨城県鹿嶋市平井1276-5", "P29_006": "4", "P29_007": "0", "P29_008": "00", "P29_009": null }, "geometry": { "type": "Point", "coordinates": [ 140.654252311565159, 35.970095863793397 ] } },
{ "type": "Feature", "properties": { "P29_001": "08223", "P29_002": "A208322300012", "P29_003": "16013", "P29_004": "認定こども園慈母学園", "P29_005": "茨城県潮来市日の出4-7", "P29_006": "4", "P29_007": "0", "P29_008": "00", "P29_009": null }, "geometry": { "type": "Point", "coordinates": [ 140.572856999003534, 35.933409995828278 ] } },
{ "type": "Feature", "properties": { "P29_001": "08223", "P29_002": "A208322300021", "P29_003": "16013", "P29_004": "認定こども園こひつじ園", "P29_005": "茨城県潮来市須賀南135", "P29_006": "4", "P29_007": "0", "P29_008": "00", "P29_009": null }, "geometry": { "type": "Point", "coordinates": [ 140.560763742554172, 35.952827035081683 ] } },
{ "type": "Feature", "properties": { "P29_001": "08223", "P29_002": "A208322300030", "P29_003": "16013", "P29_004": "認定こども園潮来こども園", "P29_005": "茨城県潮来市潮来266-1", "P29_006": "4", "P29_007": "0", "P29_008": "00", "P29_009": null }, "geometry": { "type": "Point", "coordinates": [ 140.545520407800353, 35.940062857803639 ] } },
{ "type": "Feature", "properties": { "P29_001": "08223", "P29_002": "A208322300049", "P29_003": "16013", "P29_004": "認定こども園日の出こども園", "P29_005": "茨城県潮来市日の出7-15-18", "P29_006": "4", "P29_007": "0", "P29_008": "00", "P29_009": null }, "geometry": { "type": "Point", "coordinates": [ 140.566798996288725, 35.934679002532583 ] } },
{ "type": "Feature", "properties": { "P29_001": "08223", "P29_002": "A208322300058", "P29_003": "16013", "P29_004": "認定こども園しらほ園", "P29_005": "茨城県潮来市大生1106-4", "P29_006": "4", "P29_007": "0", "P29_008": "00", "P29_009": null }, "geometry": { "type": "Point", "coordinates": [ 140.561199901459361, 36.000140000910797 ] } },
{ "type": "Feature", "properties": { "P29_001": "08223", "P29_002": "A208322300067", "P29_003": "16013", "P29_004": "スサキ認定こども園", "P29_005": "茨城県潮来市洲崎3861-3", "P29_006": "4", "P29_007": "0", "P29_008": "00", "P29_009": null }, "geometry": { "type": "Point", "coordinates": [ 140.597624000579231, 35.956707999643953 ] } },
{ "type": "Feature", "properties": { "P29_001": "08223", "P29_002": "A208322300076", "P29_003": "16013", "P29_004": "認定こども園うしぼり園", "P29_005": "茨城県潮来市上戸1899", "P29_006": "4", "P29_007": "0", "P29_008": "00", "P29_009": null }, "geometry": { "type": "Point", "coordinates": [ 140.534937917674029, 35.950173720326219 ] } },
{ "type": "Feature", "properties": { "P29_001": "08223", "P29_002": "A208322300085", "P29_003": "16013", "P29_004": "かすみ認定こども園", "P29_005": "茨城県潮来市永山742-1", "P29_006": "4", "P29_007": "0", "P29_008": "00", "P29_009": null }, "geometry": { "type": "Point", "coordinates": [ 140.509322656119366, 35.964332341989682 ] } },
{ "type": "Feature", "properties": { "P29_001": "08224", "P29_002": "A208322400011", "P29_003": "16013", "P29_004": "もりや幼保園", "P29_005": "茨城県守谷市松前台2-15", "P29_006": "4", "P29_007": "0", "P29_008": "00", "P29_009": null }, "geometry": { "type": "Point", "coordinates": [ 139.967895001428047, 35.969559001564356 ] } },
{ "type": "Feature", "properties": { "P29_001": "08225", "P29_002": "A208322500010", "P29_003": "16013", "P29_004": "御前山認定こども園", "P29_005": "茨城県常陸大宮市野口1294", "P29_006": "4", "P29_007": "0", "P29_008": "00", "P29_009": null }, "geometry": { "type": "Point", "coordinates": [ 140.330685581612386, 36.552629896619536 ] } },
{ "type": "Feature", "properties": { "P29_001": "08225", "P29_002": "A208322500029", "P29_003": "16013", "P29_004": "認定こども園あゆみ保育園", "P29_005": "茨城県常陸大宮市東野3182-6", "P29_006": "4", "P29_007": "0", "P29_008": "00", "P29_009": null }, "geometry": { "type": "Point", "coordinates": [ 140.371992268024712, 36.570434426336078 ] } },
{ "type": "Feature", "properties": { "P29_001": "08225", "P29_002": "A208322500038", "P29_003": "16013", "P29_004": "認定こども園ひまわり保育園", "P29_005": "茨城県常陸大宮市石沢1920-1", "P29_006": "4", "P29_007": "0", "P29_008": "00", "P29_009": null }, "geometry": { "type": "Point", "coordinates": [ 140.408531130884057, 36.538979036821942 ] } },
{ "type": "Feature", "properties": { "P29_001": "08225", "P29_002": "A208322500047", "P29_003": "16013", "P29_004": "認定こども園若草幼稚園", "P29_005": "茨城県常陸大宮市石沢1468-4", "P29_006": "4", "P29_007": "0", "P29_008": "00", "P29_009": null }, "geometry": { "type": "Point", "coordinates": [ 140.416163051225766, 36.534016968440199 ] } },
{ "type": "Feature", "properties": { "P29_001": "08226", "P29_002": "A208322600019", "P29_003": "16013", "P29_004": "認定こども園大成学園幼稚園", "P29_005": "茨城県那珂市東木倉960-2", "P29_006": "4", "P29_007": "0", "P29_008": "00", "P29_009": null }, "geometry": { "type": "Point", "coordinates": [ 140.47256033584415, 36.423597193246586 ] } },
{ "type": "Feature", "properties": { "P29_001": "08226", "P29_002": "A208322600028", "P29_003": "16013", "P29_004": "瓜連認定こども園", "P29_005": "茨城県那珂市瓜連1222", "P29_006": "4", "P29_007": "0", "P29_008": "00", "P29_009": null }, "geometry": { "type": "Point", "coordinates": [ 140.451633304235941, 36.503507462276112 ] } },
{ "type": "Feature", "properties": { "P29_001": "08227", "P29_002": "A208322700018", "P29_003": "16013", "P29_004": "愛泉いずみこども園", "P29_005": "茨城県筑西市二木成1273", "P29_006": "4", "P29_007": "0", "P29_008": "00", "P29_009": null }, "geometry": { "type": "Point", "coordinates": [ 139.977387603570378, 36.298628736107574 ] } },
{ "type": "Feature", "properties": { "P29_001": "08227", "P29_002": "A208322700027", "P29_003": "16013", "P29_004": "認定こども園なかだて", "P29_005": "茨城県筑西市中館456-2", "P29_006": "4", "P29_007": "0", "P29_008": "00", "P29_009": null }, "geometry": { "type": "Point", "coordinates": [ 139.975281004968025, 36.332721003746933 ] } },
{ "type": "Feature", "properties": { "P29_001": "08227", "P29_002": "A208322700036", "P29_003": "16013", "P29_004": "認定こども園下館聖母", "P29_005": "茨城県筑西市本城町甲301-4", "P29_006": "4", "P29_007": "0", "P29_008": "00", "P29_009": null }, "geometry": { "type": "Point", "coordinates": [ 139.975919995853644, 36.313125997759073 ] } },
{ "type": "Feature", "properties": { "P29_001": "08227", "P29_002": "A208322700045", "P29_003": "16013", "P29_004": "認定こども園いずみ保育園", "P29_005": "茨城県筑西市羽方186-1", "P29_006": "4", "P29_007": "0", "P29_008": "00", "P29_009": null }, "geometry": { "type": "Point", "coordinates": [ 139.995397000299903, 36.353079000209831 ] } },
{ "type": "Feature", "properties": { "P29_001": "08227", "P29_002": "A208322700054", "P29_003": "16013", "P29_004": "幼保連携型認定こども園川島こども園", "P29_005": "茨城県筑西市小川1845", "P29_006": "4", "P29_007": "0", "P29_008": "00", "P29_009": null }, "geometry": { "type": "Point", "coordinates": [ 139.919698003725415, 36.305035995479408 ] } },
{ "type": "Feature", "properties": { "P29_001": "08227", "P29_002": "A208322700063", "P29_003": "16013", "P29_004": "認定こども園明野保育園", "P29_005": "茨城県筑西市海老ヶ島1018-1", "P29_006": "4", "P29_007": "0", "P29_008": "00", "P29_009": null }, "geometry": { "type": "Point", "coordinates": [ 140.043179004548506, 36.243719000840066 ] } },
{ "type": "Feature", "properties": { "P29_001": "08227", "P29_002": "A208322700072", "P29_003": "16013", "P29_004": "幼保連携型認定こども園ときわの杜", "P29_005": "茨城県筑西市横塚795", "P29_006": "4", "P29_007": "0", "P29_008": "00", "P29_009": null }, "geometry": { "type": "Point", "coordinates": [ 140.007800004968828, 36.316926280642463 ] } },
{ "type": "Feature", "properties": { "P29_001": "08227", "P29_002": "A208322700081", "P29_003": "16013", "P29_004": "認定こども園しろはと保育園", "P29_005": "茨城県筑西市西方1644-7", "P29_006": "4", "P29_007": "0", "P29_008": "00", "P29_009": null }, "geometry": { "type": "Point", "coordinates": [ 139.954327790911037, 36.286857577391345 ] } },
{ "type": "Feature", "properties": { "P29_001": "08227", "P29_002": "A208322700090", "P29_003": "16013", "P29_004": "認定こども園大和保育園", "P29_005": "茨城県筑西市下中山360-10", "P29_006": "4", "P29_007": "0", "P29_008": "00", "P29_009": null }, "geometry": { "type": "Point", "coordinates": [ 139.986360582069523, 36.303955625642445 ] } },
{ "type": "Feature", "properties": { "P29_001": "08227", "P29_002": "A208322700107", "P29_003": "16013", "P29_004": "認定こども園たちばな保育園", "P29_005": "茨城県筑西市五所宮384-2", "P29_006": "4", "P29_007": "0", "P29_008": "00", "P29_009": null }, "geometry": { "type": "Point", "coordinates": [ 139.943928997380056, 36.333956001342251 ] } },
{ "type": "Feature", "properties": { "P29_001": "08227", "P29_002": "A208322700116", "P29_003": "16013", "P29_004": "認定こども園川島保育園", "P29_005": "茨城県筑西市女方46-2", "P29_006": "4", "P29_007": "0", "P29_008": "00", "P29_009": null }, "geometry": { "type": "Point", "coordinates": [ 139.915286578347377, 36.290611823054839 ] } },
{ "type": "Feature", "properties": { "P29_001": "08227", "P29_002": "A208322700125", "P29_003": "16013", "P29_004": "認定こども園石田保育園", "P29_005": "茨城県筑西市西石田1186", "P29_006": "4", "P29_007": "0", "P29_008": "00", "P29_009": null }, "geometry": { "type": "Point", "coordinates": [ 139.990173998338406, 36.279892999683412 ] } },
{ "type": "Feature", "properties": { "P29_001": "08227", "P29_002": "A208322700134", "P29_003": "16013", "P29_004": "認定こども園さくらこども園", "P29_005": "茨城県筑西市海老ケ島久保山2019", "P29_006": "4", "P29_007": "0", "P29_008": "00", "P29_009": null }, "geometry": { "type": "Point", "coordinates": [ 140.034666525892192, 36.243379314773726 ] } },
{ "type": "Feature", "properties": { "P29_001": "08227", "P29_002": "A208322700143", "P29_003": "16013", "P29_004": "認定こども園ヒロサワ・シティこども園", "P29_005": "茨城県筑西市村田妙原2108-1", "P29_006": "4", "P29_007": "0", "P29_008": "00", "P29_009": null }, "geometry": { "type": "Point", "coordinates": [ 140.018517994586631, 36.289330999605824 ] } },
{ "type": "Feature", "properties": { "P29_001": "08227", "P29_002": "A208322700152", "P29_003": "16013", "P29_004": "認定こども園はぐろ保育園", "P29_005": "茨城県筑西市岡芹2086", "P29_006": "4", "P29_007": "0", "P29_008": "00", "P29_009": null }, "geometry": { "type": "Point", "coordinates": [ 139.969029158238243, 36.320375271189796 ] } },
{ "type": "Feature", "properties": { "P29_001": "08227", "P29_002": "A208322700161", "P29_003": "16013", "P29_004": "たけのこ保育園", "P29_005": "茨城県筑西市吉田653-1", "P29_006": "4", "P29_007": "0", "P29_008": "00", "P29_009": null }, "geometry": { "type": "Point", "coordinates": [ 140.011720463545743, 36.268885316610465 ] } },
{ "type": "Feature", "properties": { "P29_001": "08227", "P29_002": "A208322700170", "P29_003": "16013", "P29_004": "認定こども園筑子保育園", "P29_005": "茨城県筑西市下中山589-1", "P29_006": "4", "P29_007": "0", "P29_008": "00", "P29_009": null }, "geometry": { "type": "Point", "coordinates": [ 139.986270212610293, 36.308898275646989 ] } },
{ "type": "Feature", "properties": { "P29_001": "08227", "P29_002": "A208322700189", "P29_003": "16013", "P29_004": "認定こども園筑子ファミリア保育園", "P29_005": "茨城県筑西市西方1359-1", "P29_006": "4", "P29_007": "0", "P29_008": "00", "P29_009": null }, "geometry": { "type": "Point", "coordinates": [ 139.960895005563913, 36.28453499936608 ] } },
{ "type": "Feature", "properties": { "P29_001": "08227", "P29_002": "A208322700198", "P29_003": "16013", "P29_004": "認定こども園協和なかよし園", "P29_005": "茨城県筑西市門井1975-1", "P29_006": "4", "P29_007": "0", "P29_008": "00", "P29_009": null }, "geometry": { "type": "Point", "coordinates": [ 140.033651994310333, 36.333271388139295 ] } },
{ "type": "Feature", "properties": { "P29_001": "08227", "P29_002": "A208322700205", "P29_003": "16013", "P29_004": "認定こども園西方いずみ幼稚園　", "P29_005": "茨城県筑西市野殿1336-1", "P29_006": "4", "P29_007": "0", "P29_008": "00", "P29_009": null }, "geometry": { "type": "Point", "coordinates": [ 139.967712695061408, 36.275899228738076 ] } },
{ "type": "Feature", "properties": { "P29_001": "08228", "P29_002": "A208322800017", "P29_003": "16013", "P29_004": "認定こども園サンキッズ", "P29_005": "茨城県坂東市岩井4678-3", "P29_006": "4", "P29_007": "0", "P29_008": "00", "P29_009": null }, "geometry": { "type": "Point", "coordinates": [ 139.884894151336255, 36.046365362121435 ] } },
{ "type": "Feature", "properties": { "P29_001": "08228", "P29_002": "A208322800026", "P29_003": "16013", "P29_004": "あかつき保育園", "P29_005": "茨城県坂東市大谷口1037", "P29_006": "4", "P29_007": "0", "P29_008": "00", "P29_009": null }, "geometry": { "type": "Point", "coordinates": [ 139.909010284244573, 36.010057014298567 ] } },
{ "type": "Feature", "properties": { "P29_001": "08228", "P29_002": "A208322800035", "P29_003": "16013", "P29_004": "認定こども園すずのき", "P29_005": "茨城県坂東市長須3746", "P29_006": "4", "P29_007": "0", "P29_008": "00", "P29_009": null }, "geometry": { "type": "Point", "coordinates": [ 139.857523795166287, 36.054330439574166 ] } },
{ "type": "Feature", "properties": { "P29_001": "08228", "P29_002": "A208322800044", "P29_003": "16013", "P29_004": "認定こども園小山保育園", "P29_005": "茨城県坂東市小山123", "P29_006": "4", "P29_007": "0", "P29_008": "00", "P29_009": null }, "geometry": { "type": "Point", "coordinates": [ 139.878833995724676, 36.017093001599065 ] } },
{ "type": "Feature", "properties": { "P29_001": "08229", "P29_002": "A208322900016", "P29_003": "16013", "P29_004": "認定こども園つばさ", "P29_005": "茨城県稲敷市柴崎字芝原6626-1", "P29_006": "4", "P29_007": "0", "P29_008": "00", "P29_009": null }, "geometry": { "type": "Point", "coordinates": [ 140.297985928023365, 35.9043164676362 ] } },
{ "type": "Feature", "properties": { "P29_001": "08230", "P29_002": "A208323000013", "P29_003": "16013", "P29_004": "認定こども園神立幼稚園", "P29_005": "茨城県かすみがうら市稲吉2-18-8", "P29_006": "4", "P29_007": "0", "P29_008": "00", "P29_009": null }, "geometry": { "type": "Point", "coordinates": [ 140.247598141765621, 36.123272499097808 ] } },
{ "type": "Feature", "properties": { "P29_001": "08230", "P29_002": "A208323000022", "P29_003": "16013", "P29_004": "美並未来みなみこども園", "P29_005": "茨城県かすみがうら市上大堤210-1", "P29_006": "4", "P29_007": "0", "P29_008": "00", "P29_009": null }, "geometry": { "type": "Point", "coordinates": [ 140.288380627394218, 36.108706450693212 ] } },
{ "type": "Feature", "properties": { "P29_001": "08231", "P29_002": "A208323100012", "P29_003": "16013", "P29_004": "幼保連携型認定こども園星の宮幼保園", "P29_005": "茨城県桜川市富谷655", "P29_006": "4", "P29_007": "0", "P29_008": "00", "P29_009": null }, "geometry": { "type": "Point", "coordinates": [ 140.109848329013175, 36.379234806725648 ] } },
{ "type": "Feature", "properties": { "P29_001": "08231", "P29_002": "A208323100021", "P29_003": "16013", "P29_004": "認定こども園　ひなの里幼稚園", "P29_005": "茨城県桜川市真壁町田87-2", "P29_006": "4", "P29_007": "0", "P29_008": "00", "P29_009": null }, "geometry": { "type": "Point", "coordinates": [ 140.100331724828635, 36.272370230330445 ] } },
{ "type": "Feature", "properties": { "P29_001": "08232", "P29_002": "A208323200011", "P29_003": "16013", "P29_004": "幼保連携型認定こども園平泉幼稚園", "P29_005": "茨城県神栖市平泉2769", "P29_006": "4", "P29_007": "0", "P29_008": "00", "P29_009": null }, "geometry": { "type": "Point", "coordinates": [ 140.637159211416702, 35.905634866083055 ] } },
{ "type": "Feature", "properties": { "P29_001": "08232", "P29_002": "A208323200020", "P29_003": "16013", "P29_004": "幼保連携型認定こども園萬徳寺保育園", "P29_005": "茨城県神栖市平泉2325-1", "P29_006": "4", "P29_007": "0", "P29_008": "00", "P29_009": null }, "geometry": { "type": "Point", "coordinates": [ 140.634979004960059, 35.911706004187842 ] } },
{ "type": "Feature", "properties": { "P29_001": "08232", "P29_002": "A208323200039", "P29_003": "16013", "P29_004": "認定こども園神栖第二あおぞら園", "P29_005": "茨城県神栖市下幡木742-1", "P29_006": "4", "P29_007": "0", "P29_008": "00", "P29_009": null }, "geometry": { "type": "Point", "coordinates": [ 140.628591908729845, 35.919003796635849 ] } },
{ "type": "Feature", "properties": { "P29_001": "08232", "P29_002": "A208323200048", "P29_003": "16013", "P29_004": "幼保連携型認定こども園深芝保育園", "P29_005": "茨城県神栖市深芝2503", "P29_006": "4", "P29_007": "0", "P29_008": "00", "P29_009": null }, "geometry": { "type": "Point", "coordinates": [ 140.651865995496706, 35.917900000879079 ] } },
{ "type": "Feature", "properties": { "P29_001": "08233", "P29_002": "A208323300010", "P29_003": "16013", "P29_004": "認定こども園のぞみ", "P29_005": "茨城県行方市山田3418-4", "P29_006": "4", "P29_007": "0", "P29_008": "00", "P29_009": null }, "geometry": { "type": "Point", "coordinates": [ 140.517532942122017, 36.077841852443832 ] } },
{ "type": "Feature", "properties": { "P29_001": "08233", "P29_002": "A208323300029", "P29_003": "16013", "P29_004": "麻生こども園", "P29_005": "茨城県行方市麻生3323-10", "P29_006": "4", "P29_007": "0", "P29_008": "00", "P29_009": null }, "geometry": { "type": "Point", "coordinates": [ 140.501048026383586, 36.014474291258551 ] } },
{ "type": "Feature", "properties": { "P29_001": "08233", "P29_002": "A208323300038", "P29_003": "16013", "P29_004": "北浦こども園", "P29_005": "茨城県行方市中根309-1", "P29_006": "4", "P29_007": "0", "P29_008": "00", "P29_009": null }, "geometry": { "type": "Point", "coordinates": [ 140.506563127804355, 36.069043327845598 ] } },
{ "type": "Feature", "properties": { "P29_001": "08233", "P29_002": "A208323300047", "P29_003": "16013", "P29_004": "龍翔寺こども園", "P29_005": "茨城県行方市矢幡2027-6", "P29_006": "4", "P29_007": "0", "P29_008": "00", "P29_009": null }, "geometry": { "type": "Point", "coordinates": [ 140.531339630565697, 36.014115642017472 ] } },
{ "type": "Feature", "properties": { "P29_001": "08234", "P29_002": "A208323400019", "P29_003": "16013", "P29_004": "旭保育園", "P29_005": "茨城県鉾田市上釜934-64", "P29_006": "4", "P29_007": "0", "P29_008": "00", "P29_009": null }, "geometry": { "type": "Point", "coordinates": [ 140.535418706886048, 36.235633863320636 ] } },
{ "type": "Feature", "properties": { "P29_001": "08234", "P29_002": "A208323400028", "P29_003": "16013", "P29_004": "旭保育園（分園）", "P29_005": "茨城県鉾田市上釜934-131", "P29_006": "4", "P29_007": "0", "P29_008": "00", "P29_009": null }, "geometry": { "type": "Point", "coordinates": [ 140.53609353792038, 36.235357133566431 ] } },
{ "type": "Feature", "properties": { "P29_001": "08234", "P29_002": "A208323400037", "P29_003": "16013", "P29_004": "青山こども園", "P29_005": "茨城県鉾田市安塚880-102", "P29_006": "4", "P29_007": "0", "P29_008": "00", "P29_009": null }, "geometry": { "type": "Point", "coordinates": [ 140.546621353405641, 36.144970058620075 ] } },
{ "type": "Feature", "properties": { "P29_001": "08235", "P29_002": "A208323500018", "P29_003": "16013", "P29_004": "認定こども園ふたばランド", "P29_005": "茨城県つくばみらい市紫峰ヶ丘1-10-4", "P29_006": "4", "P29_007": "0", "P29_008": "00", "P29_009": null }, "geometry": { "type": "Point", "coordinates": [ 140.038439996515393, 35.999281003753929 ] } },
{ "type": "Feature", "properties": { "P29_001": "08235", "P29_002": "A208323500027", "P29_003": "16013", "P29_004": "富士見ヶ丘認定こども園", "P29_005": "茨城県つくばみらい市富士見ヶ丘4-14-6", "P29_006": "4", "P29_007": "0", "P29_008": "00", "P29_009": null }, "geometry": { "type": "Point", "coordinates": [ 140.025497237372775, 36.005532520102101 ] } },
{ "type": "Feature", "properties": { "P29_001": "08235", "P29_002": "A208323500036", "P29_003": "16013", "P29_004": "みらい認定こども園", "P29_005": "茨城県つくばみらい市筒戸沼端3190", "P29_006": "4", "P29_007": "0", "P29_008": "00", "P29_009": null }, "geometry": { "type": "Point", "coordinates": [ 139.996098880426786, 35.96537856524494 ] } },
{ "type": "Feature", "properties": { "P29_001": "08235", "P29_002": "A208323500045", "P29_003": "16013", "P29_004": "認定こども園ルンビニー学園", "P29_005": "茨城県つくばみらい市陽光台2-35-1", "P29_006": "4", "P29_007": "0", "P29_008": "00", "P29_009": null }, "geometry": { "type": "Point", "coordinates": [ 140.044196319720982, 35.995903552176891 ] } },
{ "type": "Feature", "properties": { "P29_001": "08236", "P29_002": "A208323600017", "P29_003": "16013", "P29_004": "認定こども園美野里", "P29_005": "茨城県小美玉市羽鳥2624-8", "P29_006": "4", "P29_007": "0", "P29_008": "00", "P29_009": null }, "geometry": { "type": "Point", "coordinates": [ 140.285746879790622, 36.250172383694647 ] } },
{ "type": "Feature", "properties": { "P29_001": "08236", "P29_002": "A208323600026", "P29_003": "16013", "P29_004": "認定こども園納場保育園", "P29_005": "茨城県小美玉市納場111-1", "P29_006": "4", "P29_007": "0", "P29_008": "00", "P29_009": null }, "geometry": { "type": "Point", "coordinates": [ 140.318679364863982, 36.261541453800696 ] } },
{ "type": "Feature", "properties": { "P29_001": "08236", "P29_002": "A208323600035", "P29_003": "16013", "P29_004": "認定こども園玉里保育園", "P29_005": "茨城県小美玉市田木谷1068-1", "P29_006": "4", "P29_007": "0", "P29_008": "00", "P29_009": null }, "geometry": { "type": "Point", "coordinates": [ 140.329115415010904, 36.175821518206504 ] } },
{ "type": "Feature", "properties": { "P29_001": "08236", "P29_002": "A208323600044", "P29_003": "16013", "P29_004": "認定こども園はとり保育園", "P29_005": "茨城県小美玉市羽鳥2815-1", "P29_006": "4", "P29_007": "0", "P29_008": "00", "P29_009": null }, "geometry": { "type": "Point", "coordinates": [ 140.292586634026208, 36.246984737032236 ] } },
{ "type": "Feature", "properties": { "P29_001": "08302", "P29_002": "A208330200016", "P29_003": "16013", "P29_004": "いばらき幼稚園", "P29_005": "茨城県東茨城郡茨城町小堤970-8", "P29_006": "4", "P29_007": "0", "P29_008": "00", "P29_009": null }, "geometry": { "type": "Point", "coordinates": [ 140.422100997034875, 36.284065002677814 ] } },
{ "type": "Feature", "properties": { "P29_001": "08302", "P29_002": "A208330200025", "P29_003": "16013", "P29_004": "いばらき中央認定こども園", "P29_005": "茨城県東茨城郡茨城町小堤990", "P29_006": "4", "P29_007": "0", "P29_008": "00", "P29_009": null }, "geometry": { "type": "Point", "coordinates": [ 140.423964006335694, 36.284854634030829 ] } },
{ "type": "Feature", "properties": { "P29_001": "08302", "P29_002": "A208330200034", "P29_003": "16013", "P29_004": "認定こども園飯沼こども園", "P29_005": "茨城県東茨城郡茨城町上飯沼1276-1", "P29_006": "4", "P29_007": "0", "P29_008": "00", "P29_009": null }, "geometry": { "type": "Point", "coordinates": [ 140.381773004168821, 36.290734996555265 ] } },
{ "type": "Feature", "properties": { "P29_001": "08302", "P29_002": "A208330200043", "P29_003": "16013", "P29_004": "認定こども園さくらこども園", "P29_005": "茨城県東茨城郡茨城町小幡2162-3", "P29_006": "4", "P29_007": "0", "P29_008": "00", "P29_009": null }, "geometry": { "type": "Point", "coordinates": [ 140.396187822369029, 36.256755749010559 ] } },
{ "type": "Feature", "properties": { "P29_001": "08310", "P29_002": "A208331000016", "P29_003": "16013", "P29_004": "認定こども園桂幼稚園", "P29_005": "茨城県東茨城郡城里町阿波山688-1", "P29_006": "4", "P29_007": "0", "P29_008": "00", "P29_009": null }, "geometry": { "type": "Point", "coordinates": [ 140.363840998391026, 36.519957000833337 ] } },
{ "type": "Feature", "properties": { "P29_001": "08310", "P29_002": "A208331000025", "P29_003": "16013", "P29_004": "みどりこども園", "P29_005": "茨城県東茨城郡城里町大字石塚1233", "P29_006": "4", "P29_007": "0", "P29_008": "00", "P29_009": null }, "geometry": { "type": "Point", "coordinates": [ 140.370050004269046, 36.485011000927791 ] } },
{ "type": "Feature", "properties": { "P29_001": "08341", "P29_002": "A208334100019", "P29_003": "16013", "P29_004": "さちのみ認定子ども園", "P29_005": "茨城県那珂郡東海村石神内宿2330-3", "P29_006": "4", "P29_007": "0", "P29_008": "00", "P29_009": null }, "geometry": { "type": "Point", "coordinates": [ 140.564088884903811, 36.476848421886743 ] } },
{ "type": "Feature", "properties": { "P29_001": "08341", "P29_002": "A208334100028", "P29_003": "16013", "P29_004": "おーくす船場こども園", "P29_005": "茨城県那珂郡東海村船場592-1", "P29_006": "4", "P29_007": "0", "P29_008": "00", "P29_009": null }, "geometry": { "type": "Point", "coordinates": [ 140.546211995363592, 36.450490002675281 ] } },
{ "type": "Feature", "properties": { "P29_001": "08443", "P29_002": "A208344300016", "P29_003": "16013", "P29_004": "阿見認定こども園", "P29_005": "茨城県稲敷郡阿見町阿見5205-2", "P29_006": "4", "P29_007": "0", "P29_008": "00", "P29_009": null }, "geometry": { "type": "Point", "coordinates": [ 140.200849694202248, 36.034533140950174 ] } },
{ "type": "Feature", "properties": { "P29_001": "08443", "P29_002": "A208344300025", "P29_003": "16013", "P29_004": "認定こども園阿見みどり幼稚園", "P29_005": "茨城県稲敷郡阿見町鈴木25-10", "P29_006": "4", "P29_007": "0", "P29_008": "00", "P29_009": null }, "geometry": { "type": "Point", "coordinates": [ 140.212166633813666, 36.021854092500128 ] } },
{ "type": "Feature", "properties": { "P29_001": "08521", "P29_002": "A208352100011", "P29_003": "16013", "P29_004": "認定こども園さわきこども園", "P29_005": "茨城県結城郡八千代町大字菅谷898-38", "P29_006": "4", "P29_007": "0", "P29_008": "00", "P29_009": null }, "geometry": { "type": "Point", "coordinates": [ 139.885213430122604, 36.178513260367872 ] } },
{ "type": "Feature", "properties": { "P29_001": "08542", "P29_002": "A208354200016", "P29_003": "16013", "P29_004": "川妻認定こども園おひさま", "P29_005": "茨城県猿島郡五霞町川妻494-5", "P29_006": "4", "P29_007": "0", "P29_008": "00", "P29_009": null }, "geometry": { "type": "Point", "coordinates": [ 139.732398341173905, 36.128059340509033 ] } },
{ "type": "Feature", "properties": { "P29_001": "08542", "P29_002": "A208354200025", "P29_003": "16013", "P29_004": "五霞幼稚園・保育園", "P29_005": "茨城県猿島郡五霞町元栗橋1589", "P29_006": "4", "P29_007": "0", "P29_008": "00", "P29_009": null }, "geometry": { "type": "Point", "coordinates": [ 139.738102237761808, 36.108093623556044 ] } },
{ "type": "Feature", "properties": { "P29_001": "08546", "P29_002": "A208354600012", "P29_003": "16013", "P29_004": "認定こども園バンビーノせいしょう", "P29_005": "茨城県猿島郡境町大歩425-26", "P29_006": "4", "P29_007": "0", "P29_008": "00", "P29_009": null }, "geometry": { "type": "Point", "coordinates": [ 139.82058072206442, 36.103967778465403 ] } },
{ "type": "Feature", "properties": { "P29_001": "08546", "P29_002": "A208354600021", "P29_003": "16013", "P29_004": "認定こども園はなぶさ", "P29_005": "茨城県猿島郡境町若林2342-1", "P29_006": "4", "P29_007": "0", "P29_008": "00", "P29_009": null }, "geometry": { "type": "Point", "coordinates": [ 139.832544997252825, 36.081477998031659 ] } },
{ "type": "Feature", "properties": { "P29_001": "08546", "P29_002": "A208354600030", "P29_003": "16013", "P29_004": "認定こども園境いずみ保育園", "P29_005": "茨城県猿島郡境町大字西泉田704-2", "P29_006": "4", "P29_007": "0", "P29_008": "00", "P29_009": null }, "geometry": { "type": "Point", "coordinates": [ 139.816576378050655, 36.117081064713666 ] } },
{ "type": "Feature", "properties": { "P29_001": "08564", "P29_002": "A208356400019", "P29_003": "16013", "P29_004": "幼保連携型認定こども園布川保育園", "P29_005": "茨城県北相馬郡利根町布川3003-2", "P29_006": "4", "P29_007": "0", "P29_008": "00", "P29_009": null }, "geometry": { "type": "Point", "coordinates": [ 140.140844264266775, 35.856960890924228 ] } }
]
}
