{
"type": "FeatureCollection",
"name": "geo_08_専修学校",
"crs": { "type": "name", "properties": { "name": "urn:ogc:def:crs:EPSG::6668" } },
"features": [
{ "type": "Feature", "properties": { "P29_001": "08216", "P29_002": "H108221600019", "P29_003": "16016", "P29_004": "茨城県立中央看護専門学校", "P29_005": "茨城県笠間市鯉渕6528", "P29_006": "2", "P29_007": "0", "P29_008": "00", "P29_009": null }, "geometry": { "type": "Point", "coordinates": [ 140.322297751515123, 36.350247775228489 ] } },
{ "type": "Feature", "properties": { "P29_001": "08220", "P29_002": "H108222000013", "P29_003": "16016", "P29_004": "茨城県立つくば看護専門学校", "P29_005": "茨城県つくば市天久保1-1-2", "P29_006": "2", "P29_007": "0", "P29_008": "00", "P29_009": null }, "geometry": { "type": "Point", "coordinates": [ 140.106414264517866, 36.089581296456515 ] } },
{ "type": "Feature", "properties": { "P29_001": "08302", "P29_002": "H108230200014", "P29_003": "16016", "P29_004": "茨城県立農業大学校", "P29_005": "茨城県東茨城郡茨城町長岡4070-186", "P29_006": "2", "P29_007": "0", "P29_008": "00", "P29_009": null }, "geometry": { "type": "Point", "coordinates": [ 140.454412331276814, 36.291975797859969 ] } },
{ "type": "Feature", "properties": { "P29_001": "08201", "P29_002": "H108320100014", "P29_003": "16016", "P29_004": "専門学校文化デザイナー学院", "P29_005": "茨城県水戸市泉町1-3-22", "P29_006": "4", "P29_007": "0", "P29_008": "00", "P29_009": null }, "geometry": { "type": "Point", "coordinates": [ 140.465592314972326, 36.377978748227314 ] } },
{ "type": "Feature", "properties": { "P29_001": "08201", "P29_002": "H108320100023", "P29_003": "16016", "P29_004": "茨城歯科専門学校", "P29_005": "茨城県水戸市見和2-292-1", "P29_006": "4", "P29_007": "0", "P29_008": "00", "P29_009": null }, "geometry": { "type": "Point", "coordinates": [ 140.434832001773913, 36.375523002271599 ] } },
{ "type": "Feature", "properties": { "P29_001": "08201", "P29_002": "H108320100032", "P29_003": "16016", "P29_004": "中川学園調理技術専門学校", "P29_005": "茨城県水戸市見和3-663-10", "P29_006": "4", "P29_007": "0", "P29_008": "00", "P29_009": null }, "geometry": { "type": "Point", "coordinates": [ 140.417794997713088, 36.37722999680792 ] } },
{ "type": "Feature", "properties": { "P29_001": "08201", "P29_002": "H108320100041", "P29_003": "16016", "P29_004": "水戸美容専門学校", "P29_005": "茨城県水戸市新荘2-14-3", "P29_006": "4", "P29_007": "0", "P29_008": "00", "P29_009": null }, "geometry": { "type": "Point", "coordinates": [ 140.451580998868735, 36.386241995977478 ] } },
{ "type": "Feature", "properties": { "P29_001": "08201", "P29_002": "H108320100050", "P29_003": "16016", "P29_004": "茨城県理容生活衛生同業組合立茨城県中央理容美容専門学校", "P29_005": "茨城県水戸市常磐町2-3-37", "P29_006": "4", "P29_007": "0", "P29_008": "00", "P29_009": null }, "geometry": { "type": "Point", "coordinates": [ 140.458338001593972, 36.377907001745122 ] } },
{ "type": "Feature", "properties": { "P29_001": "08201", "P29_002": "H108320100069", "P29_003": "16016", "P29_004": "水戸経理専門学校", "P29_005": "茨城県水戸市浜田2-11-18", "P29_006": "4", "P29_007": "0", "P29_008": "00", "P29_009": null }, "geometry": { "type": "Point", "coordinates": [ 140.501662997766061, 36.366981001424563 ] } },
{ "type": "Feature", "properties": { "P29_001": "08201", "P29_002": "H108320100078", "P29_003": "16016", "P29_004": "茨城音楽専門学校", "P29_005": "茨城県水戸市住吉町269-3", "P29_006": "4", "P29_007": "0", "P29_008": "00", "P29_009": null }, "geometry": { "type": "Point", "coordinates": [ 140.468798900204376, 36.32972659615335 ] } },
{ "type": "Feature", "properties": { "P29_001": "08201", "P29_002": "H108320100087", "P29_003": "16016", "P29_004": "リリーこども＆スポーツ専門学校", "P29_005": "茨城県水戸市梅香2-1-44", "P29_006": "4", "P29_007": "0", "P29_008": "00", "P29_009": null }, "geometry": { "type": "Point", "coordinates": [ 140.468127352442139, 36.375293875254968 ] } },
{ "type": "Feature", "properties": { "P29_001": "08201", "P29_002": "H108320100096", "P29_003": "16016", "P29_004": "水戸日建工科専門学校", "P29_005": "茨城県水戸市城東3-5-10", "P29_006": "4", "P29_007": "0", "P29_008": "00", "P29_009": null }, "geometry": { "type": "Point", "coordinates": [ 140.500158691919495, 36.372114501009541 ] } },
{ "type": "Feature", "properties": { "P29_001": "08201", "P29_002": "H108320100103", "P29_003": "16016", "P29_004": "水戸電子専門学校", "P29_005": "茨城県水戸市浜田2-11-20", "P29_006": "4", "P29_007": "0", "P29_008": "00", "P29_009": null }, "geometry": { "type": "Point", "coordinates": [ 140.501796002725513, 36.366695002617774 ] } },
{ "type": "Feature", "properties": { "P29_001": "08201", "P29_002": "H108320100112", "P29_003": "16016", "P29_004": "水戸市医師会看護専門学院", "P29_005": "茨城県水戸市河和田町107-2", "P29_006": "4", "P29_007": "0", "P29_008": "00", "P29_009": null }, "geometry": { "type": "Point", "coordinates": [ 140.425896020152521, 36.365333527108575 ] } },
{ "type": "Feature", "properties": { "P29_001": "08201", "P29_002": "H108320100121", "P29_003": "16016", "P29_004": "専門学校水戸自動車大学校", "P29_005": "茨城県水戸市浜田2-14-22", "P29_006": "4", "P29_007": "0", "P29_008": "00", "P29_009": null }, "geometry": { "type": "Point", "coordinates": [ 140.502051952964763, 36.365323081523279 ] } },
{ "type": "Feature", "properties": { "P29_001": "08201", "P29_002": "H108320100130", "P29_003": "16016", "P29_004": "専門学校水戸ビューティカレッジ", "P29_005": "茨城県水戸市浜田2-14-14", "P29_006": "4", "P29_007": "0", "P29_008": "00", "P29_009": null }, "geometry": { "type": "Point", "coordinates": [ 140.501449002365916, 36.365928648623715 ] } },
{ "type": "Feature", "properties": { "P29_001": "08201", "P29_002": "H108320100149", "P29_003": "16016", "P29_004": "医療専門学校水戸メディカルカレッジ", "P29_005": "茨城県水戸市東原3-2-5", "P29_006": "4", "P29_007": "0", "P29_008": "00", "P29_009": null }, "geometry": { "type": "Point", "coordinates": [ 140.448745730165911, 36.386162086001335 ] } },
{ "type": "Feature", "properties": { "P29_001": "08201", "P29_002": "H108320100158", "P29_003": "16016", "P29_004": "水戸看護福祉専門学校", "P29_005": "茨城県水戸市浜田町2-16-12", "P29_006": "4", "P29_007": "0", "P29_008": "00", "P29_009": null }, "geometry": { "type": "Point", "coordinates": [ 140.501994003345033, 36.364467995478527 ] } },
{ "type": "Feature", "properties": { "P29_001": "08201", "P29_002": "H108320100167", "P29_003": "16016", "P29_004": "学校法人大原学園大原簿記情報公務員専門学校水戸校", "P29_005": "茨城県水戸市宮町1-9-18", "P29_006": "4", "P29_007": "0", "P29_008": "00", "P29_009": null }, "geometry": { "type": "Point", "coordinates": [ 140.479679162469608, 36.370041905785307 ] } },
{ "type": "Feature", "properties": { "P29_001": "08201", "P29_002": "H108320100176", "P29_003": "16016", "P29_004": "学校法人大原学園大原医療ホテル観光専門学校水戸校", "P29_005": "茨城県水戸市宮町1-9-18", "P29_006": "4", "P29_007": "0", "P29_008": "00", "P29_009": null }, "geometry": { "type": "Point", "coordinates": [ 140.479653823571454, 36.370049358918848 ] } },
{ "type": "Feature", "properties": { "P29_001": "08201", "P29_002": "H108320100185", "P29_003": "16016", "P29_004": "専修学校河合塾水戸校", "P29_005": "茨城県水戸市宮町1-2-22", "P29_006": "4", "P29_007": "0", "P29_008": "00", "P29_009": null }, "geometry": { "type": "Point", "coordinates": [ 140.478387868169193, 36.371386777763526 ] } },
{ "type": "Feature", "properties": { "P29_001": "08201", "P29_002": "H108320100194", "P29_003": "16016", "P29_004": "駿優国際医療ビジネス専門学校", "P29_005": "茨城県水戸市三の丸2-5-36", "P29_006": "4", "P29_007": "0", "P29_008": "00", "P29_009": null }, "geometry": { "type": "Point", "coordinates": [ 140.477348635077732, 36.373016958317905 ] } },
{ "type": "Feature", "properties": { "P29_001": "08201", "P29_002": "H108320100201", "P29_003": "16016", "P29_004": "日本農業実践学園", "P29_005": "茨城県水戸市内原町1496", "P29_006": "4", "P29_007": "0", "P29_008": "00", "P29_009": null }, "geometry": { "type": "Point", "coordinates": [ 140.365613782572865, 36.36194419754608 ] } },
{ "type": "Feature", "properties": { "P29_001": "08201", "P29_002": "H108320100210", "P29_003": "16016", "P29_004": "鯉淵学園農業栄養専門学校", "P29_005": "茨城県水戸市鯉淵町5965", "P29_006": "4", "P29_007": "0", "P29_008": "00", "P29_009": null }, "geometry": { "type": "Point", "coordinates": [ 140.344514209352241, 36.332530218127197 ] } },
{ "type": "Feature", "properties": { "P29_001": "08201", "P29_002": "H108320100229", "P29_003": "16016", "P29_004": "いばらき中央福祉専門学校", "P29_005": "茨城県水戸市鯉淵町2222-2", "P29_006": "4", "P29_007": "0", "P29_008": "00", "P29_009": null }, "geometry": { "type": "Point", "coordinates": [ 140.36905652906421, 36.356668367294851 ] } },
{ "type": "Feature", "properties": { "P29_001": "08201", "P29_002": "H108320100238", "P29_003": "16016", "P29_004": "アジア動物ペットスタイリスト専門学校", "P29_005": "茨城県水戸市白梅2-5-3", "P29_006": "4", "P29_007": "0", "P29_008": "00", "P29_009": null }, "geometry": { "type": "Point", "coordinates": [ 140.477087185019599, 36.364538827166783 ] } },
{ "type": "Feature", "properties": { "P29_001": "08202", "P29_002": "H108320200013", "P29_003": "16016", "P29_004": "白土ドレスメーカー専門学校", "P29_005": "茨城県日立市平和町1-1-6", "P29_006": "4", "P29_007": "0", "P29_008": "00", "P29_009": null }, "geometry": { "type": "Point", "coordinates": [ 140.661159138157728, 36.592740002372871 ] } },
{ "type": "Feature", "properties": { "P29_001": "08202", "P29_002": "H108320200022", "P29_003": "16016", "P29_004": "日立高等技芸専門学校", "P29_005": "茨城県日立市若葉町1-17-9", "P29_006": "4", "P29_007": "0", "P29_008": "00", "P29_009": null }, "geometry": { "type": "Point", "coordinates": [ 140.655339541310411, 36.595467421221855 ] } },
{ "type": "Feature", "properties": { "P29_001": "08202", "P29_002": "H108320200031", "P29_003": "16016", "P29_004": "日立工業専修学校", "P29_005": "茨城県日立市西成沢町2-17-1", "P29_006": "4", "P29_007": "0", "P29_008": "00", "P29_009": null }, "geometry": { "type": "Point", "coordinates": [ 140.630456299286379, 36.576686626116221 ] } },
{ "type": "Feature", "properties": { "P29_001": "08202", "P29_002": "H108320200040", "P29_003": "16016", "P29_004": "日立メディカルセンター看護専門学校", "P29_005": "茨城県日立市高鈴町1-4-10", "P29_006": "4", "P29_007": "0", "P29_008": "00", "P29_009": null }, "geometry": { "type": "Point", "coordinates": [ 140.648251421686325, 36.599615431066816 ] } },
{ "type": "Feature", "properties": { "P29_001": "08203", "P29_002": "H108320300012", "P29_003": "16016", "P29_004": "筑波保育医療専門学校", "P29_005": "茨城県土浦市東崎町8-5", "P29_006": "4", "P29_007": "0", "P29_008": "00", "P29_009": null }, "geometry": { "type": "Point", "coordinates": [ 140.207451658962214, 36.083719486222925 ] } },
{ "type": "Feature", "properties": { "P29_001": "08203", "P29_002": "H108320300021", "P29_003": "16016", "P29_004": "竹岸食肉専門学校", "P29_005": "茨城県土浦市大字中猫内710-2", "P29_006": "4", "P29_007": "0", "P29_008": "00", "P29_009": null }, "geometry": { "type": "Point", "coordinates": [ 140.178548001840653, 36.049559001639324 ] } },
{ "type": "Feature", "properties": { "P29_001": "08203", "P29_002": "H108320300049", "P29_003": "16016", "P29_004": "筑波研究学園専門学校", "P29_005": "茨城県土浦市上高津1601", "P29_006": "4", "P29_007": "0", "P29_008": "00", "P29_009": null }, "geometry": { "type": "Point", "coordinates": [ 140.167482405647434, 36.069602295352226 ] } },
{ "type": "Feature", "properties": { "P29_001": "08203", "P29_002": "H108320300058", "P29_003": "16016", "P29_004": "土浦協同病院附属看護専門学校", "P29_005": "茨城県土浦市おおつ野2-2-10", "P29_006": "4", "P29_007": "0", "P29_008": "00", "P29_009": null }, "geometry": { "type": "Point", "coordinates": [ 140.257395158128872, 36.085964647864031 ] } },
{ "type": "Feature", "properties": { "P29_001": "08203", "P29_002": "H108320300067", "P29_003": "16016", "P29_004": "アール医療福祉専門学校", "P29_005": "茨城県土浦市湖北2-10-35", "P29_006": "4", "P29_007": "0", "P29_008": "00", "P29_009": null }, "geometry": { "type": "Point", "coordinates": [ 140.212552175712574, 36.084891553555295 ] } },
{ "type": "Feature", "properties": { "P29_001": "08203", "P29_002": "H108320300076", "P29_003": "16016", "P29_004": "学校法人桜水会土浦看護専門学校", "P29_005": "茨城県土浦市滝田1-7-3", "P29_006": "4", "P29_007": "0", "P29_008": "00", "P29_009": null }, "geometry": { "type": "Point", "coordinates": [ 140.216353697673071, 36.069649174745855 ] } },
{ "type": "Feature", "properties": { "P29_001": "08203", "P29_002": "H108320300085", "P29_003": "16016", "P29_004": "ＡＯＩ国際福祉専門学校", "P29_005": "茨城県土浦市荒川沖西1-1-21", "P29_006": "4", "P29_007": "0", "P29_008": "00", "P29_009": null }, "geometry": { "type": "Point", "coordinates": [ 140.164781000705318, 36.031614996698003 ] } },
{ "type": "Feature", "properties": { "P29_001": "08203", "P29_002": "H108320300094", "P29_003": "16016", "P29_004": "東日本情報専門学校", "P29_005": "茨城県土浦市小松1-21-1", "P29_006": "4", "P29_007": "0", "P29_008": "00", "P29_009": null }, "geometry": { "type": "Point", "coordinates": [ 140.20943650330085, 36.066211299923815 ] } },
{ "type": "Feature", "properties": { "P29_001": "08203", "P29_002": "H108320300101", "P29_003": "16016", "P29_004": "つくばアジア福祉専門学校", "P29_005": "茨城県土浦市東真鍋町20-16", "P29_006": "4", "P29_007": "0", "P29_008": "00", "P29_009": null }, "geometry": { "type": "Point", "coordinates": [ 140.206883589427719, 36.097039449957826 ] } },
{ "type": "Feature", "properties": { "P29_001": "08203", "P29_002": "H108320300110", "P29_003": "16016", "P29_004": "いばらきどうぶつ専門学校", "P29_005": "茨城県土浦市小松3-3-8", "P29_006": "4", "P29_007": "0", "P29_008": "00", "P29_009": null }, "geometry": { "type": "Point", "coordinates": [ 140.201061222241918, 36.068219279489398 ] } },
{ "type": "Feature", "properties": { "P29_001": "08204", "P29_002": "H108320400011", "P29_003": "16016", "P29_004": "晃陽看護栄養専門学校", "P29_005": "茨城県古河市東1-5-26", "P29_006": "4", "P29_007": "0", "P29_008": "00", "P29_009": null }, "geometry": { "type": "Point", "coordinates": [ 139.711724427765375, 36.196648097432714 ] } },
{ "type": "Feature", "properties": { "P29_001": "08204", "P29_002": "H108320400020", "P29_003": "16016", "P29_004": "盈科美容専門学校", "P29_005": "茨城県古河市旭町2-11-6", "P29_006": "4", "P29_007": "0", "P29_008": "00", "P29_009": null }, "geometry": { "type": "Point", "coordinates": [ 139.724158374671731, 36.198611391014225 ] } },
{ "type": "Feature", "properties": { "P29_001": "08204", "P29_002": "H108320400039", "P29_003": "16016", "P29_004": "専門学校ＥＩＫＡ　Ｉｎｔｅｒｎａｔｉｏｎａｌ　Ｃｏｌｌｅｇｅ", "P29_005": "茨城県古河市旭町2-11-6", "P29_006": "4", "P29_007": "0", "P29_008": "00", "P29_009": null }, "geometry": { "type": "Point", "coordinates": [ 139.724164180976857, 36.198771075469573 ] } },
{ "type": "Feature", "properties": { "P29_001": "08204", "P29_002": "H108320400048", "P29_003": "16016", "P29_004": "古河テクノビジネス専門学校", "P29_005": "茨城県古河市中央町1-10-10", "P29_006": "4", "P29_007": "0", "P29_008": "00", "P29_009": null }, "geometry": { "type": "Point", "coordinates": [ 139.704835004973148, 36.196023999339701 ] } },
{ "type": "Feature", "properties": { "P29_001": "08205", "P29_002": "H108320500010", "P29_003": "16016", "P29_004": "茨城理容美容専門学校", "P29_005": "茨城県石岡市府中1-2-13", "P29_006": "4", "P29_007": "0", "P29_008": "00", "P29_009": null }, "geometry": { "type": "Point", "coordinates": [ 140.276551310104253, 36.19145231486673 ] } },
{ "type": "Feature", "properties": { "P29_001": "08205", "P29_002": "H108320500029", "P29_003": "16016", "P29_004": "アジア動物専門学校", "P29_005": "茨城県石岡市貝地2-8-38", "P29_006": "4", "P29_007": "0", "P29_008": "00", "P29_009": null }, "geometry": { "type": "Point", "coordinates": [ 140.282263237054764, 36.183921214066245 ] } },
{ "type": "Feature", "properties": { "P29_001": "08205", "P29_002": "H108320500038", "P29_003": "16016", "P29_004": "アジア動物看護理学療法専門学校", "P29_005": "茨城県石岡市貝地2-1-29", "P29_006": "4", "P29_007": "0", "P29_008": "00", "P29_009": null }, "geometry": { "type": "Point", "coordinates": [ 140.281922174063681, 36.186687692879048 ] } },
{ "type": "Feature", "properties": { "P29_001": "08207", "P29_002": "H108320700018", "P29_003": "16016", "P29_004": "茨城県結城看護専門学校", "P29_005": "茨城県結城市結城1211-7", "P29_006": "4", "P29_007": "0", "P29_008": "00", "P29_009": null }, "geometry": { "type": "Point", "coordinates": [ 139.880274002921084, 36.304077996825136 ] } },
{ "type": "Feature", "properties": { "P29_001": "08211", "P29_002": "H108321100012", "P29_003": "16016", "P29_004": "茨城県きぬ看護専門学校", "P29_005": "茨城県常総市水海道橋本町新堀南3173-15", "P29_006": "4", "P29_007": "0", "P29_008": "00", "P29_009": null }, "geometry": { "type": "Point", "coordinates": [ 139.998768997759129, 36.026022000918168 ] } },
{ "type": "Feature", "properties": { "P29_001": "08217", "P29_002": "H108321700016", "P29_003": "16016", "P29_004": "やよいファッション専修学校", "P29_005": "茨城県取手市取手1-11-10", "P29_006": "4", "P29_007": "0", "P29_008": "00", "P29_009": null }, "geometry": { "type": "Point", "coordinates": [ 140.06571093115727, 35.890693876808164 ] } },
{ "type": "Feature", "properties": { "P29_001": "08217", "P29_002": "H108321700025", "P29_003": "16016", "P29_004": "学校法人朝日学園成田国際航空専門学校", "P29_005": "茨城県取手市取手西野1842", "P29_006": "4", "P29_007": "0", "P29_008": "00", "P29_009": null }, "geometry": { "type": "Point", "coordinates": [ 140.072140665843392, 35.880219870926013 ] } },
{ "type": "Feature", "properties": { "P29_001": "08217", "P29_002": "H108321700034", "P29_003": "16016", "P29_004": "東海学院文化教養専門学校", "P29_005": "茨城県取手市井野台1-22-14", "P29_006": "4", "P29_007": "0", "P29_008": "00", "P29_009": null }, "geometry": { "type": "Point", "coordinates": [ 140.069618801699477, 35.901694301549547 ] } },
{ "type": "Feature", "properties": { "P29_001": "08217", "P29_002": "H108321700043", "P29_003": "16016", "P29_004": "取手歯科衛生専門学校", "P29_005": "茨城県取手市台宿2-3136-8", "P29_006": "4", "P29_007": "0", "P29_008": "00", "P29_009": null }, "geometry": { "type": "Point", "coordinates": [ 140.067678672335092, 35.899064289085452 ] } },
{ "type": "Feature", "properties": { "P29_001": "08217", "P29_002": "H108321700052", "P29_003": "16016", "P29_004": "専門学校能達工科カレッジ", "P29_005": "茨城県取手市寺田5237-9", "P29_006": "4", "P29_007": "0", "P29_008": "00", "P29_009": null }, "geometry": { "type": "Point", "coordinates": [ 140.052773783832919, 35.91254637319043 ] } },
{ "type": "Feature", "properties": { "P29_001": "08219", "P29_002": "H108321900014", "P29_003": "16016", "P29_004": "つくば栄養医療調理製菓専門学校", "P29_005": "茨城県牛久市ひたち野東1-14-8", "P29_006": "4", "P29_007": "0", "P29_008": "00", "P29_009": null }, "geometry": { "type": "Point", "coordinates": [ 140.161883013888513, 36.01024670487493 ] } },
{ "type": "Feature", "properties": { "P29_001": "08220", "P29_002": "H108322000011", "P29_003": "16016", "P29_004": "筑波学園看護専門学校", "P29_005": "茨城県つくば市上横場2573-201", "P29_006": "4", "P29_007": "0", "P29_008": "00", "P29_009": null }, "geometry": { "type": "Point", "coordinates": [ 140.098991149107889, 36.038530108631846 ] } },
{ "type": "Feature", "properties": { "P29_001": "08220", "P29_002": "H108322000020", "P29_003": "16016", "P29_004": "つくばビジネスカレッジ専門学校", "P29_005": "茨城県つくば市桜2-14-4", "P29_006": "4", "P29_007": "0", "P29_008": "00", "P29_009": null }, "geometry": { "type": "Point", "coordinates": [ 140.110058995471718, 36.110974000742175 ] } },
{ "type": "Feature", "properties": { "P29_001": "08220", "P29_002": "H108322000039", "P29_003": "16016", "P29_004": "筑波医療福祉専門学校", "P29_005": "茨城県つくば市小野崎字清水頭303-6", "P29_006": "4", "P29_007": "0", "P29_008": "00", "P29_009": null }, "geometry": { "type": "Point", "coordinates": [ 140.105454794010171, 36.075423306601017 ] } },
{ "type": "Feature", "properties": { "P29_001": "08220", "P29_002": "H108322000048", "P29_003": "16016", "P29_004": "専門学校つくば自動車大学校", "P29_005": "茨城県つくば市柴崎624-5", "P29_006": "4", "P29_007": "0", "P29_008": "00", "P29_009": null }, "geometry": { "type": "Point", "coordinates": [ 140.118594636149425, 36.102201100974092 ] } },
{ "type": "Feature", "properties": { "P29_001": "08220", "P29_002": "H108322000057", "P29_003": "16016", "P29_004": "つくば国際ペット専門学校", "P29_005": "茨城県つくば市沼田字川戸578", "P29_006": "4", "P29_007": "0", "P29_008": "00", "P29_009": null }, "geometry": { "type": "Point", "coordinates": [ 140.075579995711308, 36.204541003317793 ] } },
{ "type": "Feature", "properties": { "P29_001": "08225", "P29_002": "H108322500016", "P29_003": "16016", "P29_004": "茨城北西看護専門学校", "P29_005": "茨城県常陸大宮市下村田字堂山2304-4", "P29_006": "4", "P29_007": "0", "P29_008": "00", "P29_009": null }, "geometry": { "type": "Point", "coordinates": [ 140.417279001237262, 36.519221000110214 ] } },
{ "type": "Feature", "properties": { "P29_001": "08227", "P29_002": "H108322700014", "P29_003": "16016", "P29_004": "細谷高等専修学校", "P29_005": "茨城県筑西市乙288", "P29_006": "4", "P29_007": "0", "P29_008": "00", "P29_009": null }, "geometry": { "type": "Point", "coordinates": [ 139.972674365810519, 36.309819051739147 ] } },
{ "type": "Feature", "properties": { "P29_001": "08227", "P29_002": "H108322700023", "P29_003": "16016", "P29_004": "つくば歯科福祉専門学校", "P29_005": "茨城県筑西市茂田1858-9", "P29_006": "4", "P29_007": "0", "P29_008": "00", "P29_009": null }, "geometry": { "type": "Point", "coordinates": [ 140.019767612922465, 36.295226234637582 ] } },
{ "type": "Feature", "properties": { "P29_001": "08229", "P29_002": "H108322900012", "P29_003": "16016", "P29_004": "宮本看護専門学校", "P29_005": "茨城県稲敷市幸田924-3", "P29_006": "4", "P29_007": "0", "P29_008": "00", "P29_009": null }, "geometry": { "type": "Point", "coordinates": [ 140.385521285546446, 35.941515448031204 ] } },
{ "type": "Feature", "properties": { "P29_001": "08232", "P29_002": "H108323200017", "P29_003": "16016", "P29_004": "白十字看護専門学校", "P29_005": "茨城県神栖市賀2149-5", "P29_006": "4", "P29_007": "0", "P29_008": "00", "P29_009": null }, "geometry": { "type": "Point", "coordinates": [ 140.624325820446899, 35.901499306430914 ] } },
{ "type": "Feature", "properties": { "P29_001": "08443", "P29_002": "H108344300012", "P29_003": "16016", "P29_004": "東京医科大学霞ヶ浦看護専門学校", "P29_005": "茨城県稲敷郡阿見町中央3-18-3", "P29_006": "4", "P29_007": "0", "P29_008": "00", "P29_009": null }, "geometry": { "type": "Point", "coordinates": [ 140.218056618622768, 36.03487560231266 ] } },
{ "type": "Feature", "properties": { "P29_001": "08564", "P29_002": "H108356400015", "P29_003": "16016", "P29_004": "日本グローバルビジネス専門学校", "P29_005": "茨城県北相馬郡利根町布川3081-2", "P29_006": "4", "P29_007": "0", "P29_008": "00", "P29_009": null }, "geometry": { "type": "Point", "coordinates": [ 140.143958001576976, 35.855329997171104 ] } }
]
}
