{
"type": "FeatureCollection",
"name": "geo_08_訪問入浴介護",
"crs": { "type": "name", "properties": { "name": "urn:ogc:def:crs:OGC:1.3:CRS84" } },
"features": [
{ "type": "Feature", "properties": { "内容": "ウエルシア介護サービス水戸【訪問入浴介護】水戸市百合が丘町8番3", "url": "https://www.kaigokensaku.mhlw.go.jp/08/index.php?action_kouhyou_detail_004_kani=true&JigyosyoCd=0870100278-00&ServiceCd=120&Type=search", "url2": "https://www.welcia-kaigo.co.jp/" }, "geometry": { "type": "Point", "coordinates": [ 140.5040024, 36.3428755 ] } },
{ "type": "Feature", "properties": { "内容": "アースサポート水戸【訪問入浴介護】茨城県水戸市赤塚1丁目376番地の1", "url": "https://www.kaigokensaku.mhlw.go.jp/08/index.php?action_kouhyou_detail_004_kani=true&JigyosyoCd=0870102894-00&ServiceCd=120&Type=search", "url2": "https://www.earthsupport.co.jp" }, "geometry": { "type": "Point", "coordinates": [ 140.416947700000037, 36.3828218 ] } },
{ "type": "Feature", "properties": { "内容": "ツクイ水戸【訪問入浴介護】茨城県水戸市五軒町3-3-45", "url": "https://www.kaigokensaku.mhlw.go.jp/08/index.php?action_kouhyou_detail_004_kani=true&JigyosyoCd=0870101987-00&ServiceCd=120&Type=search", "url2": "https://www.tsukui.net/" }, "geometry": { "type": "Point", "coordinates": [ 140.4616991, 36.3838426 ] } },
{ "type": "Feature", "properties": { "内容": "ウエルシア介護サービス日立大みか【訪問入浴介護】茨城県日立市大みか町3-25-1", "url": "https://www.kaigokensaku.mhlw.go.jp/08/index.php?action_kouhyou_detail_004_kani=true&JigyosyoCd=0870202694-00&ServiceCd=120&Type=search", "url2": "https://www.welcia-kaigo.co.jp/" }, "geometry": { "type": "Point", "coordinates": [ 140.6306094, 36.5117477 ] } },
{ "type": "Feature", "properties": { "内容": "ウエルシア介護サービス日立北【訪問入浴介護】茨城県日立市川尻町６丁目46-20グラヴィティ101号室", "url": "https://www.kaigokensaku.mhlw.go.jp/08/index.php?action_kouhyou_detail_004_kani=true&JigyosyoCd=0870202827-00&ServiceCd=120&Type=search", "url2": "https://www.welcia-kaigo.co.jp" }, "geometry": { "type": "Point", "coordinates": [ 140.6896002, 36.6681464 ] } },
{ "type": "Feature", "properties": { "内容": "ニチイケアセンター日立【訪問入浴介護】茨城県日立市助川町2-6-22", "url": "https://www.kaigokensaku.mhlw.go.jp/08/index.php?action_kouhyou_detail_004_kani=true&JigyosyoCd=0870200094-00&ServiceCd=120&Type=search", "url2": "http://www.nichiigakkan.co.jｐ" }, "geometry": { "type": "Point", "coordinates": [ 140.648045, 36.5930879 ] } },
{ "type": "Feature", "properties": { "内容": "アースサポート日立【訪問入浴介護】茨城県日立市桜川町1丁目1番13号", "url": "https://www.kaigokensaku.mhlw.go.jp/08/index.php?action_kouhyou_detail_004_kani=true&JigyosyoCd=0870201381-00&ServiceCd=120&Type=search", "url2": "https://www.earthsupport.co.jp/" }, "geometry": { "type": "Point", "coordinates": [ 140.628337399999964, 36.5571694 ] } },
{ "type": "Feature", "properties": { "内容": "日立介護ステーション【訪問入浴介護】茨城県日立市会瀬町2-21-11", "url": "https://www.kaigokensaku.mhlw.go.jp/08/index.php?action_kouhyou_detail_004_kani=true&JigyosyoCd=0870200011-00&ServiceCd=120&Type=search", "url2": "https://www.h-l-h.jp" }, "geometry": { "type": "Point", "coordinates": [ 140.648902378814853, 36.578881838201966 ] } },
{ "type": "Feature", "properties": { "内容": "アースサポート土浦【訪問入浴介護】茨城県土浦市荒川沖321番1", "url": "https://www.kaigokensaku.mhlw.go.jp/08/index.php?action_kouhyou_detail_004_kani=true&JigyosyoCd=0870301736-00&ServiceCd=120&Type=search", "url2": "https://www.earthsupport.co.jp/" }, "geometry": { "type": "Point", "coordinates": [ 140.161153900000045, 36.0294854 ] } },
{ "type": "Feature", "properties": { "内容": "アスケア訪問入浴　土浦【訪問入浴介護】茨城県土浦市荒川沖西２ー１－１さらさ荒川沖テナント1階003号室", "url": "https://www.kaigokensaku.mhlw.go.jp/08/index.php?action_kouhyou_detail_004_kani=true&JigyosyoCd=0870303146-00&ServiceCd=120&Type=search", "url2": "https://www.as-care.co.jp/" }, "geometry": { "type": "Point", "coordinates": [ 140.164939083612637, 36.030923228941198 ] } },
{ "type": "Feature", "properties": { "内容": "ニチイケアセンター古河【訪問入浴介護】茨城県古河市古河643-1", "url": "https://www.kaigokensaku.mhlw.go.jp/08/index.php?action_kouhyou_detail_004_kani=true&JigyosyoCd=0870400132-00&ServiceCd=120&Type=search", "url2": "http://www.nichiigakkan.co.jp" }, "geometry": { "type": "Point", "coordinates": [ 139.71486219999997, 36.1900864 ] } },
{ "type": "Feature", "properties": { "内容": "てるます【訪問入浴介護】茨城県古河市関戸1630-8", "url": "https://www.kaigokensaku.mhlw.go.jp/08/index.php?action_kouhyou_detail_004_kani=true&JigyosyoCd=0870401106-00&ServiceCd=120&Type=search", "url2": "https://www.spiritlink-terumasu.com" }, "geometry": { "type": "Point", "coordinates": [ 139.752867135195856, 36.192098810891046 ] } },
{ "type": "Feature", "properties": { "内容": "ウエルシア介護サービス石岡【訪問入浴介護】茨城県石岡市石岡2280-2", "url": "https://www.kaigokensaku.mhlw.go.jp/08/index.php?action_kouhyou_detail_004_kani=true&JigyosyoCd=0870500139-00&ServiceCd=120&Type=search", "url2": "https://www.welcia-kaigo.co.jp" }, "geometry": { "type": "Point", "coordinates": [ 140.285572499999944, 36.2018833 ] } },
{ "type": "Feature", "properties": { "内容": "アースサポート石岡【訪問入浴介護】茨城県石岡市石岡１丁目１０番地７", "url": "https://www.kaigokensaku.mhlw.go.jp/08/index.php?action_kouhyou_detail_004_kani=true&JigyosyoCd=0870500873-00&ServiceCd=120&Type=search", "url2": "https://www.earthsupport.co.jp/" }, "geometry": { "type": "Point", "coordinates": [ 140.282078700000056, 36.1910425 ] } },
{ "type": "Feature", "properties": { "内容": "北茨城市社協介護センター「のぞみ」【訪問入浴介護】茨城県北茨城市華川町臼場187-74", "url": "https://www.kaigokensaku.mhlw.go.jp/08/index.php?action_kouhyou_detail_004_kani=true&JigyosyoCd=0871500047-00&ServiceCd=120&Type=search", "url2": "http//www.kitaibas-syakyo.jp" }, "geometry": { "type": "Point", "coordinates": [ 140.7457691, 36.7890975 ] } },
{ "type": "Feature", "properties": { "内容": "笠間市社会福祉協議会訪問入浴介護事業所【訪問入浴介護】茨城県笠間市笠間４３６４－２", "url": "https://www.kaigokensaku.mhlw.go.jp/08/index.php?action_kouhyou_detail_004_kani=true&JigyosyoCd=0871600409-00&ServiceCd=120&Type=search", "url2": "http://www.kasama-syakyou.jp/" }, "geometry": { "type": "Point", "coordinates": [ 140.249836137998727, 36.375013894245882 ] } },
{ "type": "Feature", "properties": { "内容": "ウエルシア介護サービス友部【訪問入浴介護】茨城県笠間市東平2丁目10-3", "url": "https://www.kaigokensaku.mhlw.go.jp/08/index.php?action_kouhyou_detail_004_kani=true&JigyosyoCd=0871601019-00&ServiceCd=120&Type=search", "url2": "https://www.welcia-kaigo.co.jp/" }, "geometry": { "type": "Point", "coordinates": [ 140.3021242, 36.3481582 ] } },
{ "type": "Feature", "properties": { "内容": "セントケア取手訪問入浴センター【訪問入浴介護】茨城県取手市新町3丁目2-8菊地ビルE号室", "url": "https://www.kaigokensaku.mhlw.go.jp/08/index.php?action_kouhyou_detail_004_kani=true&JigyosyoCd=0871700530-00&ServiceCd=120&Type=search", "url2": "http://www.saint-care.com" }, "geometry": { "type": "Point", "coordinates": [ 140.059185501831365, 35.897566680710504 ] } },
{ "type": "Feature", "properties": { "内容": "すわっと【訪問入浴介護】茨城県取手市米ノ井121-2", "url": "https://www.kaigokensaku.mhlw.go.jp/08/index.php?action_kouhyou_detail_004_kani=true&JigyosyoCd=0871700639-00&ServiceCd=120&Type=search", "url2": null }, "geometry": { "type": "Point", "coordinates": [ 140.027958019887166, 35.925415583572743 ] } },
{ "type": "Feature", "properties": { "内容": "アスケア訪問入浴　取手【訪問入浴介護】茨城県取手市新町3-1-21取手新町ビル１階", "url": "https://www.kaigokensaku.mhlw.go.jp/08/index.php?action_kouhyou_detail_004_kani=true&JigyosyoCd=0871700621-00&ServiceCd=120&Type=search", "url2": "https://www.as-care.co.jp/" }, "geometry": { "type": "Point", "coordinates": [ 140.060744133511093, 35.897578777431434 ] } },
{ "type": "Feature", "properties": { "内容": "ニチイケアセンター牛久南【訪問入浴介護】茨城県牛久市南3-20-2", "url": "https://www.kaigokensaku.mhlw.go.jp/08/index.php?action_kouhyou_detail_004_kani=true&JigyosyoCd=0871900676-00&ServiceCd=120&Type=search", "url2": "http://www.nichiigakkan.co.jp" }, "geometry": { "type": "Point", "coordinates": [ 140.150074200000063, 35.9700793 ] } },
{ "type": "Feature", "properties": { "内容": "ウエルシア介護サービス牛久【訪問入浴介護】茨城県牛久市神谷5-1-1", "url": "https://www.kaigokensaku.mhlw.go.jp/08/index.php?action_kouhyou_detail_004_kani=true&JigyosyoCd=0871900130-00&ServiceCd=120&Type=search", "url2": "http://www.twelcia-kaigo.co.jp/" }, "geometry": { "type": "Point", "coordinates": [ 140.155459800000017, 35.9644355 ] } },
{ "type": "Feature", "properties": { "内容": "ウィズ訪問入浴介護事業所【訪問入浴介護】茨城県つくば市大井1728－1", "url": "https://www.kaigokensaku.mhlw.go.jp/08/index.php?action_kouhyou_detail_004_kani=true&JigyosyoCd=0872002274-00&ServiceCd=120&Type=search", "url2": "http://www.with-you.co.jp" }, "geometry": { "type": "Point", "coordinates": [ 140.13601952056996, 36.00840523788473 ] } },
{ "type": "Feature", "properties": { "内容": "ウエルシア介護サービスつくば【訪問入浴介護】茨城県つくば市豊里の杜2丁目1-1", "url": "https://www.kaigokensaku.mhlw.go.jp/08/index.php?action_kouhyou_detail_004_kani=true&JigyosyoCd=0872000450-00&ServiceCd=120&Type=search", "url2": "https://www.welcia-kaigo.co.jp/" }, "geometry": { "type": "Point", "coordinates": [ 140.046602600000028, 36.100658 ] } },
{ "type": "Feature", "properties": { "内容": "アースサポートつくば【訪問入浴介護】茨城県つくば市みどりの1丁目31番地7", "url": "https://www.kaigokensaku.mhlw.go.jp/08/index.php?action_kouhyou_detail_004_kani=true&JigyosyoCd=0872002043-00&ServiceCd=120&Type=search", "url2": "https://www.earthsupport.co.jp/" }, "geometry": { "type": "Point", "coordinates": [ 140.054893099999958, 36.0291693 ] } },
{ "type": "Feature", "properties": { "内容": "医療法人善心会訪問入浴サービスステーションつくば【訪問入浴介護】茨城県つくば市手代木３０２番地２・２階", "url": "https://www.kaigokensaku.mhlw.go.jp/08/index.php?action_kouhyou_detail_004_kani=true&JigyosyoCd=0872002894-00&ServiceCd=120&Type=search", "url2": "https://zenshinkai.jp/" }, "geometry": { "type": "Point", "coordinates": [ -8.24389, 53.41291 ] } },
{ "type": "Feature", "properties": { "内容": "アスケア訪問入浴　つくば【訪問入浴介護】茨城県つくば市島名2298番地(諏訪C12-9)X-STAGE001号室", "url": "https://www.kaigokensaku.mhlw.go.jp/08/index.php?action_kouhyou_detail_004_kani=true&JigyosyoCd=0872002951-00&ServiceCd=120&Type=search", "url2": "https://www.as-care.co.jp/" }, "geometry": { "type": "Point", "coordinates": [ 140.0588021, 36.057844700000011 ] } },
{ "type": "Feature", "properties": { "内容": "訪問入浴ほのぼの【訪問入浴介護】茨城県ひたちなか市元町1-5", "url": "https://www.kaigokensaku.mhlw.go.jp/08/index.php?action_kouhyou_detail_004_kani=true&JigyosyoCd=0872102439-00&ServiceCd=120&Type=search", "url2": null }, "geometry": { "type": "Point", "coordinates": [ 140.524970661867542, 36.395898538358793 ] } },
{ "type": "Feature", "properties": { "内容": "ニチイケアセンターひたちなか【訪問入浴介護】茨城県ひたちなか市東石川2-6-10", "url": "https://www.kaigokensaku.mhlw.go.jp/08/index.php?action_kouhyou_detail_004_kani=true&JigyosyoCd=0872100144-00&ServiceCd=120&Type=search", "url2": "http://www.nichiigakkan.co.jp" }, "geometry": { "type": "Point", "coordinates": [ 140.536973100000068, 36.3956511 ] } },
{ "type": "Feature", "properties": { "内容": "アースサポートひたちなか【訪問入浴介護】茨城県ひたちなか市東石川2丁目1番13号", "url": "https://www.kaigokensaku.mhlw.go.jp/08/index.php?action_kouhyou_detail_004_kani=true&JigyosyoCd=0872101399-00&ServiceCd=120&Type=search", "url2": "https://www.earthsupport.co.jp/" }, "geometry": { "type": "Point", "coordinates": [ 140.5329653, 36.3951483 ] } },
{ "type": "Feature", "properties": { "内容": "ひたちなか介護ステ－ション【訪問入浴介護】茨城県ひたちなか市東石川三丁目28-10", "url": "https://www.kaigokensaku.mhlw.go.jp/08/index.php?action_kouhyou_detail_004_kani=true&JigyosyoCd=0872100342-00&ServiceCd=120&Type=search", "url2": "https://www.h-l-h.jp" }, "geometry": { "type": "Point", "coordinates": [ 140.534182739317316, 36.389130219848965 ] } },
{ "type": "Feature", "properties": { "内容": "ウエルシア介護サービスひたちなか【訪問入浴介護】中根3361-1", "url": "https://www.kaigokensaku.mhlw.go.jp/08/index.php?action_kouhyou_detail_004_kani=true&JigyosyoCd=0872102629-00&ServiceCd=120&Type=search", "url2": "https://www.welcia-kaigo.co.jp/" }, "geometry": { "type": "Point", "coordinates": [ 140.553587599999986, 36.3957729 ] } },
{ "type": "Feature", "properties": { "内容": "ニチイケアセンター　鹿嶋【訪問入浴介護】茨城県鹿嶋市鉢形台2-1-3三廣ビル2階", "url": "https://www.kaigokensaku.mhlw.go.jp/08/index.php?action_kouhyou_detail_004_kani=true&JigyosyoCd=0872200084-00&ServiceCd=120&Type=search", "url2": "http://www.nichiigakkan.co.jp" }, "geometry": { "type": "Point", "coordinates": [ 140.646771, 35.9620368 ] } },
{ "type": "Feature", "properties": { "内容": "ウエルシア介護サービス鹿嶋【訪問入浴介護】茨城県鹿嶋市宮中字東山289-1", "url": "https://www.kaigokensaku.mhlw.go.jp/08/index.php?action_kouhyou_detail_004_kani=true&JigyosyoCd=0872200456-00&ServiceCd=120&Type=search", "url2": "https://www.welcia-kaigo.co.jp" }, "geometry": { "type": "Point", "coordinates": [ 140.642802500000016, 35.9627497 ] } },
{ "type": "Feature", "properties": { "内容": "ごぜんやま訪問入浴サービスセンター【訪問入浴介護】茨城県常陸大宮市野口平146-1", "url": "https://www.kaigokensaku.mhlw.go.jp/08/index.php?action_kouhyou_detail_004_kani=true&JigyosyoCd=0873100853-00&ServiceCd=120&Type=search", "url2": "http://www.hakuyukai-sfg.com/" }, "geometry": { "type": "Point", "coordinates": [ 140.3383384, 36.5581032 ] } },
{ "type": "Feature", "properties": { "内容": "ウエルシア介護サービス那珂【訪問入浴介護】茨城県那珂市竹ノ内3-7-3", "url": "https://www.kaigokensaku.mhlw.go.jp/08/index.php?action_kouhyou_detail_004_kani=true&JigyosyoCd=0872600127-00&ServiceCd=120&Type=search", "url2": "https://www.welcia-kaigo.co.jp/" }, "geometry": { "type": "Point", "coordinates": [ 140.50196649999998, 36.4475593 ] } },
{ "type": "Feature", "properties": { "内容": "ウエルシア介護サービス下館【訪問入浴介護】茨城県筑西市下野殿795-1", "url": "https://www.kaigokensaku.mhlw.go.jp/08/index.php?action_kouhyou_detail_004_kani=true&JigyosyoCd=0870600236-00&ServiceCd=120&Type=search", "url2": "https://www.welcia-kaigo.co.jp/" }, "geometry": { "type": "Point", "coordinates": [ 139.971593599999977, 36.270172 ] } },
{ "type": "Feature", "properties": { "内容": "こころ訪問入浴介護サービス【訪問入浴介護】茨城県神栖市日川字石塚4419番", "url": "https://www.kaigokensaku.mhlw.go.jp/08/index.php?action_kouhyou_detail_004_kani=true&JigyosyoCd=0875200792-00&ServiceCd=120&Type=search", "url2": null }, "geometry": { "type": "Point", "coordinates": [ 140.699546, 35.8596991 ] } },
{ "type": "Feature", "properties": { "内容": "ウエルシア介護サービス鉾田【訪問入浴介護】茨城県鉾田市新鉾田2-11-1", "url": "https://www.kaigokensaku.mhlw.go.jp/08/index.php?action_kouhyou_detail_004_kani=true&JigyosyoCd=0875400301-00&ServiceCd=120&Type=search", "url2": "https://www.welcia-kaigo.co.jp/" }, "geometry": { "type": "Point", "coordinates": [ 140.5220294, 36.155938 ] } }
]
}
