{
"type": "FeatureCollection",
"name": "geo_08_介護老人福祉施設",
"crs": { "type": "name", "properties": { "name": "urn:ogc:def:crs:OGC:1.3:CRS84" } },
"features": [
{ "type": "Feature", "properties": { "内容": "特別養護老人ホーム　フォレストヴィラ水戸【介護老人福祉施設】茨城県水戸市全隈町1256-7", "url2": "https://www.kaigokensaku.mhlw.go.jp/08/index.php?action_kouhyou_detail_004_kani=true&JigyosyoCd=0870100294-00&ServiceCd=510&Type=search" }, "geometry": { "type": "Point", "coordinates": [ 140.387796900000012, 36.4211669 ] } },
{ "type": "Feature", "properties": { "内容": "ケアステーション藤が原【介護老人福祉施設】茨城県水戸市藤井町1117-1488", "url2": "https://www.kaigokensaku.mhlw.go.jp/08/index.php?action_kouhyou_detail_004_kani=true&JigyosyoCd=0870104130-00&ServiceCd=510&Type=search" }, "geometry": { "type": "Point", "coordinates": [ 140.3874379, 36.4581435 ] } },
{ "type": "Feature", "properties": { "内容": "特別養護老人ホームアクティブハートさかど【介護老人福祉施設】茨城県水戸市酒門町字西割４３９０番", "url2": "https://www.kaigokensaku.mhlw.go.jp/08/index.php?action_kouhyou_detail_004_kani=true&JigyosyoCd=0870101128-00&ServiceCd=510&Type=search" }, "geometry": { "type": "Point", "coordinates": [ 140.4718666, 36.3298517 ] } },
{ "type": "Feature", "properties": { "内容": "特別養護老人ホーム　はぎの郷【介護老人福祉施設】茨城県水戸市酒門町2946-3", "url2": "https://www.kaigokensaku.mhlw.go.jp/08/index.php?action_kouhyou_detail_004_kani=true&JigyosyoCd=0870103553-00&ServiceCd=510&Type=search" }, "geometry": { "type": "Point", "coordinates": [ 140.497658, 36.34112 ] } },
{ "type": "Feature", "properties": { "内容": "特別養護老人ホームアクティブハートさかど【介護老人福祉施設】茨城県水戸市酒門町字西割４３９０番", "url2": "https://www.kaigokensaku.mhlw.go.jp/08/index.php?action_kouhyou_detail_004_kani=true&JigyosyoCd=0870105038-00&ServiceCd=510&Type=search" }, "geometry": { "type": "Point", "coordinates": [ 140.471933300000046, 36.3297406 ] } },
{ "type": "Feature", "properties": { "内容": "社会福祉法人尚生会　介護老人福祉施設グリーンハウスみと【介護老人福祉施設】茨城県水戸市塩崎町3503", "url2": "https://www.kaigokensaku.mhlw.go.jp/08/index.php?action_kouhyou_detail_004_kani=true&JigyosyoCd=0870101656-00&ServiceCd=510&Type=search" }, "geometry": { "type": "Point", "coordinates": [ 140.552381299999979, 36.3377609 ] } },
{ "type": "Feature", "properties": { "内容": "特別養護老人ホーム　祐功の館【介護老人福祉施設】茨城県水戸市飯島町1308番1", "url2": "https://www.kaigokensaku.mhlw.go.jp/08/index.php?action_kouhyou_detail_004_kani=true&JigyosyoCd=0870105301-00&ServiceCd=510&Type=search" }, "geometry": { "type": "Point", "coordinates": [ 140.39076652009885, 36.366683824475331 ] } },
{ "type": "Feature", "properties": { "内容": "特別養護老人ホーム欅倶楽部【介護老人福祉施設】茨城県水戸市酒門町3158", "url2": "https://www.kaigokensaku.mhlw.go.jp/08/index.php?action_kouhyou_detail_004_kani=true&JigyosyoCd=0870105848-00&ServiceCd=510&Type=search" }, "geometry": { "type": "Point", "coordinates": [ 140.486632149598677, 36.340569469420977 ] } },
{ "type": "Feature", "properties": { "内容": "みと東部特別養護老人ホーム【介護老人福祉施設】茨城県水戸市酒門町1177-3", "url2": "https://www.kaigokensaku.mhlw.go.jp/08/index.php?action_kouhyou_detail_004_kani=true&JigyosyoCd=0870106275-00&ServiceCd=510&Type=search" }, "geometry": { "type": "Point", "coordinates": [ 140.4851036, 36.3410454 ] } },
{ "type": "Feature", "properties": { "内容": "みと東部特別養護老人ホーム【介護老人福祉施設】茨城県水戸市酒門町", "url2": "https://www.kaigokensaku.mhlw.go.jp/08/index.php?action_kouhyou_detail_004_kani=true&JigyosyoCd=0870106283-00&ServiceCd=510&Type=search" }, "geometry": { "type": "Point", "coordinates": [ 140.4851036, 36.3410454 ] } },
{ "type": "Feature", "properties": { "内容": "特別養護老人ホーム渡里すずらん苑【介護老人福祉施設】茨城県水戸市堀町字北ノ前95⁻1", "url2": "https://www.kaigokensaku.mhlw.go.jp/08/index.php?action_kouhyou_detail_004_kani=true&JigyosyoCd=0870107174-00&ServiceCd=510&Type=search" }, "geometry": { "type": "Point", "coordinates": [ 140.416775058531414, 36.409658669187245 ] } },
{ "type": "Feature", "properties": { "内容": "特別養護老人ホーム渡里すずらん苑クローバー館【介護老人福祉施設】茨城県水戸市堀町字北ノ前９５－１", "url2": "https://www.kaigokensaku.mhlw.go.jp/08/index.php?action_kouhyou_detail_004_kani=true&JigyosyoCd=0870107182-00&ServiceCd=510&Type=search" }, "geometry": { "type": "Point", "coordinates": [ 140.416878854573781, 36.409600050962709 ] } },
{ "type": "Feature", "properties": { "内容": "介護老人福祉施設　ユーアイの家【介護老人福祉施設】茨城県水戸市吉沼町1839-1", "url2": "https://www.kaigokensaku.mhlw.go.jp/08/index.php?action_kouhyou_detail_004_kani=true&JigyosyoCd=0870102449-00&ServiceCd=510&Type=search" }, "geometry": { "type": "Point", "coordinates": [ 140.5184146, 36.3629433 ] } },
{ "type": "Feature", "properties": { "内容": "双葉陽だまり館【介護老人福祉施設】茨城県水戸市開江町７番地", "url2": "https://www.kaigokensaku.mhlw.go.jp/08/index.php?action_kouhyou_detail_004_kani=true&JigyosyoCd=0870105533-00&ServiceCd=510&Type=search" }, "geometry": { "type": "Point", "coordinates": [ 140.390377467531238, 36.395033965631491 ] } },
{ "type": "Feature", "properties": { "内容": "特別養護老人ホームかたくりの郷【介護老人福祉施設】茨城県水戸市大塚町1763-12", "url2": "https://www.kaigokensaku.mhlw.go.jp/08/index.php?action_kouhyou_detail_004_kani=true&JigyosyoCd=0870106085-00&ServiceCd=510&Type=search" }, "geometry": { "type": "Point", "coordinates": [ 140.392172029732478, 36.389517589859757 ] } },
{ "type": "Feature", "properties": { "内容": "特別養護老人ホーム愛友園【介護老人福祉施設】茨城県水戸市緑町３－９－３５", "url2": "https://www.kaigokensaku.mhlw.go.jp/08/index.php?action_kouhyou_detail_004_kani=true&JigyosyoCd=0870100393-00&ServiceCd=510&Type=search" }, "geometry": { "type": "Point", "coordinates": [ 140.443448699999976, 36.3829971 ] } },
{ "type": "Feature", "properties": { "内容": "特別養護老人ホーム　もみじ館【介護老人福祉施設】茨城県水戸市鯉淵町2222-1", "url2": "https://www.kaigokensaku.mhlw.go.jp/08/index.php?action_kouhyou_detail_004_kani=true&JigyosyoCd=0873100390-00&ServiceCd=510&Type=search" }, "geometry": { "type": "Point", "coordinates": [ 140.3685892, 36.3568759 ] } },
{ "type": "Feature", "properties": { "内容": "特別養護老人ホームライフピア河和田【介護老人福祉施設】水戸市河和田町4126-201", "url2": "https://www.kaigokensaku.mhlw.go.jp/08/index.php?action_kouhyou_detail_004_kani=true&JigyosyoCd=0870100476-00&ServiceCd=510&Type=search" }, "geometry": { "type": "Point", "coordinates": [ 140.4043719, 36.3543031 ] } },
{ "type": "Feature", "properties": { "内容": "特別養護老人ホーム　ライフピア青柳【介護老人福祉施設】茨城県水戸市青柳町3796", "url2": "https://www.kaigokensaku.mhlw.go.jp/08/index.php?action_kouhyou_detail_004_kani=true&JigyosyoCd=0870100328-00&ServiceCd=510&Type=search" }, "geometry": { "type": "Point", "coordinates": [ 140.477884099999983, 36.3984414 ] } },
{ "type": "Feature", "properties": { "内容": "特別養護老人ホーム　桜川陽だまり館【介護老人福祉施設】茨城県水戸市河和田町58番地", "url2": "https://www.kaigokensaku.mhlw.go.jp/08/index.php?action_kouhyou_detail_004_kani=true&JigyosyoCd=0870103058-00&ServiceCd=510&Type=search" }, "geometry": { "type": "Point", "coordinates": [ 140.4273373, 36.3672725 ] } },
{ "type": "Feature", "properties": { "内容": "特別養護老人ホームもくせい【介護老人福祉施設】茨城県水戸市東原3丁目2-7", "url2": "https://www.kaigokensaku.mhlw.go.jp/08/index.php?action_kouhyou_detail_004_kani=true&JigyosyoCd=0870103330-00&ServiceCd=510&Type=search" }, "geometry": { "type": "Point", "coordinates": [ 140.4473499, 36.3863006 ] } },
{ "type": "Feature", "properties": { "内容": "特別養護老人ホーム　あいおんの里水戸【介護老人福祉施設】茨城県水戸市河和田町4422-1", "url2": "https://www.kaigokensaku.mhlw.go.jp/08/index.php?action_kouhyou_detail_004_kani=true&JigyosyoCd=0870106689-00&ServiceCd=510&Type=search" }, "geometry": { "type": "Point", "coordinates": [ 140.399024115869139, 36.360190989502712 ] } },
{ "type": "Feature", "properties": { "内容": "特別養護老人ホームかさはら【介護老人福祉施設】茨城県水戸市笠原町75-3", "url2": "https://www.kaigokensaku.mhlw.go.jp/08/index.php?action_kouhyou_detail_004_kani=true&JigyosyoCd=0870105152-00&ServiceCd=510&Type=search" }, "geometry": { "type": "Point", "coordinates": [ 140.4489065, 36.3405415 ] } },
{ "type": "Feature", "properties": { "内容": "介護老人福祉施設長生園【介護老人福祉施設】茨城県水戸市堀町1185", "url2": "https://www.kaigokensaku.mhlw.go.jp/08/index.php?action_kouhyou_detail_004_kani=true&JigyosyoCd=0870101953-00&ServiceCd=510&Type=search" }, "geometry": { "type": "Point", "coordinates": [ 140.428330374868807, 36.400157505214352 ] } },
{ "type": "Feature", "properties": { "内容": "特別養護老人ホーム東野の家【介護老人福祉施設】茨城県水戸市東野町２１５－１", "url2": "https://www.kaigokensaku.mhlw.go.jp/08/index.php?action_kouhyou_detail_004_kani=true&JigyosyoCd=0870102795-00&ServiceCd=510&Type=search" }, "geometry": { "type": "Point", "coordinates": [ 140.451952300000016, 36.3227496 ] } },
{ "type": "Feature", "properties": { "内容": "指定介護老人福祉施設　ケアステーション梅寿園【介護老人福祉施設】茨城県水戸市見川町1820－10", "url2": "https://www.kaigokensaku.mhlw.go.jp/08/index.php?action_kouhyou_detail_004_kani=true&JigyosyoCd=0870100377-00&ServiceCd=510&Type=search" }, "geometry": { "type": "Point", "coordinates": [ 140.43453028993531, 36.355736794456085 ] } },
{ "type": "Feature", "properties": { "内容": "ケアステーション梅寿園【介護老人福祉施設】茨城県水戸市見川町1820-10", "url2": "https://www.kaigokensaku.mhlw.go.jp/08/index.php?action_kouhyou_detail_004_kani=true&JigyosyoCd=0870105814-00&ServiceCd=510&Type=search" }, "geometry": { "type": "Point", "coordinates": [ 140.434570900000011, 36.3556946 ] } },
{ "type": "Feature", "properties": { "内容": "社会福祉法人　聖愛会　特別養護老人ホーム石名坂聖孝園【介護老人福祉施設】茨城県日立市石名坂町2-16-1", "url2": "https://www.kaigokensaku.mhlw.go.jp/08/index.php?action_kouhyou_detail_004_kani=true&JigyosyoCd=0870202520-00&ServiceCd=510&Type=search" }, "geometry": { "type": "Point", "coordinates": [ 140.5976886, 36.5153594 ] } },
{ "type": "Feature", "properties": { "内容": "特別養護老人ホーム　銀砂台【介護老人福祉施設】茨城県日立市砂沢町字尾ノ作1155番地の1", "url2": "https://www.kaigokensaku.mhlw.go.jp/08/index.php?action_kouhyou_detail_004_kani=true&JigyosyoCd=0870200128-00&ServiceCd=510&Type=search" }, "geometry": { "type": "Point", "coordinates": [ 140.673995900000023, 36.6563227 ] } },
{ "type": "Feature", "properties": { "内容": "特別養護老人ホーム　成華園【介護老人福祉施設】茨城県日立市久慈町4-19-21", "url2": "https://www.kaigokensaku.mhlw.go.jp/08/index.php?action_kouhyou_detail_004_kani=true&JigyosyoCd=0870200524-00&ServiceCd=510&Type=search" }, "geometry": { "type": "Point", "coordinates": [ 140.610056500000013, 36.4900586 ] } },
{ "type": "Feature", "properties": { "内容": "特別養護老人ホーム　鮎川さくら館【介護老人福祉施設】茨城県日立市国分町三丁目12番10号", "url2": "https://www.kaigokensaku.mhlw.go.jp/08/index.php?action_kouhyou_detail_004_kani=true&JigyosyoCd=0870200870-00&ServiceCd=510&Type=search" }, "geometry": { "type": "Point", "coordinates": [ 140.649529600000051, 36.5670299 ] } },
{ "type": "Feature", "properties": { "内容": "特別養護老人ホーム　山水苑【介護老人福祉施設】日立市下深萩町１７７０", "url2": "https://www.kaigokensaku.mhlw.go.jp/08/index.php?action_kouhyou_detail_004_kani=true&JigyosyoCd=0870201142-00&ServiceCd=510&Type=search" }, "geometry": { "type": "Point", "coordinates": [ 140.541938571121875, 36.632003059350389 ] } },
{ "type": "Feature", "properties": { "内容": "特別養護老人ホーム小咲園【介護老人福祉施設】茨城県日立市諏訪町５丁目５番１号", "url2": "https://www.kaigokensaku.mhlw.go.jp/08/index.php?action_kouhyou_detail_004_kani=true&JigyosyoCd=0870200219-00&ServiceCd=510&Type=search" }, "geometry": { "type": "Point", "coordinates": [ 140.6196538, 36.5665839 ] } },
{ "type": "Feature", "properties": { "内容": "特別養護老人ホームＭＡＯ【介護老人福祉施設】茨城県日立市下土木内町字荻町545-1", "url2": "https://www.kaigokensaku.mhlw.go.jp/08/index.php?action_kouhyou_detail_004_kani=true&JigyosyoCd=0870200540-00&ServiceCd=510&Type=search" }, "geometry": { "type": "Point", "coordinates": [ 140.579857622845481, 36.496972067373619 ] } },
{ "type": "Feature", "properties": { "内容": "特別養護老人ホーム金沢弁天園【介護老人福祉施設】茨城県日立市東金沢町4-16-10", "url2": "https://www.kaigokensaku.mhlw.go.jp/08/index.php?action_kouhyou_detail_004_kani=true&JigyosyoCd=0870200995-00&ServiceCd=510&Type=search" }, "geometry": { "type": "Point", "coordinates": [ 140.6284019, 36.5396775 ] } },
{ "type": "Feature", "properties": { "内容": "特別養護老人ホーム　一想園【介護老人福祉施設】茨城県日立市田尻町2-8-10", "url2": "https://www.kaigokensaku.mhlw.go.jp/08/index.php?action_kouhyou_detail_004_kani=true&JigyosyoCd=0870201423-00&ServiceCd=510&Type=search" }, "geometry": { "type": "Point", "coordinates": [ 140.666880600000013, 36.6336197 ] } },
{ "type": "Feature", "properties": { "内容": "特別養護老人ホーム　サン豊浦【介護老人福祉施設】茨城県日立市川尻町字稲荷作７５８－２７", "url2": "https://www.kaigokensaku.mhlw.go.jp/08/index.php?action_kouhyou_detail_004_kani=true&JigyosyoCd=0870200110-00&ServiceCd=510&Type=search" }, "geometry": { "type": "Point", "coordinates": [ 140.689541339425659, 36.660206348717118 ] } },
{ "type": "Feature", "properties": { "内容": "特別養護老人ホーム　福祉の森　聖孝園【介護老人福祉施設】茨城県日立市十王町高原333-6", "url2": "https://www.kaigokensaku.mhlw.go.jp/08/index.php?action_kouhyou_detail_004_kani=true&JigyosyoCd=0873500060-00&ServiceCd=510&Type=search" }, "geometry": { "type": "Point", "coordinates": [ 140.623836, 36.6733636 ] } },
{ "type": "Feature", "properties": { "内容": "特別養護老人ホーム　ひたちの森すこやかビレッジ【介護老人福祉施設】茨城県日立市東滑川町５－１０－３", "url2": "https://www.kaigokensaku.mhlw.go.jp/08/index.php?action_kouhyou_detail_004_kani=true&JigyosyoCd=0870201316-00&ServiceCd=510&Type=search" }, "geometry": { "type": "Point", "coordinates": [ 140.68068310000001, 36.6163912 ] } },
{ "type": "Feature", "properties": { "内容": "日立市萬春園【介護老人福祉施設】茨城県日立市鮎川町3-2-10", "url2": "https://www.kaigokensaku.mhlw.go.jp/08/index.php?action_kouhyou_detail_004_kani=true&JigyosyoCd=0870200102-00&ServiceCd=510&Type=search" }, "geometry": { "type": "Point", "coordinates": [ 140.639344110728388, 36.564587664529128 ] } },
{ "type": "Feature", "properties": { "内容": "特別養護老人ホーム　シルトピア【介護老人福祉施設】土浦市本郷１６７９－１", "url2": "https://www.kaigokensaku.mhlw.go.jp/08/index.php?action_kouhyou_detail_004_kani=true&JigyosyoCd=0873900088-00&ServiceCd=510&Type=search" }, "geometry": { "type": "Point", "coordinates": [ 140.173078799999985, 36.1565294 ] } },
{ "type": "Feature", "properties": { "内容": "特別養護老人ホーム土浦晴山苑【介護老人福祉施設】茨城県土浦市田村町２３２１-５", "url2": "https://www.kaigokensaku.mhlw.go.jp/08/index.php?action_kouhyou_detail_004_kani=true&JigyosyoCd=0870301207-00&ServiceCd=510&Type=search" }, "geometry": { "type": "Point", "coordinates": [ 140.25264889999994, 36.0923574 ] } },
{ "type": "Feature", "properties": { "内容": "特別養護老人ホーム　シルトピア【介護老人福祉施設】茨城県土浦市本郷１６７９－１", "url2": "https://www.kaigokensaku.mhlw.go.jp/08/index.php?action_kouhyou_detail_004_kani=true&JigyosyoCd=0870302346-00&ServiceCd=510&Type=search" }, "geometry": { "type": "Point", "coordinates": [ 140.173078799999985, 36.1565294 ] } },
{ "type": "Feature", "properties": { "内容": "特別養護老人ホーム　飛羽ノ園【介護老人福祉施設】茨城県土浦市小松三丁目１８番１８号", "url2": "https://www.kaigokensaku.mhlw.go.jp/08/index.php?action_kouhyou_detail_004_kani=true&JigyosyoCd=0870300241-00&ServiceCd=510&Type=search" }, "geometry": { "type": "Point", "coordinates": [ 140.202133799999956, 36.0648962 ] } },
{ "type": "Feature", "properties": { "内容": "特別養護老人ホーム　　やすらぎの園【介護老人福祉施設】茨城県土浦市小岩田西二丁目1番49号", "url2": "https://www.kaigokensaku.mhlw.go.jp/08/index.php?action_kouhyou_detail_004_kani=true&JigyosyoCd=0870300779-00&ServiceCd=510&Type=search" }, "geometry": { "type": "Point", "coordinates": [ 140.189004800000021, 36.0607685 ] } },
{ "type": "Feature", "properties": { "内容": "特別養護老人ホームこほく【介護老人福祉施設】茨城県土浦市菅谷町タカノス1168-1", "url2": "https://www.kaigokensaku.mhlw.go.jp/08/index.php?action_kouhyou_detail_004_kani=true&JigyosyoCd=0870302387-00&ServiceCd=510&Type=search" }, "geometry": { "type": "Point", "coordinates": [ 140.274713900000052, 36.0971844 ] } },
{ "type": "Feature", "properties": { "内容": "特別養護老人ホーム　なごみ【介護老人福祉施設】茨城県土浦市右籾644-1", "url2": "https://www.kaigokensaku.mhlw.go.jp/08/index.php?action_kouhyou_detail_004_kani=true&JigyosyoCd=0870301363-00&ServiceCd=510&Type=search" }, "geometry": { "type": "Point", "coordinates": [ 140.183385700000031, 36.0505918 ] } },
{ "type": "Feature", "properties": { "内容": "特別養護老人ホーム憩いの里【介護老人福祉施設】土浦市高岡2315", "url2": "https://www.kaigokensaku.mhlw.go.jp/08/index.php?action_kouhyou_detail_004_kani=true&JigyosyoCd=0873900765-00&ServiceCd=510&Type=search" }, "geometry": { "type": "Point", "coordinates": [ 140.15358470000001, 36.1302062 ] } },
{ "type": "Feature", "properties": { "内容": "特別養護老人ホーム　もりの家【介護老人福祉施設】土浦市北荒川沖町８番１号", "url2": "https://www.kaigokensaku.mhlw.go.jp/08/index.php?action_kouhyou_detail_004_kani=true&JigyosyoCd=0870300290-00&ServiceCd=510&Type=search" }, "geometry": { "type": "Point", "coordinates": [ 140.1669478, 36.0369124 ] } },
{ "type": "Feature", "properties": { "内容": "特別養護老人ホーム滝の園【介護老人福祉施設】茨城県土浦市宍塚1935番地", "url2": "https://www.kaigokensaku.mhlw.go.jp/08/index.php?action_kouhyou_detail_004_kani=true&JigyosyoCd=0870300217-00&ServiceCd=510&Type=search" }, "geometry": { "type": "Point", "coordinates": [ 140.170946800000024, 36.0825869 ] } },
{ "type": "Feature", "properties": { "内容": "特別養護老人ホーム　滝田【介護老人福祉施設】茨城県土浦市滝田１丁目10-2", "url2": "https://www.kaigokensaku.mhlw.go.jp/08/index.php?action_kouhyou_detail_004_kani=true&JigyosyoCd=0870302874-00&ServiceCd=510&Type=search" }, "geometry": { "type": "Point", "coordinates": [ 140.215735, 36.068645 ] } },
{ "type": "Feature", "properties": { "内容": "特別養護老人ホーム　はなのえん【介護老人福祉施設】茨城県土浦市粟野町1852-1", "url2": "https://www.kaigokensaku.mhlw.go.jp/08/index.php?action_kouhyou_detail_004_kani=true&JigyosyoCd=0870301017-00&ServiceCd=510&Type=search" }, "geometry": { "type": "Point", "coordinates": [ 140.198614600000013, 36.1403222 ] } },
{ "type": "Feature", "properties": { "内容": "特別養護老人ホーム　静霞園【介護老人福祉施設】茨城県土浦市東若松町3379番地", "url2": "https://www.kaigokensaku.mhlw.go.jp/08/index.php?action_kouhyou_detail_004_kani=true&JigyosyoCd=0870300209-00&ServiceCd=510&Type=search" }, "geometry": { "type": "Point", "coordinates": [ 140.2093979, 36.1082959 ] } },
{ "type": "Feature", "properties": { "内容": "特別養護老人ホーム　希望の森【介護老人福祉施設】茨城県古河市上大野1889-1", "url2": "https://www.kaigokensaku.mhlw.go.jp/08/index.php?action_kouhyou_detail_004_kani=true&JigyosyoCd=0870400892-00&ServiceCd=510&Type=search" }, "geometry": { "type": "Point", "coordinates": [ 139.7842614, 36.2223539 ] } },
{ "type": "Feature", "properties": { "内容": "特別養護老人ホーム愛和苑【介護老人福祉施設】古河市駒羽根320-1", "url2": "https://www.kaigokensaku.mhlw.go.jp/08/index.php?action_kouhyou_detail_004_kani=true&JigyosyoCd=0874300817-00&ServiceCd=510&Type=search" }, "geometry": { "type": "Point", "coordinates": [ 139.7512213, 36.1730088 ] } },
{ "type": "Feature", "properties": { "内容": "特別養護老人ホーム　秋明館【介護老人福祉施設】茨城県古河市諸川２５３０－４", "url2": "https://www.kaigokensaku.mhlw.go.jp/08/index.php?action_kouhyou_detail_004_kani=true&JigyosyoCd=0874300742-00&ServiceCd=510&Type=search" }, "geometry": { "type": "Point", "coordinates": [ 139.8164649, 36.2046568 ] } },
{ "type": "Feature", "properties": { "内容": "特別養護老人ホーム　愛光園【介護老人福祉施設】茨城県古河市新久田２５０－４", "url2": "https://www.kaigokensaku.mhlw.go.jp/08/index.php?action_kouhyou_detail_004_kani=true&JigyosyoCd=0870400041-00&ServiceCd=510&Type=search" }, "geometry": { "type": "Point", "coordinates": [ 139.70197840000003, 36.1694411 ] } },
{ "type": "Feature", "properties": { "内容": "特別養護老人ホーム　愛光園【介護老人福祉施設】茨城県古河市新久田250-4", "url2": "https://www.kaigokensaku.mhlw.go.jp/08/index.php?action_kouhyou_detail_004_kani=true&JigyosyoCd=0870401163-00&ServiceCd=510&Type=search" }, "geometry": { "type": "Point", "coordinates": [ 139.70197840000003, 36.1694411 ] } },
{ "type": "Feature", "properties": { "内容": "特別養護老人ホーム　四季の郷【介護老人福祉施設】茨城県古河市東間中橋198", "url2": "https://www.kaigokensaku.mhlw.go.jp/08/index.php?action_kouhyou_detail_004_kani=true&JigyosyoCd=0870401262-00&ServiceCd=510&Type=search" }, "geometry": { "type": "Point", "coordinates": [ 139.863610450540165, 36.194444693586185 ] } },
{ "type": "Feature", "properties": { "内容": "特別養護老人ホーム　わたらせ【介護老人福祉施設】茨城県古河市大山字西野507番5", "url2": "https://www.kaigokensaku.mhlw.go.jp/08/index.php?action_kouhyou_detail_004_kani=true&JigyosyoCd=0870400207-00&ServiceCd=510&Type=search" }, "geometry": { "type": "Point", "coordinates": [ 139.714984, 36.147116 ] } },
{ "type": "Feature", "properties": { "内容": "特別養護老人ホームみどりの里【介護老人福祉施設】茨城県古河市東山田4796-2", "url2": "https://www.kaigokensaku.mhlw.go.jp/08/index.php?action_kouhyou_detail_004_kani=true&JigyosyoCd=0870401148-00&ServiceCd=510&Type=search" }, "geometry": { "type": "Point", "coordinates": [ 139.831216700000027, 36.1597244 ] } },
{ "type": "Feature", "properties": { "内容": "特別養護老人ホーム　白英荘【介護老人福祉施設】茨城県古河市小堤１７９６－２", "url2": "https://www.kaigokensaku.mhlw.go.jp/08/index.php?action_kouhyou_detail_004_kani=true&JigyosyoCd=0870401205-00&ServiceCd=510&Type=search" }, "geometry": { "type": "Point", "coordinates": [ 139.7638902, 36.2021594 ] } },
{ "type": "Feature", "properties": { "内容": "特別養護老人ホームみどりの丘【介護老人福祉施設】茨城県古河市尾崎4608-1", "url2": "https://www.kaigokensaku.mhlw.go.jp/08/index.php?action_kouhyou_detail_004_kani=true&JigyosyoCd=0870401551-00&ServiceCd=510&Type=search" }, "geometry": { "type": "Point", "coordinates": [ 139.838597299999947, 36.2193013 ] } },
{ "type": "Feature", "properties": { "内容": "特別養護老人ホーム　白英荘【介護老人福祉施設】茨城県古河市小堤１７９６－２", "url2": "https://www.kaigokensaku.mhlw.go.jp/08/index.php?action_kouhyou_detail_004_kani=true&JigyosyoCd=0874300122-00&ServiceCd=510&Type=search" }, "geometry": { "type": "Point", "coordinates": [ 139.763836099999907, 36.2022807 ] } },
{ "type": "Feature", "properties": { "内容": "特別養護老人ホームみどりの里【介護老人福祉施設】茨城県古河市東山田4796-2", "url2": "https://www.kaigokensaku.mhlw.go.jp/08/index.php?action_kouhyou_detail_004_kani=true&JigyosyoCd=0874300205-00&ServiceCd=510&Type=search" }, "geometry": { "type": "Point", "coordinates": [ 139.831205599999947, 36.1597328 ] } },
{ "type": "Feature", "properties": { "内容": "特別養護老人ホーム　ゆりの里【介護老人福祉施設】茨城県石岡市東石岡3-17-38", "url2": "https://www.kaigokensaku.mhlw.go.jp/08/index.php?action_kouhyou_detail_004_kani=true&JigyosyoCd=0870501129-00&ServiceCd=510&Type=search" }, "geometry": { "type": "Point", "coordinates": [ 140.29648370000001, 36.1839663 ] } },
{ "type": "Feature", "properties": { "内容": "特別養護老人ホーム明翠苑【介護老人福祉施設】茨城県石岡市半ノ木１１４８１－１", "url2": "https://www.kaigokensaku.mhlw.go.jp/08/index.php?action_kouhyou_detail_004_kani=true&JigyosyoCd=0870500055-00&ServiceCd=510&Type=search" }, "geometry": { "type": "Point", "coordinates": [ 140.271031200000039, 36.2344378 ] } },
{ "type": "Feature", "properties": { "内容": "特別養護老人ホームれもん【介護老人福祉施設】茨城県石岡市下林3346-1", "url2": "https://www.kaigokensaku.mhlw.go.jp/08/index.php?action_kouhyou_detail_004_kani=true&JigyosyoCd=0870500634-00&ServiceCd=510&Type=search" }, "geometry": { "type": "Point", "coordinates": [ 140.243508799999972, 36.2273215 ] } },
{ "type": "Feature", "properties": { "内容": "石岡市特別養護老人ホームのぞみ【介護老人福祉施設】茨城県石岡市大砂１０５２７－６", "url2": "https://www.kaigokensaku.mhlw.go.jp/08/index.php?action_kouhyou_detail_004_kani=true&JigyosyoCd=0870500279-00&ServiceCd=510&Type=search" }, "geometry": { "type": "Point", "coordinates": [ 140.250297001327453, 36.223297014116056 ] } },
{ "type": "Feature", "properties": { "内容": "特別養護老人ホーム　センチュリー石岡【介護老人福祉施設】茨城県石岡市三村字舘塚6286番地１", "url2": "https://www.kaigokensaku.mhlw.go.jp/08/index.php?action_kouhyou_detail_004_kani=true&JigyosyoCd=0870500147-00&ServiceCd=510&Type=search" }, "geometry": { "type": "Point", "coordinates": [ 140.27872739999998, 36.1527992 ] } },
{ "type": "Feature", "properties": { "内容": "特別養護老人ホームようよう【介護老人福祉施設】茨城県石岡市東石岡3-2-19", "url2": "https://www.kaigokensaku.mhlw.go.jp/08/index.php?action_kouhyou_detail_004_kani=true&JigyosyoCd=0870500881-00&ServiceCd=510&Type=search" }, "geometry": { "type": "Point", "coordinates": [ 140.293349395106475, 36.186203555639914 ] } },
{ "type": "Feature", "properties": { "内容": "特別養護老人ホーム談話館【介護老人福祉施設】茨城県石岡市部原７８４番１", "url2": "https://www.kaigokensaku.mhlw.go.jp/08/index.php?action_kouhyou_detail_004_kani=true&JigyosyoCd=0873900674-00&ServiceCd=510&Type=search" }, "geometry": { "type": "Point", "coordinates": [ 140.224000468261664, 36.261824474964925 ] } },
{ "type": "Feature", "properties": { "内容": "特別養護老人ホーム石岡陽だまり館【介護老人福祉施設】茨城県石岡市府中1丁目3番10号特別養護老人ホーム石岡陽だまり館", "url2": "https://www.kaigokensaku.mhlw.go.jp/08/index.php?action_kouhyou_detail_004_kani=true&JigyosyoCd=0870501277-00&ServiceCd=510&Type=search" }, "geometry": { "type": "Point", "coordinates": [ 140.275447500000013, 36.191521 ] } },
{ "type": "Feature", "properties": { "内容": "特別養護老人ホーム　やさと【介護老人福祉施設】茨城県石岡市小倉442-1", "url2": "https://www.kaigokensaku.mhlw.go.jp/08/index.php?action_kouhyou_detail_004_kani=true&JigyosyoCd=0873900179-00&ServiceCd=510&Type=search" }, "geometry": { "type": "Point", "coordinates": [ 140.170209500000055, 36.2402818 ] } },
{ "type": "Feature", "properties": { "内容": "特別養護老人ホームたけだ【介護老人福祉施設】茨城県結城市大字結城字健田12744番地特別養護老人ホームたけだ", "url2": "https://www.kaigokensaku.mhlw.go.jp/08/index.php?action_kouhyou_detail_004_kani=true&JigyosyoCd=0870700747-00&ServiceCd=510&Type=search" }, "geometry": { "type": "Point", "coordinates": [ 139.883440178533306, 36.295573329098097 ] } },
{ "type": "Feature", "properties": { "内容": "特別養護老人ホーム　ヒューマン・ハウス【介護老人福祉施設】茨城県結城市大字結城10767-19", "url2": "https://www.kaigokensaku.mhlw.go.jp/08/index.php?action_kouhyou_detail_004_kani=true&JigyosyoCd=0870700051-00&ServiceCd=510&Type=search" }, "geometry": { "type": "Point", "coordinates": [ 139.850121400000035, 36.3056497 ] } },
{ "type": "Feature", "properties": { "内容": "特別養護老人ホーム　ヒューマン・ハウス【介護老人福祉施設】茨城県結城市大字結城10767番地の19", "url2": "https://www.kaigokensaku.mhlw.go.jp/08/index.php?action_kouhyou_detail_004_kani=true&JigyosyoCd=0870700549-00&ServiceCd=510&Type=search" }, "geometry": { "type": "Point", "coordinates": [ 139.849744502120984, 36.305186290694202 ] } },
{ "type": "Feature", "properties": { "内容": "青嵐荘特別養護老人ホーム【介護老人福祉施設】茨城県結城市七五三場210-1", "url2": "https://www.kaigokensaku.mhlw.go.jp/08/index.php?action_kouhyou_detail_004_kani=true&JigyosyoCd=0870700077-00&ServiceCd=510&Type=search" }, "geometry": { "type": "Point", "coordinates": [ 139.8295359, 36.2037463 ] } },
{ "type": "Feature", "properties": { "内容": "特別養護老人ホーム　やすらぎの里【介護老人福祉施設】茨城県龍ヶ崎市大徳町字古川4965番地の1", "url2": "https://www.kaigokensaku.mhlw.go.jp/08/index.php?action_kouhyou_detail_004_kani=true&JigyosyoCd=0870800067-00&ServiceCd=510&Type=search" }, "geometry": { "type": "Point", "coordinates": [ 140.200904600000058, 35.9021707 ] } },
{ "type": "Feature", "properties": { "内容": "特別養護老人ホーム　龍ケ岡【介護老人福祉施設】茨城県龍ケ崎市中里１－１－１７", "url2": "https://www.kaigokensaku.mhlw.go.jp/08/index.php?action_kouhyou_detail_004_kani=true&JigyosyoCd=0870800349-00&ServiceCd=510&Type=search" }, "geometry": { "type": "Point", "coordinates": [ 140.203027900000052, 35.9345253 ] } },
{ "type": "Feature", "properties": { "内容": "特別養護老人ホーム　やすらぎの里【介護老人福祉施設】茨城県龍ヶ崎市大徳町字古川4965-1", "url2": "https://www.kaigokensaku.mhlw.go.jp/08/index.php?action_kouhyou_detail_004_kani=true&JigyosyoCd=0870800927-00&ServiceCd=510&Type=search" }, "geometry": { "type": "Point", "coordinates": [ 140.200904600000058, 35.9021707 ] } },
{ "type": "Feature", "properties": { "内容": "特別養護老人ホーム　ときわぎ【介護老人福祉施設】茨城県龍ケ崎市若柴町1225", "url2": "https://www.kaigokensaku.mhlw.go.jp/08/index.php?action_kouhyou_detail_004_kani=true&JigyosyoCd=0870800984-00&ServiceCd=510&Type=search" }, "geometry": { "type": "Point", "coordinates": [ 140.148198249737561, 35.931247576890179 ] } },
{ "type": "Feature", "properties": { "内容": "特別養護老人ホーム　竜成園【介護老人福祉施設】龍ヶ崎市半田町１３８８番地", "url2": "https://www.kaigokensaku.mhlw.go.jp/08/index.php?action_kouhyou_detail_004_kani=true&JigyosyoCd=0870800083-00&ServiceCd=510&Type=search" }, "geometry": { "type": "Point", "coordinates": [ 140.2366032, 35.9204027 ] } },
{ "type": "Feature", "properties": { "内容": "特別養護老人ホーム　竜成園【介護老人福祉施設】茨城県龍ヶ崎市半田町1388番地", "url2": "https://www.kaigokensaku.mhlw.go.jp/08/index.php?action_kouhyou_detail_004_kani=true&JigyosyoCd=0870800935-00&ServiceCd=510&Type=search" }, "geometry": { "type": "Point", "coordinates": [ 140.2366032, 35.9204027 ] } },
{ "type": "Feature", "properties": { "内容": "特別養護老人ホームリカステ【介護老人福祉施設】茨城県龍ケ崎市馴馬町3120", "url2": "https://www.kaigokensaku.mhlw.go.jp/08/index.php?action_kouhyou_detail_004_kani=true&JigyosyoCd=0870801255-00&ServiceCd=510&Type=search" }, "geometry": { "type": "Point", "coordinates": [ 140.182319799999959, 35.9148117 ] } },
{ "type": "Feature", "properties": { "内容": "特別養護老人ホーム　ラポールしもつま【介護老人福祉施設】下妻市江1827-1", "url2": "https://www.kaigokensaku.mhlw.go.jp/08/index.php?action_kouhyou_detail_004_kani=true&JigyosyoCd=0871000055-00&ServiceCd=510&Type=search" }, "geometry": { "type": "Point", "coordinates": [ 139.935604799999965, 36.2282531 ] } },
{ "type": "Feature", "properties": { "内容": "特別養護老人ホーム千代川さくら館【介護老人福祉施設】茨城県下妻市五箇５７４番地", "url2": "https://www.kaigokensaku.mhlw.go.jp/08/index.php?action_kouhyou_detail_004_kani=true&JigyosyoCd=0874200363-00&ServiceCd=510&Type=search" }, "geometry": { "type": "Point", "coordinates": [ 139.928505, 36.144048 ] } },
{ "type": "Feature", "properties": { "内容": "特別養護老人ホーム加養の里【介護老人福祉施設】茨城県下妻市加養４９３番地", "url2": "https://www.kaigokensaku.mhlw.go.jp/08/index.php?action_kouhyou_detail_004_kani=true&JigyosyoCd=0871000774-00&ServiceCd=510&Type=search" }, "geometry": { "type": "Point", "coordinates": [ 139.986112, 36.178053 ] } },
{ "type": "Feature", "properties": { "内容": "特別養護老人ホーム　愛宕園【介護老人福祉施設】茨城県下妻市下木戸５４４－１", "url2": "https://www.kaigokensaku.mhlw.go.jp/08/index.php?action_kouhyou_detail_004_kani=true&JigyosyoCd=0871000048-00&ServiceCd=510&Type=search" }, "geometry": { "type": "Point", "coordinates": [ 139.9501077, 36.1929349 ] } },
{ "type": "Feature", "properties": { "内容": "特別養護老人ホーム　愛宕園【介護老人福祉施設】茨城県下妻市下木戸５４４－１", "url2": "https://www.kaigokensaku.mhlw.go.jp/08/index.php?action_kouhyou_detail_004_kani=true&JigyosyoCd=0871000949-00&ServiceCd=510&Type=search" }, "geometry": { "type": "Point", "coordinates": [ 139.9501077, 36.1929349 ] } },
{ "type": "Feature", "properties": { "内容": "特別養護老人ホーム　筑水苑【介護老人福祉施設】茨城県常総市水海道高野町字石橋６７１番地１", "url2": "https://www.kaigokensaku.mhlw.go.jp/08/index.php?action_kouhyou_detail_004_kani=true&JigyosyoCd=0871100236-00&ServiceCd=510&Type=search" }, "geometry": { "type": "Point", "coordinates": [ 139.984538, 36.007489499999984 ] } },
{ "type": "Feature", "properties": { "内容": "特別養護老人ホーム筑波キングス・ガーデン【介護老人福祉施設】茨城県常総市大生郷町1818-2", "url2": "https://www.kaigokensaku.mhlw.go.jp/08/index.php?action_kouhyou_detail_004_kani=true&JigyosyoCd=0871100087-00&ServiceCd=510&Type=search" }, "geometry": { "type": "Point", "coordinates": [ 139.949130100000048, 36.0672322 ] } },
{ "type": "Feature", "properties": { "内容": "特別養護老人ホーム　「里の音」【介護老人福祉施設】茨城県常総市豊岡町丙３０８０－１", "url2": "https://www.kaigokensaku.mhlw.go.jp/08/index.php?action_kouhyou_detail_004_kani=true&JigyosyoCd=0871100384-00&ServiceCd=510&Type=search" }, "geometry": { "type": "Point", "coordinates": [ 139.9690276, 36.0297315 ] } },
{ "type": "Feature", "properties": { "内容": "特別養護老人ホーム　Ｌ・ハーモニー石下【介護老人福祉施設】茨城県常総市原宿１１５５", "url2": "https://www.kaigokensaku.mhlw.go.jp/08/index.php?action_kouhyou_detail_004_kani=true&JigyosyoCd=0871100442-00&ServiceCd=510&Type=search" }, "geometry": { "type": "Point", "coordinates": [ 139.969220700000051, 36.1345912 ] } },
{ "type": "Feature", "properties": { "内容": "特別養護老人ホーム　千の杜【介護老人福祉施設】茨城県常総市菅生町1319番地１", "url2": "https://www.kaigokensaku.mhlw.go.jp/08/index.php?action_kouhyou_detail_004_kani=true&JigyosyoCd=0871180006-00&ServiceCd=510&Type=search" }, "geometry": { "type": "Point", "coordinates": [ 139.931563899999986, 35.9861642 ] } },
{ "type": "Feature", "properties": { "内容": "特別養護老人ホームさくら館【介護老人福祉施設】茨城県常総市馬場2245番地", "url2": "https://www.kaigokensaku.mhlw.go.jp/08/index.php?action_kouhyou_detail_004_kani=true&JigyosyoCd=0874200132-00&ServiceCd=510&Type=search" }, "geometry": { "type": "Point", "coordinates": [ 139.92043240000001, 36.129422200000015 ] } },
{ "type": "Feature", "properties": { "内容": "特別養護老人ホーム　よしの荘【介護老人福祉施設】常総市上蛇町1888-1", "url2": "https://www.kaigokensaku.mhlw.go.jp/08/index.php?action_kouhyou_detail_004_kani=true&JigyosyoCd=0871100079-00&ServiceCd=510&Type=search" }, "geometry": { "type": "Point", "coordinates": [ 140.001316399999951, 36.0736523 ] } },
{ "type": "Feature", "properties": { "内容": "特別養護老人ホーム　よしの荘【介護老人福祉施設】茨城県常総市上蛇町1888-1", "url2": "https://www.kaigokensaku.mhlw.go.jp/08/index.php?action_kouhyou_detail_004_kani=true&JigyosyoCd=0871180014-00&ServiceCd=510&Type=search" }, "geometry": { "type": "Point", "coordinates": [ 140.001138699999956, 36.0735717 ] } },
{ "type": "Feature", "properties": { "内容": "特別養護老人ホーム　藤井ハイム常陸太田【介護老人福祉施設】茨城県常陸太田市新宿町1427番地3", "url2": "https://www.kaigokensaku.mhlw.go.jp/08/index.php?action_kouhyou_detail_004_kani=true&JigyosyoCd=0871200812-00&ServiceCd=510&Type=search" }, "geometry": { "type": "Point", "coordinates": [ 140.511934200000042, 36.546806 ] } },
{ "type": "Feature", "properties": { "内容": "特別養護老人ホーム　世矢の里【介護老人福祉施設】茨城県常陸太田市亀作町481-1", "url2": "https://www.kaigokensaku.mhlw.go.jp/08/index.php?action_kouhyou_detail_004_kani=true&JigyosyoCd=0871200457-00&ServiceCd=510&Type=search" }, "geometry": { "type": "Point", "coordinates": [ 140.567727800000057, 36.5263022 ] } },
{ "type": "Feature", "properties": { "内容": "特別養護老人ホーム　西山苑【介護老人福祉施設】茨城県常陸太田市木崎二町937番地の２", "url2": "https://www.kaigokensaku.mhlw.go.jp/08/index.php?action_kouhyou_detail_004_kani=true&JigyosyoCd=0871200036-00&ServiceCd=510&Type=search" }, "geometry": { "type": "Point", "coordinates": [ 140.5251058, 36.5313722 ] } },
{ "type": "Feature", "properties": { "内容": "特別養護老人ホーム　松栄荘【介護老人福祉施設】茨城県常陸太田市箕町９１１番地の１", "url2": "https://www.kaigokensaku.mhlw.go.jp/08/index.php?action_kouhyou_detail_004_kani=true&JigyosyoCd=0873400154-00&ServiceCd=510&Type=search" }, "geometry": { "type": "Point", "coordinates": [ 140.445039, 36.5614579 ] } },
{ "type": "Feature", "properties": { "内容": "特別養護老人ホーム　誠信園【介護老人福祉施設】茨城県常陸太田市和久町864-1", "url2": "https://www.kaigokensaku.mhlw.go.jp/08/index.php?action_kouhyou_detail_004_kani=true&JigyosyoCd=0873400162-00&ServiceCd=510&Type=search" }, "geometry": { "type": "Point", "coordinates": [ 140.479223499999989, 36.6141303 ] } },
{ "type": "Feature", "properties": { "内容": "特別養護老人ホーム　えみの里【介護老人福祉施設】茨城県常陸太田市徳田町143", "url2": "https://www.kaigokensaku.mhlw.go.jp/08/index.php?action_kouhyou_detail_004_kani=true&JigyosyoCd=0871200317-00&ServiceCd=510&Type=search" }, "geometry": { "type": "Point", "coordinates": [ 140.48294, 36.7732189 ] } },
{ "type": "Feature", "properties": { "内容": "特別養護老人ホーム　高萩聖孝園【介護老人福祉施設】茨城県高萩市大字上手綱2番地", "url2": "https://www.kaigokensaku.mhlw.go.jp/08/index.php?action_kouhyou_detail_004_kani=true&JigyosyoCd=0871400339-00&ServiceCd=510&Type=search" }, "geometry": { "type": "Point", "coordinates": [ 140.703016299999945, 36.7358113 ] } },
{ "type": "Feature", "properties": { "内容": "指定介護老人福祉施設特別養護老人ホーム松籟荘【介護老人福祉施設】茨城県高萩市下手綱１９５１－８", "url2": "https://www.kaigokensaku.mhlw.go.jp/08/index.php?action_kouhyou_detail_004_kani=true&JigyosyoCd=0871400065-00&ServiceCd=510&Type=search" }, "geometry": { "type": "Point", "coordinates": [ 140.691017, 36.7280924 ] } },
{ "type": "Feature", "properties": { "内容": "指定介護老人福祉施設　特別養護老人ホーム　松籟荘【介護老人福祉施設】茨城県高萩市下手綱１９５１－８", "url2": "https://www.kaigokensaku.mhlw.go.jp/08/index.php?action_kouhyou_detail_004_kani=true&JigyosyoCd=0871400479-00&ServiceCd=510&Type=search" }, "geometry": { "type": "Point", "coordinates": [ 140.691017, 36.7280924 ] } },
{ "type": "Feature", "properties": { "内容": "特別養護老人ホーム　エスコート磯原【介護老人福祉施設】茨城県北茨城市華川町車1145-65", "url2": "https://www.kaigokensaku.mhlw.go.jp/08/index.php?action_kouhyou_detail_004_kani=true&JigyosyoCd=0871500351-00&ServiceCd=510&Type=search" }, "geometry": { "type": "Point", "coordinates": [ 140.739701599999989, 36.8182424 ] } },
{ "type": "Feature", "properties": { "内容": "特別養護老人ホーム　ときわの杜【介護老人福祉施設】茨城県北茨城市関本町福田1875-1", "url2": "https://www.kaigokensaku.mhlw.go.jp/08/index.php?action_kouhyou_detail_004_kani=true&JigyosyoCd=0871500039-00&ServiceCd=510&Type=search" }, "geometry": { "type": "Point", "coordinates": [ 140.7603904, 36.8543887 ] } },
{ "type": "Feature", "properties": { "内容": "特別養護老人ホーム　あかねサクラ館【介護老人福祉施設】関本町関本中２５９－６", "url2": "https://www.kaigokensaku.mhlw.go.jp/08/index.php?action_kouhyou_detail_004_kani=true&JigyosyoCd=0871500823-00&ServiceCd=510&Type=search" }, "geometry": { "type": "Point", "coordinates": [ 140.777523494659363, 36.846880625353485 ] } },
{ "type": "Feature", "properties": { "内容": "特別養護老人ホームヴィレッジかさま【介護老人福祉施設】茨城県笠間市下市毛１３０１", "url2": "https://www.kaigokensaku.mhlw.go.jp/08/index.php?action_kouhyou_detail_004_kani=true&JigyosyoCd=0871600144-00&ServiceCd=510&Type=search" }, "geometry": { "type": "Point", "coordinates": [ 140.2461358, 36.3606724 ] } },
{ "type": "Feature", "properties": { "内容": "特別養護老人ホームヴィレッジかさま（ユニット部）【介護老人福祉施設】下市毛1301", "url2": "https://www.kaigokensaku.mhlw.go.jp/08/index.php?action_kouhyou_detail_004_kani=true&JigyosyoCd=0871600714-00&ServiceCd=510&Type=search" }, "geometry": { "type": "Point", "coordinates": [ 140.2461358, 36.3606724 ] } },
{ "type": "Feature", "properties": { "内容": "社会福祉法人　聖桜会　すずらんの里【介護老人福祉施設】茨城県笠間市土師1283-5", "url2": "https://www.kaigokensaku.mhlw.go.jp/08/index.php?action_kouhyou_detail_004_kani=true&JigyosyoCd=0871600680-00&ServiceCd=510&Type=search" }, "geometry": { "type": "Point", "coordinates": [ 140.296971699999972, 36.2994245 ] } },
{ "type": "Feature", "properties": { "内容": "特別養護老人ホーム　笠間陽だまり館【介護老人福祉施設】南友部１９６６番地１３９", "url2": "https://www.kaigokensaku.mhlw.go.jp/08/index.php?action_kouhyou_detail_004_kani=true&JigyosyoCd=0871600763-00&ServiceCd=510&Type=search" }, "geometry": { "type": "Point", "coordinates": [ 140.309889740423614, 36.355240015683137 ] } },
{ "type": "Feature", "properties": { "内容": "特別養護老人ホーム　宍戸苑【介護老人福祉施設】茨城県笠間市橋爪　４６２－１", "url2": "https://www.kaigokensaku.mhlw.go.jp/08/index.php?action_kouhyou_detail_004_kani=true&JigyosyoCd=0873200125-00&ServiceCd=510&Type=search" }, "geometry": { "type": "Point", "coordinates": [ 140.2951114, 36.339567 ] } },
{ "type": "Feature", "properties": { "内容": "特別養護老人ホーム　すずらんの里【介護老人福祉施設】茨城県笠間市土師１２８３－５", "url2": "https://www.kaigokensaku.mhlw.go.jp/08/index.php?action_kouhyou_detail_004_kani=true&JigyosyoCd=0873200083-00&ServiceCd=510&Type=search" }, "geometry": { "type": "Point", "coordinates": [ 140.2969974, 36.2994852 ] } },
{ "type": "Feature", "properties": { "内容": "特別養護老人ホーム　みどりの郷福原【介護老人福祉施設】茨城県笠間市福原字新谷59番地1", "url2": "https://www.kaigokensaku.mhlw.go.jp/08/index.php?action_kouhyou_detail_004_kani=true&JigyosyoCd=0871690004-00&ServiceCd=510&Type=search" }, "geometry": { "type": "Point", "coordinates": [ 140.184477610420231, 36.346466576200889 ] } },
{ "type": "Feature", "properties": { "内容": "社会福祉法人尚生会　特別養護老人ホーム　かさまグリーンハウス【介護老人福祉施設】茨城県笠間市福田3199", "url2": "https://www.kaigokensaku.mhlw.go.jp/08/index.php?action_kouhyou_detail_004_kani=true&JigyosyoCd=0871600060-00&ServiceCd=510&Type=search" }, "geometry": { "type": "Point", "coordinates": [ 140.280879599999906, 36.4076085 ] } },
{ "type": "Feature", "properties": { "内容": "特別養護老人ホーム藤代なごみの郷【介護老人福祉施設】茨城県取手市椚木1342－2", "url2": "https://www.kaigokensaku.mhlw.go.jp/08/index.php?action_kouhyou_detail_004_kani=true&JigyosyoCd=0871701231-00&ServiceCd=510&Type=search" }, "geometry": { "type": "Point", "coordinates": [ 140.093400299999985, 35.9259384 ] } },
{ "type": "Feature", "properties": { "内容": "特別養護老人ホーム　藤代なごみの郷【介護老人福祉施設】茨城県取手市椚木1342‐2", "url2": "https://www.kaigokensaku.mhlw.go.jp/08/index.php?action_kouhyou_detail_004_kani=true&JigyosyoCd=0874400252-00&ServiceCd=510&Type=search" }, "geometry": { "type": "Point", "coordinates": [ 140.0933633, 35.925913 ] } },
{ "type": "Feature", "properties": { "内容": "特別養護老人ホーム・ルロシェ【介護老人福祉施設】茨城県取手市神浦646", "url2": "https://www.kaigokensaku.mhlw.go.jp/08/index.php?action_kouhyou_detail_004_kani=true&JigyosyoCd=0871700910-00&ServiceCd=510&Type=search" }, "geometry": { "type": "Point", "coordinates": [ 140.125842799999987, 35.886463 ] } },
{ "type": "Feature", "properties": { "内容": "特別養護老人ホーム　さらの杜【介護老人福祉施設】茨城県取手市下高井2148", "url2": "https://www.kaigokensaku.mhlw.go.jp/08/index.php?action_kouhyou_detail_004_kani=true&JigyosyoCd=0871700100-00&ServiceCd=510&Type=search" }, "geometry": { "type": "Point", "coordinates": [ 140.0278366, 35.9290276 ] } },
{ "type": "Feature", "properties": { "内容": "特別養護老人ホーム　さらの杜【介護老人福祉施設】茨城県取手市下高井2148", "url2": "https://www.kaigokensaku.mhlw.go.jp/08/index.php?action_kouhyou_detail_004_kani=true&JigyosyoCd=0871701090-00&ServiceCd=510&Type=search" }, "geometry": { "type": "Point", "coordinates": [ 140.0278366, 35.9290276 ] } },
{ "type": "Feature", "properties": { "内容": "特別養護老人ホーム　取手市ふれあいの郷【介護老人福祉施設】取手市ゆめみ野3-23-1", "url2": "https://www.kaigokensaku.mhlw.go.jp/08/index.php?action_kouhyou_detail_004_kani=true&JigyosyoCd=0871700076-00&ServiceCd=510&Type=search" }, "geometry": { "type": "Point", "coordinates": [ 140.044196300000067, 35.9255424 ] } },
{ "type": "Feature", "properties": { "内容": "特別養護老人ホーム　めぐみの杜【介護老人福祉施設】茨城県取手市稲29番1", "url2": "https://www.kaigokensaku.mhlw.go.jp/08/index.php?action_kouhyou_detail_004_kani=true&JigyosyoCd=0871700878-00&ServiceCd=510&Type=search" }, "geometry": { "type": "Point", "coordinates": [ 140.04458580000005, 35.9095553 ] } },
{ "type": "Feature", "properties": { "内容": "特別養護老人ホーム北相寿園【介護老人福祉施設】茨城県取手市岡1476番地", "url2": "https://www.kaigokensaku.mhlw.go.jp/08/index.php?action_kouhyou_detail_004_kani=true&JigyosyoCd=0874400070-00&ServiceCd=510&Type=search" }, "geometry": { "type": "Point", "coordinates": [ 140.056434, 35.9215606 ] } },
{ "type": "Feature", "properties": { "内容": "特別養護老人ホーム　水彩館【介護老人福祉施設】茨城県取手市小文間字谷耕地5720番1", "url2": "https://www.kaigokensaku.mhlw.go.jp/08/index.php?action_kouhyou_detail_004_kani=true&JigyosyoCd=0871700365-00&ServiceCd=510&Type=search" }, "geometry": { "type": "Point", "coordinates": [ 140.095280203521696, 35.89197777967167 ] } },
{ "type": "Feature", "properties": { "内容": "特別養護老人ホーム　グランヴィラ牛久【介護老人福祉施設】茨城県牛久市猪子町892-2", "url2": "https://www.kaigokensaku.mhlw.go.jp/08/index.php?action_kouhyou_detail_004_kani=true&JigyosyoCd=0871901112-00&ServiceCd=510&Type=search" }, "geometry": { "type": "Point", "coordinates": [ 140.141364899999985, 35.9991777 ] } },
{ "type": "Feature", "properties": { "内容": "特別養護老人ホーム　元気館【介護老人福祉施設】茨城県牛久市城中町148-1", "url2": "https://www.kaigokensaku.mhlw.go.jp/08/index.php?action_kouhyou_detail_004_kani=true&JigyosyoCd=0871900544-00&ServiceCd=510&Type=search" }, "geometry": { "type": "Point", "coordinates": [ 140.132200300000022, 35.9535888 ] } },
{ "type": "Feature", "properties": { "内容": "指定介護老人福祉施設　博慈園【介護老人福祉施設】茨城県牛久市女化町253－2", "url2": "https://www.kaigokensaku.mhlw.go.jp/08/index.php?action_kouhyou_detail_004_kani=true&JigyosyoCd=0871900080-00&ServiceCd=510&Type=search" }, "geometry": { "type": "Point", "coordinates": [ 140.173130300000025, 35.9477318 ] } },
{ "type": "Feature", "properties": { "内容": "指定介護老人福祉施設　博慈園【介護老人福祉施設】茨城県牛久市女化町253-2", "url2": "https://www.kaigokensaku.mhlw.go.jp/08/index.php?action_kouhyou_detail_004_kani=true&JigyosyoCd=0871900981-00&ServiceCd=510&Type=search" }, "geometry": { "type": "Point", "coordinates": [ 140.173199399999987, 35.9476555 ] } },
{ "type": "Feature", "properties": { "内容": "特別養護老人ホーム　こころの里【介護老人福祉施設】茨城県牛久市久野町545", "url2": "https://www.kaigokensaku.mhlw.go.jp/08/index.php?action_kouhyou_detail_004_kani=true&JigyosyoCd=0871901385-00&ServiceCd=510&Type=search" }, "geometry": { "type": "Point", "coordinates": [ 140.231515148014267, 35.95922921012567 ] } },
{ "type": "Feature", "properties": { "内容": "特別養護老人ホーム　牛久さくら園【介護老人福祉施設】牛久市上柏田1-18-4", "url2": "https://www.kaigokensaku.mhlw.go.jp/08/index.php?action_kouhyou_detail_004_kani=true&JigyosyoCd=0871900163-00&ServiceCd=510&Type=search" }, "geometry": { "type": "Point", "coordinates": [ 140.152414300000032, 35.9938758 ] } },
{ "type": "Feature", "properties": { "内容": "特別養護老人ホームひかり【介護老人福祉施設】茨城県牛久市遠山町478-1", "url2": "https://www.kaigokensaku.mhlw.go.jp/08/index.php?action_kouhyou_detail_004_kani=true&JigyosyoCd=0871900999-00&ServiceCd=510&Type=search" }, "geometry": { "type": "Point", "coordinates": [ 140.1516547, 35.9444511 ] } },
{ "type": "Feature", "properties": { "内容": "特別養護老人ホーム　木の花さくや【介護老人福祉施設】つくば市鬼ヶ窪字大割１２１２番１１", "url2": "https://www.kaigokensaku.mhlw.go.jp/08/index.php?action_kouhyou_detail_004_kani=true&JigyosyoCd=0872001789-00&ServiceCd=510&Type=search" }, "geometry": { "type": "Point", "coordinates": [ 140.047940717721531, 36.079093537214767 ] } },
{ "type": "Feature", "properties": { "内容": "特別養護老人ホーム　シニアガーデン【介護老人福祉施設】茨城県つくば市大曽根3690", "url2": "https://www.kaigokensaku.mhlw.go.jp/08/index.php?action_kouhyou_detail_004_kani=true&JigyosyoCd=0872000617-00&ServiceCd=510&Type=search" }, "geometry": { "type": "Point", "coordinates": [ 140.0790405, 36.1389629 ] } },
{ "type": "Feature", "properties": { "内容": "特別養護老人ホーム　新つくばホーム新館【介護老人福祉施設】茨城県つくば市学園の森３丁目２９番地２", "url2": "https://www.kaigokensaku.mhlw.go.jp/08/index.php?action_kouhyou_detail_004_kani=true&JigyosyoCd=0872090014-00&ServiceCd=510&Type=search" }, "geometry": { "type": "Point", "coordinates": [ 140.09143440059438, 36.093973559729442 ] } },
{ "type": "Feature", "properties": { "内容": "特別養護老人ホーム新つくばホーム【介護老人福祉施設】茨城県つくば市学園の森３丁目２９番地２", "url2": "https://www.kaigokensaku.mhlw.go.jp/08/index.php?action_kouhyou_detail_004_kani=true&JigyosyoCd=0872000203-00&ServiceCd=510&Type=search" }, "geometry": { "type": "Point", "coordinates": [ 140.09183, 36.0939375 ] } },
{ "type": "Feature", "properties": { "内容": "特別養護老人ホーム　　アイリスコート【介護老人福祉施設】つくば市上横場429－1", "url2": "https://www.kaigokensaku.mhlw.go.jp/08/index.php?action_kouhyou_detail_004_kani=true&JigyosyoCd=0872000856-00&ServiceCd=510&Type=search" }, "geometry": { "type": "Point", "coordinates": [ 140.087488093362481, 36.05196658400672 ] } },
{ "type": "Feature", "properties": { "内容": "特別養護老人ホーム　まごころの杜つくば【介護老人福祉施設】茨城県つくば市大砂185-2", "url2": "https://www.kaigokensaku.mhlw.go.jp/08/index.php?action_kouhyou_detail_004_kani=true&JigyosyoCd=0872090022-00&ServiceCd=510&Type=search" }, "geometry": { "type": "Point", "coordinates": [ 140.045044722090154, 36.146574555690627 ] } },
{ "type": "Feature", "properties": { "内容": "特別養護老人ホーム　筑波園【介護老人福祉施設】茨城県つくば市北条１１８０", "url2": "https://www.kaigokensaku.mhlw.go.jp/08/index.php?action_kouhyou_detail_004_kani=true&JigyosyoCd=0872000187-00&ServiceCd=510&Type=search" }, "geometry": { "type": "Point", "coordinates": [ 140.097934900000041, 36.1806333 ] } },
{ "type": "Feature", "properties": { "内容": "特別養護老人ホーム　くきの里【介護老人福祉施設】茨城県つくば市上岩崎1845-27", "url2": "https://www.kaigokensaku.mhlw.go.jp/08/index.php?action_kouhyou_detail_004_kani=true&JigyosyoCd=0872000708-00&ServiceCd=510&Type=search" }, "geometry": { "type": "Point", "coordinates": [ 140.095927800000027, 35.9858872 ] } },
{ "type": "Feature", "properties": { "内容": "特別養護老人ホーム　筑波園【介護老人福祉施設】茨城県つくば市北条1180", "url2": "https://www.kaigokensaku.mhlw.go.jp/08/index.php?action_kouhyou_detail_004_kani=true&JigyosyoCd=0872090006-00&ServiceCd=510&Type=search" }, "geometry": { "type": "Point", "coordinates": [ 140.097892400000035, 36.180632 ] } },
{ "type": "Feature", "properties": { "内容": "特別養護老人ホーム　大地と大空【介護老人福祉施設】茨城県つくば市稲荷原１２４１－１", "url2": "https://www.kaigokensaku.mhlw.go.jp/08/index.php?action_kouhyou_detail_004_kani=true&JigyosyoCd=0872002050-00&ServiceCd=510&Type=search" }, "geometry": { "type": "Point", "coordinates": [ 140.1141788, 36.0068934 ] } },
{ "type": "Feature", "properties": { "内容": "特別養護老人ホームはなみずき【介護老人福祉施設】下原525－1", "url2": "https://www.kaigokensaku.mhlw.go.jp/08/index.php?action_kouhyou_detail_004_kani=true&JigyosyoCd=0872002407-00&ServiceCd=510&Type=search" }, "geometry": { "type": "Point", "coordinates": [ 140.132175500000017, 36.040081 ] } },
{ "type": "Feature", "properties": { "内容": "特別養護老人ホーム　美健荘【介護老人福祉施設】茨城県つくば市上郷1438-3", "url2": "https://www.kaigokensaku.mhlw.go.jp/08/index.php?action_kouhyou_detail_004_kani=true&JigyosyoCd=0872000195-00&ServiceCd=510&Type=search" }, "geometry": { "type": "Point", "coordinates": [ 140.017169, 36.1106677 ] } },
{ "type": "Feature", "properties": { "内容": "特別養護老人ホームつくばの杜【介護老人福祉施設】茨城県つくば市吉瀬字神送1017-1", "url2": "https://www.kaigokensaku.mhlw.go.jp/08/index.php?action_kouhyou_detail_004_kani=true&JigyosyoCd=0872000211-00&ServiceCd=510&Type=search" }, "geometry": { "type": "Point", "coordinates": [ 140.149262592312652, 36.075538385549123 ] } },
{ "type": "Feature", "properties": { "内容": "特別養護老人ホーム　はまぎくの里【介護老人福祉施設】ひたちなか市中根952-1", "url2": "https://www.kaigokensaku.mhlw.go.jp/08/index.php?action_kouhyou_detail_004_kani=true&JigyosyoCd=0872100771-00&ServiceCd=510&Type=search" }, "geometry": { "type": "Point", "coordinates": [ 140.5618177, 36.3872552 ] } },
{ "type": "Feature", "properties": { "内容": "特別養護老人ホームさわの森【介護老人福祉施設】茨城県ひたちなか市高野字柏野２４４８", "url2": "https://www.kaigokensaku.mhlw.go.jp/08/index.php?action_kouhyou_detail_004_kani=true&JigyosyoCd=0872101084-00&ServiceCd=510&Type=search" }, "geometry": { "type": "Point", "coordinates": [ 140.542715, 36.4410412 ] } },
{ "type": "Feature", "properties": { "内容": "特別養護老人ホーム　春寿園【介護老人福祉施設】茨城県ひたちなか市堀口８８－１", "url2": "https://www.kaigokensaku.mhlw.go.jp/08/index.php?action_kouhyou_detail_004_kani=true&JigyosyoCd=0872102272-00&ServiceCd=510&Type=search" }, "geometry": { "type": "Point", "coordinates": [ 140.508048599999938, 36.3900705 ] } },
{ "type": "Feature", "properties": { "内容": "特別養護老人ホームかつた【介護老人福祉施設】茨城県ひたちなか市三反田3690-3", "url2": "https://www.kaigokensaku.mhlw.go.jp/08/index.php?action_kouhyou_detail_004_kani=true&JigyosyoCd=0872102546-00&ServiceCd=510&Type=search" }, "geometry": { "type": "Point", "coordinates": [ 140.544163638623075, 36.371873729539175 ] } },
{ "type": "Feature", "properties": { "内容": "特別養護老人ホーム　北勝園【介護老人福祉施設】茨城県ひたちなか市津田２０９３－１", "url2": "https://www.kaigokensaku.mhlw.go.jp/08/index.php?action_kouhyou_detail_004_kani=true&JigyosyoCd=0872100151-00&ServiceCd=510&Type=search" }, "geometry": { "type": "Point", "coordinates": [ 140.491982900000039, 36.4050076 ] } },
{ "type": "Feature", "properties": { "内容": "特別養護老人ホーム　サンフラワーひたちなか【介護老人福祉施設】茨城県ひたちなか市長砂字久保633-1", "url2": "https://www.kaigokensaku.mhlw.go.jp/08/index.php?action_kouhyou_detail_004_kani=true&JigyosyoCd=0872100250-00&ServiceCd=510&Type=search" }, "geometry": { "type": "Point", "coordinates": [ 140.577296501246678, 36.417942768565354 ] } },
{ "type": "Feature", "properties": { "内容": "特別養護老人ホーム　グリーンハウスひたちなか【介護老人福祉施設】茨城県ひたちなか市東石川3183-1", "url2": "https://www.kaigokensaku.mhlw.go.jp/08/index.php?action_kouhyou_detail_004_kani=true&JigyosyoCd=0872101829-00&ServiceCd=510&Type=search" }, "geometry": { "type": "Point", "coordinates": [ 140.53734068244782, 36.415523048404026 ] } },
{ "type": "Feature", "properties": { "内容": "特別養護老人ホーム　恵苑【介護老人福祉施設】茨城県ひたちなか市烏ヶ台11835-2", "url2": "https://www.kaigokensaku.mhlw.go.jp/08/index.php?action_kouhyou_detail_004_kani=true&JigyosyoCd=0872100177-00&ServiceCd=510&Type=search" }, "geometry": { "type": "Point", "coordinates": [ 140.599883200000022, 36.3680583 ] } },
{ "type": "Feature", "properties": { "内容": "特別養護老人ホーム　　セ・シボンかしま【介護老人福祉施設】茨城県鹿嶋市須賀1350-1", "url2": "https://www.kaigokensaku.mhlw.go.jp/08/index.php?action_kouhyou_detail_004_kani=true&JigyosyoCd=0872200423-00&ServiceCd=510&Type=search" }, "geometry": { "type": "Point", "coordinates": [ 140.623536699999931, 35.9782791 ] } },
{ "type": "Feature", "properties": { "内容": "社会福祉法人　神和会　特別養護老人ホーム　大野の郷【介護老人福祉施設】茨城県鹿嶋市大字和字治825番5", "url2": "https://www.kaigokensaku.mhlw.go.jp/08/index.php?action_kouhyou_detail_004_kani=true&JigyosyoCd=0872200605-00&ServiceCd=510&Type=search" }, "geometry": { "type": "Point", "coordinates": [ 140.612556926597506, 36.039973860953779 ] } },
{ "type": "Feature", "properties": { "内容": "鹿嶋市特別養護老人ホーム　ウェルポート鹿嶋の郷【介護老人福祉施設】茨城県鹿嶋市大字宮中４６０３番地１", "url2": "https://www.kaigokensaku.mhlw.go.jp/08/index.php?action_kouhyou_detail_004_kani=true&JigyosyoCd=0872200118-00&ServiceCd=510&Type=search" }, "geometry": { "type": "Point", "coordinates": [ 140.635410500000035, 35.9832061 ] } },
{ "type": "Feature", "properties": { "内容": "特別養護老人ホーム　松寿園【介護老人福祉施設】鹿嶋市武井1956-3", "url2": "https://www.kaigokensaku.mhlw.go.jp/08/index.php?action_kouhyou_detail_004_kani=true&JigyosyoCd=0872200092-00&ServiceCd=510&Type=search" }, "geometry": { "type": "Point", "coordinates": [ 140.58403, 36.0564784 ] } },
{ "type": "Feature", "properties": { "内容": "特別養護老人ホームサントピア鹿島【介護老人福祉施設】茨城県鹿嶋市宮中５２００", "url2": "https://www.kaigokensaku.mhlw.go.jp/08/index.php?action_kouhyou_detail_004_kani=true&JigyosyoCd=0872200100-00&ServiceCd=510&Type=search" }, "geometry": { "type": "Point", "coordinates": [ 140.6373174, 35.9655534 ] } },
{ "type": "Feature", "properties": { "内容": "特別養護老人ホーム　いたこの郷【介護老人福祉施設】潮来市大生字大生原804-556", "url2": "https://www.kaigokensaku.mhlw.go.jp/08/index.php?action_kouhyou_detail_004_kani=true&JigyosyoCd=0872300272-00&ServiceCd=510&Type=search" }, "geometry": { "type": "Point", "coordinates": [ 140.551588087388609, 35.985891787393804 ] } },
{ "type": "Feature", "properties": { "内容": "特別養護老人ホーム福楽園【介護老人福祉施設】茨城県潮来市上戸１９２１－１", "url2": "https://www.kaigokensaku.mhlw.go.jp/08/index.php?action_kouhyou_detail_004_kani=true&JigyosyoCd=0872300132-00&ServiceCd=510&Type=search" }, "geometry": { "type": "Point", "coordinates": [ 140.537275, 35.9501777 ] } },
{ "type": "Feature", "properties": { "内容": "特別養護老人ホームあやめ荘【介護老人福祉施設】茨城県潮来市水原１５４９番地１", "url2": "https://www.kaigokensaku.mhlw.go.jp/08/index.php?action_kouhyou_detail_004_kani=true&JigyosyoCd=0872300140-00&ServiceCd=510&Type=search" }, "geometry": { "type": "Point", "coordinates": [ 140.575360662040708, 35.973711414362327 ] } },
{ "type": "Feature", "properties": { "内容": "特別養護老人ホーム峰林荘【介護老人福祉施設】茨城県守谷市野木崎1931", "url2": "https://www.kaigokensaku.mhlw.go.jp/08/index.php?action_kouhyou_detail_004_kani=true&JigyosyoCd=0872400064-00&ServiceCd=510&Type=search" }, "geometry": { "type": "Point", "coordinates": [ 139.9581624, 35.9524867 ] } },
{ "type": "Feature", "properties": { "内容": "特別養護老人ホームやまゆりの郷【介護老人福祉施設】茨城県守谷市大山新田149-1", "url2": "https://www.kaigokensaku.mhlw.go.jp/08/index.php?action_kouhyou_detail_004_kani=true&JigyosyoCd=0872400833-00&ServiceCd=510&Type=search" }, "geometry": { "type": "Point", "coordinates": [ 139.964226775116032, 35.971622333527755 ] } },
{ "type": "Feature", "properties": { "内容": "特別養護老人ホームやまゆりの郷【介護老人福祉施設】茨城県守谷市大山新田149-1", "url2": "https://www.kaigokensaku.mhlw.go.jp/08/index.php?action_kouhyou_detail_004_kani=true&JigyosyoCd=0872401013-00&ServiceCd=510&Type=search" }, "geometry": { "type": "Point", "coordinates": [ 139.964318, 35.9721194 ] } },
{ "type": "Feature", "properties": { "内容": "特別養護老人ホーム　七福神【介護老人福祉施設】茨城県守谷市高野１７５５－１", "url2": "https://www.kaigokensaku.mhlw.go.jp/08/index.php?action_kouhyou_detail_004_kani=true&JigyosyoCd=0872400320-00&ServiceCd=510&Type=search" }, "geometry": { "type": "Point", "coordinates": [ 139.984974, 35.9305888 ] } },
{ "type": "Feature", "properties": { "内容": "特別養護老人ホ－ム　サングリ－ンピア山方【介護老人福祉施設】茨城県常陸大宮市西野内1537-1", "url2": "https://www.kaigokensaku.mhlw.go.jp/08/index.php?action_kouhyou_detail_004_kani=true&JigyosyoCd=0873300222-00&ServiceCd=510&Type=search" }, "geometry": { "type": "Point", "coordinates": [ 140.401623399999977, 36.6419656 ] } },
{ "type": "Feature", "properties": { "内容": "特別養護老人ホームおがわ【介護老人福祉施設】茨城県常陸大宮市上小瀬4425", "url2": "https://www.kaigokensaku.mhlw.go.jp/08/index.php?action_kouhyou_detail_004_kani=true&JigyosyoCd=0873300172-00&ServiceCd=510&Type=search" }, "geometry": { "type": "Point", "coordinates": [ 140.3161601, 36.6086961 ] } },
{ "type": "Feature", "properties": { "内容": "特別養護老人ホーム　御前山フロイデガルテン【介護老人福祉施設】茨城県常陸大宮市野口平146-1", "url2": "https://www.kaigokensaku.mhlw.go.jp/08/index.php?action_kouhyou_detail_004_kani=true&JigyosyoCd=0873100671-00&ServiceCd=510&Type=search" }, "geometry": { "type": "Point", "coordinates": [ 140.3383384, 36.5581032 ] } },
{ "type": "Feature", "properties": { "内容": "特別養護老人ホームみわ【介護老人福祉施設】茨城県常陸大宮市鷲子２０２３－２", "url2": "https://www.kaigokensaku.mhlw.go.jp/08/index.php?action_kouhyou_detail_004_kani=true&JigyosyoCd=0873300651-00&ServiceCd=510&Type=search" }, "geometry": { "type": "Point", "coordinates": [ 140.2430733, 36.6648195 ] } },
{ "type": "Feature", "properties": { "内容": "特別養護老人ホームドルフィン【介護老人福祉施設】常陸大宮市泉497-1", "url2": "https://www.kaigokensaku.mhlw.go.jp/08/index.php?action_kouhyou_detail_004_kani=true&JigyosyoCd=0873300842-00&ServiceCd=510&Type=search" }, "geometry": { "type": "Point", "coordinates": [ 140.425439099999949, 36.528401 ] } },
{ "type": "Feature", "properties": { "内容": "特別養護老人ホームみのり園【介護老人福祉施設】茨城県常陸大宮市鷹巣2243-1", "url2": "https://www.kaigokensaku.mhlw.go.jp/08/index.php?action_kouhyou_detail_004_kani=true&JigyosyoCd=0873300214-00&ServiceCd=510&Type=search" }, "geometry": { "type": "Point", "coordinates": [ 140.395882499999971, 36.573039 ] } },
{ "type": "Feature", "properties": { "内容": "特別養護老人ホーム　藤井ハイム那珂　従来型【介護老人福祉施設】茨城県那珂市瓜連433-2", "url2": "https://www.kaigokensaku.mhlw.go.jp/08/index.php?action_kouhyou_detail_004_kani=true&JigyosyoCd=0872600564-00&ServiceCd=510&Type=search" }, "geometry": { "type": "Point", "coordinates": [ 140.4491899, 36.4993219 ] } },
{ "type": "Feature", "properties": { "内容": "特別養護老人ホーム　藤井ハイム那珂　ユニット型【介護老人福祉施設】茨城県那珂市瓜連433-2", "url2": "https://www.kaigokensaku.mhlw.go.jp/08/index.php?action_kouhyou_detail_004_kani=true&JigyosyoCd=0872600572-00&ServiceCd=510&Type=search" }, "geometry": { "type": "Point", "coordinates": [ 140.4491899, 36.4993219 ] } },
{ "type": "Feature", "properties": { "内容": "特別養護老人ホームナザレ園　オリーブ【介護老人福祉施設】中里342番地3", "url2": "https://www.kaigokensaku.mhlw.go.jp/08/index.php?action_kouhyou_detail_004_kani=true&JigyosyoCd=0872600549-00&ServiceCd=510&Type=search" }, "geometry": { "type": "Point", "coordinates": [ 140.457168799999977, 36.4851895 ] } },
{ "type": "Feature", "properties": { "内容": "特別養護老人ホームナザレ園【介護老人福祉施設】茨城県那珂市中里342番地3", "url2": "https://www.kaigokensaku.mhlw.go.jp/08/index.php?action_kouhyou_detail_004_kani=true&JigyosyoCd=0873300206-00&ServiceCd=510&Type=search" }, "geometry": { "type": "Point", "coordinates": [ 140.457168799999977, 36.4851895 ] } },
{ "type": "Feature", "properties": { "内容": "特別養護老人ホーム　ゆたか園【介護老人福祉施設】茨城県那珂市後台2042-1", "url2": "https://www.kaigokensaku.mhlw.go.jp/08/index.php?action_kouhyou_detail_004_kani=true&JigyosyoCd=0873300198-00&ServiceCd=510&Type=search" }, "geometry": { "type": "Point", "coordinates": [ 140.475620143516579, 36.437420237174877 ] } },
{ "type": "Feature", "properties": { "内容": "特別養護老人ホームいくり苑那珂【介護老人福祉施設】茨城県那珂市菅谷3799番地6", "url2": "https://www.kaigokensaku.mhlw.go.jp/08/index.php?action_kouhyou_detail_004_kani=true&JigyosyoCd=0872600192-00&ServiceCd=510&Type=search" }, "geometry": { "type": "Point", "coordinates": [ 140.502025300000014, 36.4318777 ] } },
{ "type": "Feature", "properties": { "内容": "特別養護老人ホームひばりヶ丘【介護老人福祉施設】茨城県那珂市菅谷528", "url2": "https://www.kaigokensaku.mhlw.go.jp/08/index.php?action_kouhyou_detail_004_kani=true&JigyosyoCd=0872600085-00&ServiceCd=510&Type=search" }, "geometry": { "type": "Point", "coordinates": [ 140.496139, 36.4608436 ] } },
{ "type": "Feature", "properties": { "内容": "特別養護老人ホーム県西せいかん荘【介護老人福祉施設】茨城県筑西市蓬田241", "url2": "https://www.kaigokensaku.mhlw.go.jp/08/index.php?action_kouhyou_detail_004_kani=true&JigyosyoCd=0874100332-00&ServiceCd=510&Type=search" }, "geometry": { "type": "Point", "coordinates": [ 140.041555, 36.3600451 ] } },
{ "type": "Feature", "properties": { "内容": "特別養護老人ホーム　ひまわり苑　本館【介護老人福祉施設】茨城県筑西市吉田640-1", "url2": "https://www.kaigokensaku.mhlw.go.jp/08/index.php?action_kouhyou_detail_004_kani=true&JigyosyoCd=0872701180-00&ServiceCd=510&Type=search" }, "geometry": { "type": "Point", "coordinates": [ 140.0128195, 36.2671417 ] } },
{ "type": "Feature", "properties": { "内容": "特別養護老人ホームまごころの杜【介護老人福祉施設】茨城県筑西市西方1667", "url2": "https://www.kaigokensaku.mhlw.go.jp/08/index.php?action_kouhyou_detail_004_kani=true&JigyosyoCd=0872701073-00&ServiceCd=510&Type=search" }, "geometry": { "type": "Point", "coordinates": [ 139.950725848240609, 36.288837852195392 ] } },
{ "type": "Feature", "properties": { "内容": "特別養護老人ホームしらとり【介護老人福祉施設】茨城県筑西市上平塚590-1", "url2": "https://www.kaigokensaku.mhlw.go.jp/08/index.php?action_kouhyou_detail_004_kani=true&JigyosyoCd=0872700067-00&ServiceCd=510&Type=search" }, "geometry": { "type": "Point", "coordinates": [ 139.929286100000013, 36.3198465 ] } },
{ "type": "Feature", "properties": { "内容": "特別養護老人ホーム　筑圃苑【介護老人福祉施設】筑西市木戸３５４番地", "url2": "https://www.kaigokensaku.mhlw.go.jp/08/index.php?action_kouhyou_detail_004_kani=true&JigyosyoCd=0874100191-00&ServiceCd=510&Type=search" }, "geometry": { "type": "Point", "coordinates": [ 139.9806982, 36.2450322 ] } },
{ "type": "Feature", "properties": { "内容": "特別養護老人ホーム　中舘園【介護老人福祉施設】茨城県筑西市八丁台457", "url2": "https://www.kaigokensaku.mhlw.go.jp/08/index.php?action_kouhyou_detail_004_kani=true&JigyosyoCd=0872700299-00&ServiceCd=510&Type=search" }, "geometry": { "type": "Point", "coordinates": [ 139.974415200000067, 36.3258638 ] } },
{ "type": "Feature", "properties": { "内容": "特別養護老人ホーム　紫雲荘【介護老人福祉施設】茨城県筑西市海老ヶ島１９９９", "url2": "https://www.kaigokensaku.mhlw.go.jp/08/index.php?action_kouhyou_detail_004_kani=true&JigyosyoCd=0874100167-00&ServiceCd=510&Type=search" }, "geometry": { "type": "Point", "coordinates": [ 140.03483, 36.2426165 ] } },
{ "type": "Feature", "properties": { "内容": "特別養護老人ホーム　恒幸園【介護老人福祉施設】茨城県筑西市向川澄98-1", "url2": "https://www.kaigokensaku.mhlw.go.jp/08/index.php?action_kouhyou_detail_004_kani=true&JigyosyoCd=0874100548-00&ServiceCd=510&Type=search" }, "geometry": { "type": "Point", "coordinates": [ 140.012708713491833, 36.329364055385859 ] } },
{ "type": "Feature", "properties": { "内容": "特別養護老人ホーム敬心苑【介護老人福祉施設】茨城県筑西市野殿１５９５－３", "url2": "https://www.kaigokensaku.mhlw.go.jp/08/index.php?action_kouhyou_detail_004_kani=true&JigyosyoCd=0870600095-00&ServiceCd=510&Type=search" }, "geometry": { "type": "Point", "coordinates": [ 139.970861499999955, 36.2756948 ] } },
{ "type": "Feature", "properties": { "内容": "特別養護老人ホーム　あしま【介護老人福祉施設】下中山３６０番地１", "url2": "https://www.kaigokensaku.mhlw.go.jp/08/index.php?action_kouhyou_detail_004_kani=true&JigyosyoCd=0872700661-00&ServiceCd=510&Type=search" }, "geometry": { "type": "Point", "coordinates": [ 139.985956499999929, 36.3031308 ] } },
{ "type": "Feature", "properties": { "内容": "特別養護老人ホーム　恵愛荘【介護老人福祉施設】茨城県坂東市沓掛337", "url2": "https://www.kaigokensaku.mhlw.go.jp/08/index.php?action_kouhyou_detail_004_kani=true&JigyosyoCd=0874300213-00&ServiceCd=510&Type=search" }, "geometry": { "type": "Point", "coordinates": [ 139.895773400000053, 36.089081 ] } },
{ "type": "Feature", "properties": { "内容": "特別養護老人ホーム延寿館【介護老人福祉施設】茨城県坂東市長須１１８８－２", "url2": "https://www.kaigokensaku.mhlw.go.jp/08/index.php?action_kouhyou_detail_004_kani=true&JigyosyoCd=0872800289-00&ServiceCd=510&Type=search" }, "geometry": { "type": "Point", "coordinates": [ 139.849959300000023, 36.053309 ] } },
{ "type": "Feature", "properties": { "内容": "特別養護老人ホーム　ハートフル広侖【介護老人福祉施設】茨城県坂東市小山２５８", "url2": "https://www.kaigokensaku.mhlw.go.jp/08/index.php?action_kouhyou_detail_004_kani=true&JigyosyoCd=0871800066-00&ServiceCd=510&Type=search" }, "geometry": { "type": "Point", "coordinates": [ 139.878233799999947, 36.0160301 ] } },
{ "type": "Feature", "properties": { "内容": "特別養護老人ホームさしまの家【介護老人福祉施設】茨城県坂東市生子1630-1", "url2": "https://www.kaigokensaku.mhlw.go.jp/08/index.php?action_kouhyou_detail_004_kani=true&JigyosyoCd=0872800461-00&ServiceCd=510&Type=search" }, "geometry": { "type": "Point", "coordinates": [ 139.844701051190697, 36.095083033201163 ] } },
{ "type": "Feature", "properties": { "内容": "特別養護老人ホームさしまの家【介護老人福祉施設】茨城県坂東市生子1630-1", "url2": "https://www.kaigokensaku.mhlw.go.jp/08/index.php?action_kouhyou_detail_004_kani=true&JigyosyoCd=0872800479-00&ServiceCd=510&Type=search" }, "geometry": { "type": "Point", "coordinates": [ 139.844702647328603, 36.095097821944563 ] } },
{ "type": "Feature", "properties": { "内容": "特別養護老人ホーム　長寿の里【介護老人福祉施設】茨城県坂東市中里1213番地", "url2": "https://www.kaigokensaku.mhlw.go.jp/08/index.php?action_kouhyou_detail_004_kani=true&JigyosyoCd=0871800132-00&ServiceCd=510&Type=search" }, "geometry": { "type": "Point", "coordinates": [ 139.90089230000001, 36.022807899999982 ] } },
{ "type": "Feature", "properties": { "内容": "特別養護老人ホーム　長寿の里【介護老人福祉施設】茨城県坂東市中里1213番地", "url2": "https://www.kaigokensaku.mhlw.go.jp/08/index.php?action_kouhyou_detail_004_kani=true&JigyosyoCd=0872800354-00&ServiceCd=510&Type=search" }, "geometry": { "type": "Point", "coordinates": [ 139.913074100000017, 36.0243304 ] } },
{ "type": "Feature", "properties": { "内容": "特別養護老人ホーム宝永館【介護老人福祉施設】茨城県稲敷市寺内字大久保600番地1", "url2": "https://www.kaigokensaku.mhlw.go.jp/08/index.php?action_kouhyou_detail_004_kani=true&JigyosyoCd=0873800221-00&ServiceCd=510&Type=search" }, "geometry": { "type": "Point", "coordinates": [ 140.314258, 35.9253351 ] } },
{ "type": "Feature", "properties": { "内容": "特別養護老人ホーム　すだちの里【介護老人福祉施設】稲敷市蒲ヶ山77番地", "url2": "https://www.kaigokensaku.mhlw.go.jp/08/index.php?action_kouhyou_detail_004_kani=true&JigyosyoCd=0873800510-00&ServiceCd=510&Type=search" }, "geometry": { "type": "Point", "coordinates": [ 140.275175900000022, 35.9694731 ] } },
{ "type": "Feature", "properties": { "内容": "特別養護老人ホームトリアネイ【介護老人福祉施設】茨城県稲敷市江戸崎甲1233-3", "url2": "https://www.kaigokensaku.mhlw.go.jp/08/index.php?action_kouhyou_detail_004_kani=true&JigyosyoCd=0872900477-00&ServiceCd=510&Type=search" }, "geometry": { "type": "Point", "coordinates": [ 140.315548074819731, 35.973315857852285 ] } },
{ "type": "Feature", "properties": { "内容": "特別養護老人ホームトリアネイ【介護老人福祉施設】茨城県稲敷市江戸崎甲1233-3", "url2": "https://www.kaigokensaku.mhlw.go.jp/08/index.php?action_kouhyou_detail_004_kani=true&JigyosyoCd=0872900485-00&ServiceCd=510&Type=search" }, "geometry": { "type": "Point", "coordinates": [ 140.315273050542828, 35.973016015102566 ] } },
{ "type": "Feature", "properties": { "内容": "特別養護老人ホーム　水郷荘【介護老人福祉施設】茨城県稲敷市幸田1252", "url2": "https://www.kaigokensaku.mhlw.go.jp/08/index.php?action_kouhyou_detail_004_kani=true&JigyosyoCd=0873800239-00&ServiceCd=510&Type=search" }, "geometry": { "type": "Point", "coordinates": [ 140.38690280000003, 35.9408101 ] } },
{ "type": "Feature", "properties": { "内容": "特別養護老人ホーム宝永館　ユニット【介護老人福祉施設】茨城県稲敷市寺内600-1", "url2": "https://www.kaigokensaku.mhlw.go.jp/08/index.php?action_kouhyou_detail_004_kani=true&JigyosyoCd=0872900311-00&ServiceCd=510&Type=search" }, "geometry": { "type": "Point", "coordinates": [ 140.3128524, 35.9291012 ] } },
{ "type": "Feature", "properties": { "内容": "特別養護老人ホーム　ふるさと【介護老人福祉施設】茨城県かすみがうら市新治１８１１－６", "url2": "https://www.kaigokensaku.mhlw.go.jp/08/index.php?action_kouhyou_detail_004_kani=true&JigyosyoCd=0873000061-00&ServiceCd=510&Type=search" }, "geometry": { "type": "Point", "coordinates": [ 140.248464, 36.1405248 ] } },
{ "type": "Feature", "properties": { "内容": "特別養護老人ホーム　グリーンヒル千代田【介護老人福祉施設】茨城県かすみがうら市上佐谷2008", "url2": "https://www.kaigokensaku.mhlw.go.jp/08/index.php?action_kouhyou_detail_004_kani=true&JigyosyoCd=0873900427-00&ServiceCd=510&Type=search" }, "geometry": { "type": "Point", "coordinates": [ 140.210730499999954, 36.1639882 ] } },
{ "type": "Feature", "properties": { "内容": "特別養護老人ホームサンシャインつくば【介護老人福祉施設】茨城県かすみがうら市上大堤210-27", "url2": "https://www.kaigokensaku.mhlw.go.jp/08/index.php?action_kouhyou_detail_004_kani=true&JigyosyoCd=0873900096-00&ServiceCd=510&Type=search" }, "geometry": { "type": "Point", "coordinates": [ 140.288377800000035, 36.1086122 ] } },
{ "type": "Feature", "properties": { "内容": "社会福祉法人廣山会　特別養護老人ホームプルミエールひたち野【介護老人福祉施設】かすみがうら市大字上土田山田330番地2", "url2": "https://www.kaigokensaku.mhlw.go.jp/08/index.php?action_kouhyou_detail_004_kani=true&JigyosyoCd=0873900187-00&ServiceCd=510&Type=search" }, "geometry": { "type": "Point", "coordinates": [ 140.3307847, 36.0942581 ] } },
{ "type": "Feature", "properties": { "内容": "社会福祉法人　聖隷会　特別養護老人ホーム　霞ヶ浦の里【介護老人福祉施設】茨城県かすみがうら市男神356番地１", "url2": "https://www.kaigokensaku.mhlw.go.jp/08/index.php?action_kouhyou_detail_004_kani=true&JigyosyoCd=0873000103-00&ServiceCd=510&Type=search" }, "geometry": { "type": "Point", "coordinates": [ 140.345545899999934, 36.0883939 ] } },
{ "type": "Feature", "properties": { "内容": "特別養護老人ホーム　筑水苑かすみがうら【介護老人福祉施設】茨城県かすみがうら市宍倉6150-5", "url2": "https://www.kaigokensaku.mhlw.go.jp/08/index.php?action_kouhyou_detail_004_kani=true&JigyosyoCd=0873000418-00&ServiceCd=510&Type=search" }, "geometry": { "type": "Point", "coordinates": [ 140.260799300000031, 36.1233378 ] } },
{ "type": "Feature", "properties": { "内容": "特別養護老人ホームさつき荘【介護老人福祉施設】桜川市富岡203-1", "url2": "https://www.kaigokensaku.mhlw.go.jp/08/index.php?action_kouhyou_detail_004_kani=true&JigyosyoCd=0873200133-00&ServiceCd=510&Type=search" }, "geometry": { "type": "Point", "coordinates": [ 140.093805, 36.3739004 ] } },
{ "type": "Feature", "properties": { "内容": "特別養護老人ホーム　ひだまりの家　やまと【介護老人福祉施設】茨城県桜川市大国玉４５１４－２", "url2": "https://www.kaigokensaku.mhlw.go.jp/08/index.php?action_kouhyou_detail_004_kani=true&JigyosyoCd=0874100423-00&ServiceCd=510&Type=search" }, "geometry": { "type": "Point", "coordinates": [ 140.068535, 36.3156651 ] } },
{ "type": "Feature", "properties": { "内容": "特別養護老人ホーム　ひだまりの家やまと【介護老人福祉施設】茨城県桜川市大国玉４５１４－２", "url2": "https://www.kaigokensaku.mhlw.go.jp/08/index.php?action_kouhyou_detail_004_kani=true&JigyosyoCd=0875100307-00&ServiceCd=510&Type=search" }, "geometry": { "type": "Point", "coordinates": [ 140.068535, 36.3156651 ] } },
{ "type": "Feature", "properties": { "内容": "特別養護老人ホーム上の原【介護老人福祉施設】茨城県桜川市上野原地新田154-4", "url2": "https://www.kaigokensaku.mhlw.go.jp/08/index.php?action_kouhyou_detail_004_kani=true&JigyosyoCd=0875100380-00&ServiceCd=510&Type=search" }, "geometry": { "type": "Point", "coordinates": [ 140.048368, 36.3508942 ] } },
{ "type": "Feature", "properties": { "内容": "特別養護老人ホーム　サンホーム真壁【介護老人福祉施設】茨城県桜川市真壁町下谷貝1449-1", "url2": "https://www.kaigokensaku.mhlw.go.jp/08/index.php?action_kouhyou_detail_004_kani=true&JigyosyoCd=0874100209-00&ServiceCd=510&Type=search" }, "geometry": { "type": "Point", "coordinates": [ 140.060419599999932, 36.2978365 ] } },
{ "type": "Feature", "properties": { "内容": "特別養護老人ホーム白寿荘【介護老人福祉施設】神栖市賀2148-112", "url2": "https://www.kaigokensaku.mhlw.go.jp/08/index.php?action_kouhyou_detail_004_kani=true&JigyosyoCd=0873600159-00&ServiceCd=510&Type=search" }, "geometry": { "type": "Point", "coordinates": [ 140.624003826983682, 35.901224110359202 ] } },
{ "type": "Feature", "properties": { "内容": "特別養護老人ホーム　白寿荘【介護老人福祉施設】茨城県神栖市賀２１４８－１１２", "url2": "https://www.kaigokensaku.mhlw.go.jp/08/index.php?action_kouhyou_detail_004_kani=true&JigyosyoCd=0875200891-00&ServiceCd=510&Type=search" }, "geometry": { "type": "Point", "coordinates": [ 140.624009191401711, 35.901089404866504 ] } },
{ "type": "Feature", "properties": { "内容": "特別養護老人ホーム　マリンピア神栖【介護老人福祉施設】茨城県神栖市矢田部１２６７８－７", "url2": "https://www.kaigokensaku.mhlw.go.jp/08/index.php?action_kouhyou_detail_004_kani=true&JigyosyoCd=0875200131-00&ServiceCd=510&Type=search" }, "geometry": { "type": "Point", "coordinates": [ 140.762870600000042, 35.8249027 ] } },
{ "type": "Feature", "properties": { "内容": "特別養護老人ホーム　しおさい苑【介護老人福祉施設】茨城県神栖市矢田部9416-1", "url2": "https://www.kaigokensaku.mhlw.go.jp/08/index.php?action_kouhyou_detail_004_kani=true&JigyosyoCd=0873600167-00&ServiceCd=510&Type=search" }, "geometry": { "type": "Point", "coordinates": [ 140.786230100000012, 35.8030906 ] } },
{ "type": "Feature", "properties": { "内容": "特別養護老人ホーム　はまなす【介護老人福祉施設】茨城県神栖市日川字石塚4112", "url2": "https://www.kaigokensaku.mhlw.go.jp/08/index.php?action_kouhyou_detail_004_kani=true&JigyosyoCd=0875200313-00&ServiceCd=510&Type=search" }, "geometry": { "type": "Point", "coordinates": [ 140.693756, 35.861737 ] } },
{ "type": "Feature", "properties": { "内容": "特別養護老人ホームきたうら【介護老人福祉施設】茨城県行方市山田３３３９－６", "url2": "https://www.kaigokensaku.mhlw.go.jp/08/index.php?action_kouhyou_detail_004_kani=true&JigyosyoCd=0873700298-00&ServiceCd=510&Type=search" }, "geometry": { "type": "Point", "coordinates": [ 140.517508099999986, 36.081449 ] } },
{ "type": "Feature", "properties": { "内容": "指定介護老人福祉施設　朝霞荘【介護老人福祉施設】茨城県行方市麻生1088－1", "url2": "https://www.kaigokensaku.mhlw.go.jp/08/index.php?action_kouhyou_detail_004_kani=true&JigyosyoCd=0873700116-00&ServiceCd=510&Type=search" }, "geometry": { "type": "Point", "coordinates": [ 140.48325191230316, 35.990181641930491 ] } },
{ "type": "Feature", "properties": { "内容": "特別養護老人ホーム　玉寿荘【介護老人福祉施設】行方市手賀1854-1", "url2": "https://www.kaigokensaku.mhlw.go.jp/08/index.php?action_kouhyou_detail_004_kani=true&JigyosyoCd=0873700132-00&ServiceCd=510&Type=search" }, "geometry": { "type": "Point", "coordinates": [ 140.433533799999964, 36.0847135 ] } },
{ "type": "Feature", "properties": { "内容": "特別養護老人ホームあそうの郷【介護老人福祉施設】行方市青沼９８１番地２", "url2": "https://www.kaigokensaku.mhlw.go.jp/08/index.php?action_kouhyou_detail_004_kani=true&JigyosyoCd=0873700538-00&ServiceCd=510&Type=search" }, "geometry": { "type": "Point", "coordinates": [ 140.51322719999996, 36.0261425 ] } },
{ "type": "Feature", "properties": { "内容": "特別養護老人ホーム　うぇるさんて　大洋【介護老人福祉施設】茨城県鉾田市上幡木1512番地4", "url2": "https://www.kaigokensaku.mhlw.go.jp/08/index.php?action_kouhyou_detail_004_kani=true&JigyosyoCd=0873600456-00&ServiceCd=510&Type=search" }, "geometry": { "type": "Point", "coordinates": [ 140.6042665, 36.0818257 ] } },
{ "type": "Feature", "properties": { "内容": "特別養護老人ホーム藤の家【介護老人福祉施設】茨城県鉾田市湯坪2166番8", "url2": "https://www.kaigokensaku.mhlw.go.jp/08/index.php?action_kouhyou_detail_004_kani=true&JigyosyoCd=0875400210-00&ServiceCd=510&Type=search" }, "geometry": { "type": "Point", "coordinates": [ 140.5328946, 36.1780044 ] } },
{ "type": "Feature", "properties": { "内容": "特別養護老人ホーム　鉾田サンハウス【介護老人福祉施設】鉾田市鳥栖2100-9", "url2": "https://www.kaigokensaku.mhlw.go.jp/08/index.php?action_kouhyou_detail_004_kani=true&JigyosyoCd=0875400129-00&ServiceCd=510&Type=search" }, "geometry": { "type": "Point", "coordinates": [ 140.479444199999989, 36.1959489 ] } },
{ "type": "Feature", "properties": { "内容": "特別養護老人ホーム樅の木荘【介護老人福祉施設】鉾田市樅山500番地1", "url2": "https://www.kaigokensaku.mhlw.go.jp/08/index.php?action_kouhyou_detail_004_kani=true&JigyosyoCd=0873600084-00&ServiceCd=510&Type=search" }, "geometry": { "type": "Point", "coordinates": [ 140.553913200000011, 36.1990757 ] } },
{ "type": "Feature", "properties": { "内容": "特別養護老人ホーム東湖園【介護老人福祉施設】茨城県鉾田市安房１６７０－１２", "url2": "https://www.kaigokensaku.mhlw.go.jp/08/index.php?action_kouhyou_detail_004_kani=true&JigyosyoCd=0873600142-00&ServiceCd=510&Type=search" }, "geometry": { "type": "Point", "coordinates": [ 140.527076699999952, 36.1655114 ] } },
{ "type": "Feature", "properties": { "内容": "特別養護老人ホーム　東湖園【介護老人福祉施設】茨城県鉾田市安房1670-12", "url2": "https://www.kaigokensaku.mhlw.go.jp/08/index.php?action_kouhyou_detail_004_kani=true&JigyosyoCd=0875400145-00&ServiceCd=510&Type=search" }, "geometry": { "type": "Point", "coordinates": [ 140.527446844844008, 36.165844869255487 ] } },
{ "type": "Feature", "properties": { "内容": "特別養護老人ホーム藤の家【介護老人福祉施設】湯坪２１６６番８", "url2": "https://www.kaigokensaku.mhlw.go.jp/08/index.php?action_kouhyou_detail_004_kani=true&JigyosyoCd=0875400228-00&ServiceCd=510&Type=search" }, "geometry": { "type": "Point", "coordinates": [ 140.532798899999989, 36.1779487 ] } },
{ "type": "Feature", "properties": { "内容": "特別養護老人ホームぬくもり荘(多床室)【介護老人福祉施設】茨城県つくばみらい市古川１０４７", "url2": "https://www.kaigokensaku.mhlw.go.jp/08/index.php?action_kouhyou_detail_004_kani=true&JigyosyoCd=0874000037-00&ServiceCd=510&Type=search" }, "geometry": { "type": "Point", "coordinates": [ 140.013099, 35.9927669 ] } },
{ "type": "Feature", "properties": { "内容": "特別養護老人ホームぬくもり荘(ユニット型個室)【介護老人福祉施設】茨城県つくばみらい市古川1047", "url2": "https://www.kaigokensaku.mhlw.go.jp/08/index.php?action_kouhyou_detail_004_kani=true&JigyosyoCd=0875500225-00&ServiceCd=510&Type=search" }, "geometry": { "type": "Point", "coordinates": [ 140.013110099999949, 35.9927419 ] } },
{ "type": "Feature", "properties": { "内容": "特別養護老人ホーム　いなの里【介護老人福祉施設】つくばみらい市長渡呂新田840－2", "url2": "https://www.kaigokensaku.mhlw.go.jp/08/index.php?action_kouhyou_detail_004_kani=true&JigyosyoCd=0874000110-00&ServiceCd=510&Type=search" }, "geometry": { "type": "Point", "coordinates": [ 140.02731, 35.9567133 ] } },
{ "type": "Feature", "properties": { "内容": "特別養護老人ホーム　いなの里【介護老人福祉施設】茨城県つくばみらい市長渡呂新田840－2", "url2": "https://www.kaigokensaku.mhlw.go.jp/08/index.php?action_kouhyou_detail_004_kani=true&JigyosyoCd=0875500233-00&ServiceCd=510&Type=search" }, "geometry": { "type": "Point", "coordinates": [ 140.02731, 35.9567133 ] } },
{ "type": "Feature", "properties": { "内容": "特別養護老人ホーム雅荘【介護老人福祉施設】茨城県つくばみらい市福岡1199", "url2": "https://www.kaigokensaku.mhlw.go.jp/08/index.php?action_kouhyou_detail_004_kani=true&JigyosyoCd=0875500175-00&ServiceCd=510&Type=search" }, "geometry": { "type": "Point", "coordinates": [ 140.032781973016426, 36.024189699202424 ] } },
{ "type": "Feature", "properties": { "内容": "特別養護老人ホーム百里サンハウス(ユニット型)【介護老人福祉施設】茨城県小美玉市下吉影2437-109", "url2": "https://www.kaigokensaku.mhlw.go.jp/08/index.php?action_kouhyou_detail_004_kani=true&JigyosyoCd=0875600314-00&ServiceCd=510&Type=search" }, "geometry": { "type": "Point", "coordinates": [ 140.429238510775804, 36.169153766173487 ] } },
{ "type": "Feature", "properties": { "内容": "特別養護老人ホーム百里サンハウス【介護老人福祉施設】小美玉市下吉影2347-109", "url2": "https://www.kaigokensaku.mhlw.go.jp/08/index.php?action_kouhyou_detail_004_kani=true&JigyosyoCd=0873100317-00&ServiceCd=510&Type=search" }, "geometry": { "type": "Point", "coordinates": [ 140.438647700000047, 36.2014359 ] } },
{ "type": "Feature", "properties": { "内容": "特別養護老人ホームほのか【介護老人福祉施設】茨城県小美玉市中台145-4", "url2": "https://www.kaigokensaku.mhlw.go.jp/08/index.php?action_kouhyou_detail_004_kani=true&JigyosyoCd=0875600215-00&ServiceCd=510&Type=search" }, "geometry": { "type": "Point", "coordinates": [ 140.3161182, 36.2240343 ] } },
{ "type": "Feature", "properties": { "内容": "特別養護老人ホームほのか【介護老人福祉施設】茨城県小美玉市中台145-4", "url2": "https://www.kaigokensaku.mhlw.go.jp/08/index.php?action_kouhyou_detail_004_kani=true&JigyosyoCd=0875600504-00&ServiceCd=510&Type=search" }, "geometry": { "type": "Point", "coordinates": [ 140.316327002243526, 36.224775473777555 ] } },
{ "type": "Feature", "properties": { "内容": "美野里陽だまり館【介護老人福祉施設】茨城県小美玉市花野井字中丸358番地55", "url2": "https://www.kaigokensaku.mhlw.go.jp/08/index.php?action_kouhyou_detail_004_kani=true&JigyosyoCd=0875600553-00&ServiceCd=510&Type=search" }, "geometry": { "type": "Point", "coordinates": [ 140.3094877, 36.2304642 ] } },
{ "type": "Feature", "properties": { "内容": "美野里陽だまり館【介護老人福祉施設】茨城県小美玉市花野井字中丸358番地55", "url2": "https://www.kaigokensaku.mhlw.go.jp/08/index.php?action_kouhyou_detail_004_kani=true&JigyosyoCd=0875600561-00&ServiceCd=510&Type=search" }, "geometry": { "type": "Point", "coordinates": [ 140.313309080905299, 36.234479035354646 ] } },
{ "type": "Feature", "properties": { "内容": "特別養護老人ホームくらしテラス小美玉【介護老人福祉施設】茨城県小美玉市野田197番地1", "url2": "https://www.kaigokensaku.mhlw.go.jp/08/index.php?action_kouhyou_detail_004_kani=true&JigyosyoCd=0875600603-00&ServiceCd=510&Type=search" }, "geometry": { "type": "Point", "coordinates": [ 140.368273, 36.1845442 ] } },
{ "type": "Feature", "properties": { "内容": "特別養護老人ホームくらしテラス小美玉【介護老人福祉施設】茨城県小美玉市野田197番地1", "url2": "https://www.kaigokensaku.mhlw.go.jp/08/index.php?action_kouhyou_detail_004_kani=true&JigyosyoCd=0875600611-00&ServiceCd=510&Type=search" }, "geometry": { "type": "Point", "coordinates": [ 140.368273, 36.1845442 ] } },
{ "type": "Feature", "properties": { "内容": "特別養護老人ホーム　サンホーム竹原【介護老人福祉施設】小美玉市竹原４０５－６", "url2": "https://www.kaigokensaku.mhlw.go.jp/08/index.php?action_kouhyou_detail_004_kani=true&JigyosyoCd=0873100952-00&ServiceCd=510&Type=search" }, "geometry": { "type": "Point", "coordinates": [ 140.3303201, 36.2138302 ] } },
{ "type": "Feature", "properties": { "内容": "特別養護老人ホーム　あいおんの里羽鳥【介護老人福祉施設】茨城県小美玉市羽刈653-7", "url2": "https://www.kaigokensaku.mhlw.go.jp/08/index.php?action_kouhyou_detail_004_kani=true&JigyosyoCd=0875600355-00&ServiceCd=510&Type=search" }, "geometry": { "type": "Point", "coordinates": [ 140.305992058474743, 36.250875635124309 ] } },
{ "type": "Feature", "properties": { "内容": "特別養護老人ホーム　あいおんの里羽鳥多床室【介護老人福祉施設】茨城県小美玉市羽刈653-7", "url2": "https://www.kaigokensaku.mhlw.go.jp/08/index.php?action_kouhyou_detail_004_kani=true&JigyosyoCd=0875600496-00&ServiceCd=510&Type=search" }, "geometry": { "type": "Point", "coordinates": [ 140.305975965220682, 36.250784787864042 ] } },
{ "type": "Feature", "properties": { "内容": "特別養護老人ホーム　晴風園【介護老人福祉施設】茨城県小美玉市高崎2032番地8", "url2": "https://www.kaigokensaku.mhlw.go.jp/08/index.php?action_kouhyou_detail_004_kani=true&JigyosyoCd=0873900161-00&ServiceCd=510&Type=search" }, "geometry": { "type": "Point", "coordinates": [ 140.3083514, 36.1680398 ] } },
{ "type": "Feature", "properties": { "内容": "特別養護老人ホーム　晴風園【介護老人福祉施設】茨城県小美玉市高崎2032番地8", "url2": "https://www.kaigokensaku.mhlw.go.jp/08/index.php?action_kouhyou_detail_004_kani=true&JigyosyoCd=0875600306-00&ServiceCd=510&Type=search" }, "geometry": { "type": "Point", "coordinates": [ 140.308820431352245, 36.167695604754471 ] } },
{ "type": "Feature", "properties": { "内容": "特別養護老人ホーム　ルミエ・デ・ソレイユ【介護老人福祉施設】茨城県小美玉市山野707-13特別養護老人ホーム　ルミエ・デ・ソレイユ", "url2": "https://www.kaigokensaku.mhlw.go.jp/08/index.php?action_kouhyou_detail_004_kani=true&JigyosyoCd=0875600371-00&ServiceCd=510&Type=search" }, "geometry": { "type": "Point", "coordinates": [ 140.3739756, 36.1687459 ] } },
{ "type": "Feature", "properties": { "内容": "社会福祉法人　青丘　　　　特別養護老人ホーム　青丘園【介護老人福祉施設】茨城県小美玉市橋場美５１９－１", "url2": "https://www.kaigokensaku.mhlw.go.jp/08/index.php?action_kouhyou_detail_004_kani=true&JigyosyoCd=0873100382-00&ServiceCd=510&Type=search" }, "geometry": { "type": "Point", "coordinates": [ 140.3750374, 36.2539706 ] } },
{ "type": "Feature", "properties": { "内容": "特別養護老人ホームみどりの杜【介護老人福祉施設】茨城県東茨城郡茨城町大字小幡字北山２７６５－４", "url2": "https://www.kaigokensaku.mhlw.go.jp/08/index.php?action_kouhyou_detail_004_kani=true&JigyosyoCd=0873101455-00&ServiceCd=510&Type=search" }, "geometry": { "type": "Point", "coordinates": [ 140.395721, 36.2644086 ] } },
{ "type": "Feature", "properties": { "内容": "特別養護老人ホーム　けやき園【介護老人福祉施設】茨城県東茨城郡茨城町下座７５５", "url2": "https://www.kaigokensaku.mhlw.go.jp/08/index.php?action_kouhyou_detail_004_kani=true&JigyosyoCd=0873100838-00&ServiceCd=510&Type=search" }, "geometry": { "type": "Point", "coordinates": [ 140.4011878, 36.2509997 ] } },
{ "type": "Feature", "properties": { "内容": "特別養護老人ホームときわ木園【介護老人福祉施設】東茨城郡茨城町若宮393-6", "url2": "https://www.kaigokensaku.mhlw.go.jp/08/index.php?action_kouhyou_detail_004_kani=true&JigyosyoCd=0873100275-00&ServiceCd=510&Type=search" }, "geometry": { "type": "Point", "coordinates": [ 140.495490099999984, 36.3087329 ] } },
{ "type": "Feature", "properties": { "内容": "特別養護老人ホーム　桜の郷元気【介護老人福祉施設】茨城県東茨城郡茨城町桜の郷231－7", "url2": "https://www.kaigokensaku.mhlw.go.jp/08/index.php?action_kouhyou_detail_004_kani=true&JigyosyoCd=0873101091-00&ServiceCd=510&Type=search" }, "geometry": { "type": "Point", "coordinates": [ 140.408419699999968, 36.3230825 ] } },
{ "type": "Feature", "properties": { "内容": "特別養護老人ホームひぬま苑【介護老人福祉施設】茨城県東茨城郡大洗町大貫町3269-1", "url2": "https://www.kaigokensaku.mhlw.go.jp/08/index.php?action_kouhyou_detail_004_kani=true&JigyosyoCd=0873100333-00&ServiceCd=510&Type=search" }, "geometry": { "type": "Point", "coordinates": [ 140.554571, 36.3053352 ] } },
{ "type": "Feature", "properties": { "内容": "特別養護老人ホーム　うみべの家【介護老人福祉施設】茨城県東茨城郡大洗町大貫町255-5", "url2": "https://www.kaigokensaku.mhlw.go.jp/08/index.php?action_kouhyou_detail_004_kani=true&JigyosyoCd=0873101307-00&ServiceCd=510&Type=search" }, "geometry": { "type": "Point", "coordinates": [ 140.561209400000052, 36.3013386 ] } },
{ "type": "Feature", "properties": { "内容": "ケアステーション城里【介護老人福祉施設】茨城県東茨城郡城里町上圷624-1", "url2": "https://www.kaigokensaku.mhlw.go.jp/08/index.php?action_kouhyou_detail_004_kani=true&JigyosyoCd=0873101844-00&ServiceCd=510&Type=search" }, "geometry": { "type": "Point", "coordinates": [ 140.3743976, 36.4956106 ] } },
{ "type": "Feature", "properties": { "内容": "特別養護老人ホーム　グリーンなかさい【介護老人福祉施設】茨城県東茨城郡城里町那珂西1483-3", "url2": "https://www.kaigokensaku.mhlw.go.jp/08/index.php?action_kouhyou_detail_004_kani=true&JigyosyoCd=0873100267-00&ServiceCd=510&Type=search" }, "geometry": { "type": "Point", "coordinates": [ 140.398714199999972, 36.4669428 ] } },
{ "type": "Feature", "properties": { "内容": "ケアステーション城里【介護老人福祉施設】茨城県東茨城郡城里町上圷624-1", "url2": "https://www.kaigokensaku.mhlw.go.jp/08/index.php?action_kouhyou_detail_004_kani=true&JigyosyoCd=0873101836-00&ServiceCd=510&Type=search" }, "geometry": { "type": "Point", "coordinates": [ 140.3743976, 36.4956106 ] } },
{ "type": "Feature", "properties": { "内容": "特別養護老人ホーム　オークス東海【介護老人福祉施設】茨城県那珂郡東海村船場５８８－７", "url2": "https://www.kaigokensaku.mhlw.go.jp/08/index.php?action_kouhyou_detail_004_kani=true&JigyosyoCd=0873301097-00&ServiceCd=510&Type=search" }, "geometry": { "type": "Point", "coordinates": [ 140.546589600000061, 36.4498096 ] } },
{ "type": "Feature", "properties": { "内容": "特別養護老人ホーム　常陸東海園【介護老人福祉施設】茨城県那珂郡東海村村松2804-4", "url2": "https://www.kaigokensaku.mhlw.go.jp/08/index.php?action_kouhyou_detail_004_kani=true&JigyosyoCd=0873300180-00&ServiceCd=510&Type=search" }, "geometry": { "type": "Point", "coordinates": [ 140.57597211838538, 36.450413855048666 ] } },
{ "type": "Feature", "properties": { "内容": "特別養護老人ホーム　すみれ【介護老人福祉施設】茨城県那珂郡東海村船場703-7", "url2": "https://www.kaigokensaku.mhlw.go.jp/08/index.php?action_kouhyou_detail_004_kani=true&JigyosyoCd=0873301014-00&ServiceCd=510&Type=search" }, "geometry": { "type": "Point", "coordinates": [ 140.5450088, 36.4622914 ] } },
{ "type": "Feature", "properties": { "内容": "特別養護老人ホーム　あいおんの丘大子【介護老人福祉施設】茨城県久慈郡大子町初原字前ノ沢294番", "url2": "https://www.kaigokensaku.mhlw.go.jp/08/index.php?action_kouhyou_detail_004_kani=true&JigyosyoCd=0873400428-00&ServiceCd=510&Type=search" }, "geometry": { "type": "Point", "coordinates": [ 140.318207256388831, 36.799957721906232 ] } },
{ "type": "Feature", "properties": { "内容": "特別養護老人ホーム　久慈川荘【介護老人福祉施設】茨城県久慈郡大子町北田気551-1", "url2": "https://www.kaigokensaku.mhlw.go.jp/08/index.php?action_kouhyou_detail_004_kani=true&JigyosyoCd=0873400121-00&ServiceCd=510&Type=search" }, "geometry": { "type": "Point", "coordinates": [ 140.3602237, 36.7645884 ] } },
{ "type": "Feature", "properties": { "内容": "特別養護老人ホームエミール【介護老人福祉施設】茨城県稲敷郡美浦村信太2842番1", "url2": "https://www.kaigokensaku.mhlw.go.jp/08/index.php?action_kouhyou_detail_004_kani=true&JigyosyoCd=0873801435-00&ServiceCd=510&Type=search" }, "geometry": { "type": "Point", "coordinates": [ 140.3146457, 35.9891532 ] } },
{ "type": "Feature", "properties": { "内容": "特別養護老人ホームエミール【介護老人福祉施設】茨城県稲敷郡美浦村信太2842番1特別養護老人ホームエミール", "url2": "https://www.kaigokensaku.mhlw.go.jp/08/index.php?action_kouhyou_detail_004_kani=true&JigyosyoCd=0873801443-00&ServiceCd=510&Type=search" }, "geometry": { "type": "Point", "coordinates": [ 140.3146457, 35.9891532 ] } },
{ "type": "Feature", "properties": { "内容": "特別養護老人ホームみほ【介護老人福祉施設】稲敷郡美浦村受領881", "url2": "https://www.kaigokensaku.mhlw.go.jp/08/index.php?action_kouhyou_detail_004_kani=true&JigyosyoCd=0873800593-00&ServiceCd=510&Type=search" }, "geometry": { "type": "Point", "coordinates": [ 140.3122909, 36.0035652 ] } },
{ "type": "Feature", "properties": { "内容": "特別養護老人ホーム阿見翔裕園【介護老人福祉施設】茨城県稲敷郡阿見町阿見字阿見原5137番地", "url2": "https://www.kaigokensaku.mhlw.go.jp/08/index.php?action_kouhyou_detail_004_kani=true&JigyosyoCd=0873800213-00&ServiceCd=510&Type=search" }, "geometry": { "type": "Point", "coordinates": [ 140.198750931013478, 36.030499809357536 ] } },
{ "type": "Feature", "properties": { "内容": "特別養護老人ホーム　セントラル阿見【介護老人福祉施設】茨城県稲敷郡阿見町荒川本郷179-23", "url2": "https://www.kaigokensaku.mhlw.go.jp/08/index.php?action_kouhyou_detail_004_kani=true&JigyosyoCd=0873801419-00&ServiceCd=510&Type=search" }, "geometry": { "type": "Point", "coordinates": [ 140.160454113128907, 36.013701025300833 ] } },
{ "type": "Feature", "properties": { "内容": "特別養護老人ホーム　阿見こなん【介護老人福祉施設】茨城県稲敷郡阿見町南平台１－３３－１０", "url2": "https://www.kaigokensaku.mhlw.go.jp/08/index.php?action_kouhyou_detail_004_kani=true&JigyosyoCd=0873801013-00&ServiceCd=510&Type=search" }, "geometry": { "type": "Point", "coordinates": [ 140.255320500000039, 36.022330699999983 ] } },
{ "type": "Feature", "properties": { "内容": "特別養護老人ホーム阿見こなん（従来型）【介護老人福祉施設】茨城県稲敷郡阿見町南平台1-33-10", "url2": "https://www.kaigokensaku.mhlw.go.jp/08/index.php?action_kouhyou_detail_004_kani=true&JigyosyoCd=0873801542-00&ServiceCd=510&Type=search" }, "geometry": { "type": "Point", "coordinates": [ 140.255193600000013, 36.022113 ] } },
{ "type": "Feature", "properties": { "内容": "特別養護老人ホームあじさい苑【介護老人福祉施設】茨城県稲敷郡河内町生板字横間8907番地", "url2": "https://www.kaigokensaku.mhlw.go.jp/08/index.php?action_kouhyou_detail_004_kani=true&JigyosyoCd=0873800577-00&ServiceCd=510&Type=search" }, "geometry": { "type": "Point", "coordinates": [ 140.223500699999931, 35.8768722 ] } },
{ "type": "Feature", "properties": { "内容": "特別養護老人ホーム　千の風・河内【介護老人福祉施設】稲敷郡河内町生坂4627", "url2": "https://www.kaigokensaku.mhlw.go.jp/08/index.php?action_kouhyou_detail_004_kani=true&JigyosyoCd=0873800924-00&ServiceCd=510&Type=search" }, "geometry": { "type": "Point", "coordinates": [ 140.218650025131211, 35.890011899097523 ] } },
{ "type": "Feature", "properties": { "内容": "特別養護老人ホーム　玉樹【介護老人福祉施設】茨城県結城郡八千代町大字菅谷字新田山1021-1", "url2": "https://www.kaigokensaku.mhlw.go.jp/08/index.php?action_kouhyou_detail_004_kani=true&JigyosyoCd=0874200371-00&ServiceCd=510&Type=search" }, "geometry": { "type": "Point", "coordinates": [ 139.888964123911137, 36.180168779649186 ] } },
{ "type": "Feature", "properties": { "内容": "特別養護老人ホームフィオーレ【介護老人福祉施設】茨城県結城郡八千代町栗山229-1", "url2": "https://www.kaigokensaku.mhlw.go.jp/08/index.php?action_kouhyou_detail_004_kani=true&JigyosyoCd=0874200553-00&ServiceCd=510&Type=search" }, "geometry": { "type": "Point", "coordinates": [ 139.9063808, 36.1533351 ] } },
{ "type": "Feature", "properties": { "内容": "特別養護老人ホーム　きららの杜【介護老人福祉施設】茨城県猿島郡五霞町元栗橋7331-1", "url2": "https://www.kaigokensaku.mhlw.go.jp/08/index.php?action_kouhyou_detail_004_kani=true&JigyosyoCd=0874300775-00&ServiceCd=510&Type=search" }, "geometry": { "type": "Point", "coordinates": [ 139.728611399999977, 36.1115239 ] } },
{ "type": "Feature", "properties": { "内容": "特別養護老人ホーム　ファミール境【介護老人福祉施設】茨城県猿島郡境町塚崎４８６４", "url2": "https://www.kaigokensaku.mhlw.go.jp/08/index.php?action_kouhyou_detail_004_kani=true&JigyosyoCd=0874300130-00&ServiceCd=510&Type=search" }, "geometry": { "type": "Point", "coordinates": [ 139.779917699999942, 36.1179163 ] } },
{ "type": "Feature", "properties": { "内容": "特別養護老人ホームやまなみ園【介護老人福祉施設】茨城県北相馬郡利根町立木909", "url2": "https://www.kaigokensaku.mhlw.go.jp/08/index.php?action_kouhyou_detail_004_kani=true&JigyosyoCd=0874400229-00&ServiceCd=510&Type=search" }, "geometry": { "type": "Point", "coordinates": [ 140.180780700000014, 35.8712743 ] } }
]
}
