{
"type": "FeatureCollection",
"name": "geo_08_介護老人保健施設",
"crs": { "type": "name", "properties": { "name": "urn:ogc:def:crs:OGC:1.3:CRS84" } },
"features": [
{ "type": "Feature", "properties": { "内容": "介護老人保健施設　はなみずき【介護老人保健施設】茨城県水戸市東原3-2-8", "url2": "https://www.kaigokensaku.mhlw.go.jp/08/index.php?action_kouhyou_detail_004_kani=true&JigyosyoCd=0850180126-00&ServiceCd=520&Type=search" }, "geometry": { "type": "Point", "coordinates": [ 140.446761599999945, 36.3862421 ] } },
{ "type": "Feature", "properties": { "内容": "介護老人保健施設ひまわり水戸【介護老人保健施設】茨城県水戸市百合が丘町814-477", "url2": "https://www.kaigokensaku.mhlw.go.jp/08/index.php?action_kouhyou_detail_004_kani=true&JigyosyoCd=0850180134-00&ServiceCd=520&Type=search" }, "geometry": { "type": "Point", "coordinates": [ 140.5073332, 36.3505823 ] } },
{ "type": "Feature", "properties": { "内容": "介護老人保健施設　はなみずき【介護老人保健施設】茨城県水戸市東原3-2-8", "url2": "https://www.kaigokensaku.mhlw.go.jp/08/index.php?action_kouhyou_detail_004_kani=true&JigyosyoCd=0850180076-00&ServiceCd=520&Type=search" }, "geometry": { "type": "Point", "coordinates": [ 140.446761599999945, 36.3862421 ] } },
{ "type": "Feature", "properties": { "内容": "介護老人保健施設　くるみ館【介護老人保健施設】茨城県水戸市河和田町3335-1", "url2": "https://www.kaigokensaku.mhlw.go.jp/08/index.php?action_kouhyou_detail_004_kani=true&JigyosyoCd=0850180019-00&ServiceCd=520&Type=search" }, "geometry": { "type": "Point", "coordinates": [ 140.402246699999978, 36.3672261 ] } },
{ "type": "Feature", "properties": { "内容": "介護老人保健施設しもいち【介護老人保健施設】茨城県水戸市柳町２－１０－１１", "url2": "https://www.kaigokensaku.mhlw.go.jp/08/index.php?action_kouhyou_detail_004_kani=true&JigyosyoCd=0850180092-00&ServiceCd=520&Type=search" }, "geometry": { "type": "Point", "coordinates": [ 140.490092499999946, 36.3655168 ] } },
{ "type": "Feature", "properties": { "内容": "介護老人保健施設　つまさと【介護老人保健施設】茨城県水戸市有賀町2228", "url2": "https://www.kaigokensaku.mhlw.go.jp/08/index.php?action_kouhyou_detail_004_kani=true&JigyosyoCd=0853180040-00&ServiceCd=520&Type=search" }, "geometry": { "type": "Point", "coordinates": [ 140.363063199999942, 36.3823183 ] } },
{ "type": "Feature", "properties": { "内容": "介護老人保健施設　みがわ【介護老人保健施設】茨城県　水戸市　見川町　2131-105", "url2": "https://www.kaigokensaku.mhlw.go.jp/08/index.php?action_kouhyou_detail_004_kani=true&JigyosyoCd=0850180050-00&ServiceCd=520&Type=search" }, "geometry": { "type": "Point", "coordinates": [ 140.425706, 36.358442 ] } },
{ "type": "Feature", "properties": { "内容": "介護老人保健施設　ひまわり水戸【介護老人保健施設】百合が丘町814-477", "url2": "https://www.kaigokensaku.mhlw.go.jp/08/index.php?action_kouhyou_detail_004_kani=true&JigyosyoCd=0850180100-00&ServiceCd=520&Type=search" }, "geometry": { "type": "Point", "coordinates": [ 140.507287248934972, 36.350698266117526 ] } },
{ "type": "Feature", "properties": { "内容": "介護老人保健施設　ナーシングホームかたくり【介護老人保健施設】茨城県水戸市河和田町4516-1", "url2": "https://www.kaigokensaku.mhlw.go.jp/08/index.php?action_kouhyou_detail_004_kani=true&JigyosyoCd=0850180027-00&ServiceCd=520&Type=search" }, "geometry": { "type": "Point", "coordinates": [ 140.392487, 36.3485814 ] } },
{ "type": "Feature", "properties": { "内容": "介護老人保健施設　大串の里【介護老人保健施設】茨城県水戸市大串町５８４番1", "url2": "https://www.kaigokensaku.mhlw.go.jp/08/index.php?action_kouhyou_detail_004_kani=true&JigyosyoCd=0850180084-00&ServiceCd=520&Type=search" }, "geometry": { "type": "Point", "coordinates": [ 140.54222290000007, 36.3322786 ] } },
{ "type": "Feature", "properties": { "内容": "介護老人保健施設はぁもにか【介護老人保健施設】茨城県水戸市石川４－４０３９－２６", "url2": "https://www.kaigokensaku.mhlw.go.jp/08/index.php?action_kouhyou_detail_004_kani=true&JigyosyoCd=0850180068-00&ServiceCd=520&Type=search" }, "geometry": { "type": "Point", "coordinates": [ 140.42376349999995, 36.3911072 ] } },
{ "type": "Feature", "properties": { "内容": "介護老人保健施設こすもぴあ【介護老人保健施設】茨城県水戸市石川４－４０２７", "url2": "https://www.kaigokensaku.mhlw.go.jp/08/index.php?action_kouhyou_detail_004_kani=true&JigyosyoCd=0850180035-00&ServiceCd=520&Type=search" }, "geometry": { "type": "Point", "coordinates": [ 140.424302399999988, 36.3899824 ] } },
{ "type": "Feature", "properties": { "内容": "介護老人保健施設渡里の里【介護老人保健施設】茨城県水戸市渡里町285-1", "url2": "https://www.kaigokensaku.mhlw.go.jp/08/index.php?action_kouhyou_detail_004_kani=true&JigyosyoCd=0850180118-00&ServiceCd=520&Type=search" }, "geometry": { "type": "Point", "coordinates": [ 140.450667740475438, 36.403516870367504 ] } },
{ "type": "Feature", "properties": { "内容": "介護老人保健施設　葵の園・水戸中央【介護老人保健施設】茨城県水戸市米沢町608-1", "url2": "https://www.kaigokensaku.mhlw.go.jp/08/index.php?action_kouhyou_detail_004_kani=true&JigyosyoCd=0850180142-00&ServiceCd=520&Type=search" }, "geometry": { "type": "Point", "coordinates": [ 140.4587515, 36.3371415 ] } },
{ "type": "Feature", "properties": { "内容": "ひたちの森　ハピネス【介護老人保健施設】茨城県日立市十王町伊師725-1", "url2": "https://www.kaigokensaku.mhlw.go.jp/08/index.php?action_kouhyou_detail_004_kani=true&JigyosyoCd=0850280059-00&ServiceCd=520&Type=search" }, "geometry": { "type": "Point", "coordinates": [ 140.712244199999986, 36.6680669 ] } },
{ "type": "Feature", "properties": { "内容": "介護老人保健施設　さくら日立【介護老人保健施設】日立市城南町1-1-11", "url2": "https://www.kaigokensaku.mhlw.go.jp/08/index.php?action_kouhyou_detail_004_kani=true&JigyosyoCd=0850280033-00&ServiceCd=520&Type=search" }, "geometry": { "type": "Point", "coordinates": [ 140.647667599999977, 36.5863109 ] } },
{ "type": "Feature", "properties": { "内容": "介護老人保健施設　日立南ヘルシーセンター【介護老人保健施設】茨城県日立市大みか町6-17-1", "url2": "https://www.kaigokensaku.mhlw.go.jp/08/index.php?action_kouhyou_detail_004_kani=true&JigyosyoCd=0850280025-00&ServiceCd=520&Type=search" }, "geometry": { "type": "Point", "coordinates": [ 140.60827665078736, 36.511709461305877 ] } },
{ "type": "Feature", "properties": { "内容": "介護老人保健施設　田尻ヶ丘ヘルシーケア【介護老人保健施設】日立市田尻町２－８－１１", "url2": "https://www.kaigokensaku.mhlw.go.jp/08/index.php?action_kouhyou_detail_004_kani=true&JigyosyoCd=0850280017-00&ServiceCd=520&Type=search" }, "geometry": { "type": "Point", "coordinates": [ 140.666397299999971, 36.6333947 ] } },
{ "type": "Feature", "properties": { "内容": "医療法人圭友会　介護老人保健施設　藍【介護老人保健施設】茨城県日立市千石町2丁目11-14", "url2": "https://www.kaigokensaku.mhlw.go.jp/08/index.php?action_kouhyou_detail_004_kani=true&JigyosyoCd=0850280066-00&ServiceCd=520&Type=search" }, "geometry": { "type": "Point", "coordinates": [ 140.627490116641866, 36.553493245515057 ] } },
{ "type": "Feature", "properties": { "内容": "介護老人保健施設　しおさい【介護老人保健施設】茨城県日立市国分町3-6-1", "url2": "https://www.kaigokensaku.mhlw.go.jp/08/index.php?action_kouhyou_detail_004_kani=true&JigyosyoCd=0850280074-00&ServiceCd=520&Type=search" }, "geometry": { "type": "Point", "coordinates": [ 140.648081600000012, 36.5652295 ] } },
{ "type": "Feature", "properties": { "内容": "介護老人保健施設　いっせい【介護老人保健施設】茨城県土浦市東崎6-15", "url2": "https://www.kaigokensaku.mhlw.go.jp/08/index.php?action_kouhyou_detail_004_kani=true&JigyosyoCd=0850380064-00&ServiceCd=520&Type=search" }, "geometry": { "type": "Point", "coordinates": [ 140.206396600000062, 36.082816 ] } },
{ "type": "Feature", "properties": { "内容": "介護老人保健施設ひかり【介護老人保健施設】茨城県土浦市右籾１１１３－１", "url2": "https://www.kaigokensaku.mhlw.go.jp/08/index.php?action_kouhyou_detail_004_kani=true&JigyosyoCd=0850380031-00&ServiceCd=520&Type=search" }, "geometry": { "type": "Point", "coordinates": [ 140.181744200000054, 36.0498057 ] } },
{ "type": "Feature", "properties": { "内容": "介護老人保健施設　さくら【介護老人保健施設】茨城県土浦市神立町字前原444番地2号", "url2": "https://www.kaigokensaku.mhlw.go.jp/08/index.php?action_kouhyou_detail_004_kani=true&JigyosyoCd=0850380015-00&ServiceCd=520&Type=search" }, "geometry": { "type": "Point", "coordinates": [ 140.240574025795013, 36.105160731779158 ] } },
{ "type": "Feature", "properties": { "内容": "介護老人保健施設　セントラル土浦【介護老人保健施設】茨城県土浦市真鍋新町12番10号", "url2": "https://www.kaigokensaku.mhlw.go.jp/08/index.php?action_kouhyou_detail_004_kani=true&JigyosyoCd=0850380080-00&ServiceCd=520&Type=search" }, "geometry": { "type": "Point", "coordinates": [ 140.209797500000036, 36.0905062 ] } },
{ "type": "Feature", "properties": { "内容": "介護老人保健施設　常総の郷【介護老人保健施設】茨城県土浦市荒川沖6-110", "url2": "https://www.kaigokensaku.mhlw.go.jp/08/index.php?action_kouhyou_detail_004_kani=true&JigyosyoCd=0850380072-00&ServiceCd=520&Type=search" }, "geometry": { "type": "Point", "coordinates": [ 140.154740700000048, 36.0205279 ] } },
{ "type": "Feature", "properties": { "内容": "介護老人保健施設　シルバーケア土浦【介護老人保健施設】茨城県　土浦市　木田余一丁田台４６０６", "url2": "https://www.kaigokensaku.mhlw.go.jp/08/index.php?action_kouhyou_detail_004_kani=true&JigyosyoCd=0850380023-00&ServiceCd=520&Type=search" }, "geometry": { "type": "Point", "coordinates": [ 140.214181, 36.109379 ] } },
{ "type": "Feature", "properties": { "内容": "介護老人保健施設えがお【介護老人保健施設】茨城県土浦市中村東2-21-1", "url2": "https://www.kaigokensaku.mhlw.go.jp/08/index.php?action_kouhyou_detail_004_kani=true&JigyosyoCd=0850380056-00&ServiceCd=520&Type=search" }, "geometry": { "type": "Point", "coordinates": [ 140.173653, 36.0450171 ] } },
{ "type": "Feature", "properties": { "内容": "青嵐荘ケア・アシスタンス【介護老人保健施設】茨城県古河市上大野703-1", "url2": "https://www.kaigokensaku.mhlw.go.jp/08/index.php?action_kouhyou_detail_004_kani=true&JigyosyoCd=0854380011-00&ServiceCd=520&Type=search" }, "geometry": { "type": "Point", "coordinates": [ 139.774593200000027, 36.2099162 ] } },
{ "type": "Feature", "properties": { "内容": "介護老人保健施設けやきの舎【介護老人保健施設】茨城県古河市仁連601", "url2": "https://www.kaigokensaku.mhlw.go.jp/08/index.php?action_kouhyou_detail_004_kani=true&JigyosyoCd=0850480047-00&ServiceCd=520&Type=search" }, "geometry": { "type": "Point", "coordinates": [ 139.8060194, 36.1830133 ] } },
{ "type": "Feature", "properties": { "内容": "介護老人保健施設まくらがの郷【介護老人保健施設】茨城県古河市東本町四丁目2番2号", "url2": "https://www.kaigokensaku.mhlw.go.jp/08/index.php?action_kouhyou_detail_004_kani=true&JigyosyoCd=0850480021-00&ServiceCd=520&Type=search" }, "geometry": { "type": "Point", "coordinates": [ 139.724112476582377, 36.193752146092514 ] } },
{ "type": "Feature", "properties": { "内容": "医療法人　慈政会　介護老人保健施設　平成園【介護老人保健施設】茨城県古河市旭町１－１７－３９", "url2": "https://www.kaigokensaku.mhlw.go.jp/08/index.php?action_kouhyou_detail_004_kani=true&JigyosyoCd=0850480013-00&ServiceCd=520&Type=search" }, "geometry": { "type": "Point", "coordinates": [ 139.72170570000003, 36.1975717 ] } },
{ "type": "Feature", "properties": { "内容": "介護老人保健施設　八郷プロバンス【介護老人保健施設】石岡市瓦谷766番地の28", "url2": "https://www.kaigokensaku.mhlw.go.jp/08/index.php?action_kouhyou_detail_004_kani=true&JigyosyoCd=0853980027-00&ServiceCd=520&Type=search" }, "geometry": { "type": "Point", "coordinates": [ 140.220418099999961, 36.2646323 ] } },
{ "type": "Feature", "properties": { "内容": "介護老人保健施設サングリーンやさと【介護老人保健施設】茨城県石岡市小倉４４３－１", "url2": "https://www.kaigokensaku.mhlw.go.jp/08/index.php?action_kouhyou_detail_004_kani=true&JigyosyoCd=0853980019-00&ServiceCd=520&Type=search" }, "geometry": { "type": "Point", "coordinates": [ 140.170723299999963, 36.2414678 ] } },
{ "type": "Feature", "properties": { "内容": "医療法人美湖会　介護老人保健施設ウイケア【介護老人保健施設】茨城県石岡市行里川12951-1", "url2": "https://www.kaigokensaku.mhlw.go.jp/08/index.php?action_kouhyou_detail_004_kani=true&JigyosyoCd=0850580036-00&ServiceCd=520&Type=search" }, "geometry": { "type": "Point", "coordinates": [ 140.292727099999979, 36.2089299 ] } },
{ "type": "Feature", "properties": { "内容": "社会福祉法人欅会　介護老人保健施設ゆうゆう【介護老人保健施設】茨城県石岡市大砂10528-14", "url2": "https://www.kaigokensaku.mhlw.go.jp/08/index.php?action_kouhyou_detail_004_kani=true&JigyosyoCd=0850580044-00&ServiceCd=520&Type=search" }, "geometry": { "type": "Point", "coordinates": [ 140.247907, 36.2258031 ] } },
{ "type": "Feature", "properties": { "内容": "医療法人幕内会　介護老人保健施設あいあい【介護老人保健施設】茨城県石岡市東石岡5-2-26", "url2": "https://www.kaigokensaku.mhlw.go.jp/08/index.php?action_kouhyou_detail_004_kani=true&JigyosyoCd=0850580028-00&ServiceCd=520&Type=search" }, "geometry": { "type": "Point", "coordinates": [ 140.292862057685852, 36.189148112824363 ] } },
{ "type": "Feature", "properties": { "内容": "介護老人保健施設　あんしん【介護老人保健施設】茨城県結城市大字結城字西繫昌塚9628-2", "url2": "https://www.kaigokensaku.mhlw.go.jp/08/index.php?action_kouhyou_detail_004_kani=true&JigyosyoCd=0850780032-00&ServiceCd=520&Type=search" }, "geometry": { "type": "Point", "coordinates": [ 139.855296308958117, 36.288784680286291 ] } },
{ "type": "Feature", "properties": { "内容": "介護老人保健施設　すばる【介護老人保健施設】茨城県結城市大字結城１０７８０", "url2": "https://www.kaigokensaku.mhlw.go.jp/08/index.php?action_kouhyou_detail_004_kani=true&JigyosyoCd=0850780040-00&ServiceCd=520&Type=search" }, "geometry": { "type": "Point", "coordinates": [ 139.8494131, 36.3060079 ] } },
{ "type": "Feature", "properties": { "内容": "介護老人保健施設生きいき倶楽部【介護老人保健施設】茨城県結城市大字結城9143-1", "url2": "https://www.kaigokensaku.mhlw.go.jp/08/index.php?action_kouhyou_detail_004_kani=true&JigyosyoCd=0850780024-00&ServiceCd=520&Type=search" }, "geometry": { "type": "Point", "coordinates": [ 139.859954499999958, 36.2858517 ] } },
{ "type": "Feature", "properties": { "内容": "介護老人保健施設　涼風苑【介護老人保健施設】龍ケ崎市貝原塚町3689", "url2": "https://www.kaigokensaku.mhlw.go.jp/08/index.php?action_kouhyou_detail_004_kani=true&JigyosyoCd=0850880014-00&ServiceCd=520&Type=search" }, "geometry": { "type": "Point", "coordinates": [ 140.188090099999954, 35.9421189 ] } },
{ "type": "Feature", "properties": { "内容": "介護老人保健施設ビオラセア【介護老人保健施設】茨城県龍ケ崎市字野原1360-1", "url2": "https://www.kaigokensaku.mhlw.go.jp/08/index.php?action_kouhyou_detail_004_kani=true&JigyosyoCd=0850880030-00&ServiceCd=520&Type=search" }, "geometry": { "type": "Point", "coordinates": [ 140.199660399999971, 35.9118169 ] } },
{ "type": "Feature", "properties": { "内容": "介護老人保健施設　けやきの郷【介護老人保健施設】茨城県龍ケ崎市若柴町字沖餅１７４１－１", "url2": "https://www.kaigokensaku.mhlw.go.jp/08/index.php?action_kouhyou_detail_004_kani=true&JigyosyoCd=0850880022-00&ServiceCd=520&Type=search" }, "geometry": { "type": "Point", "coordinates": [ 140.144392299999936, 35.9237451 ] } },
{ "type": "Feature", "properties": { "内容": "医療法人　光潤会　介護老人保健施設　ルーエしもつま【介護老人保健施設】茨城県下妻市江1832", "url2": "https://www.kaigokensaku.mhlw.go.jp/08/index.php?action_kouhyou_detail_004_kani=true&JigyosyoCd=0851080010-00&ServiceCd=520&Type=search" }, "geometry": { "type": "Point", "coordinates": [ 139.934668699999946, 36.2283614 ] } },
{ "type": "Feature", "properties": { "内容": "介護老人保健施設　しろかね【介護老人保健施設】茨城県下妻市下栗１２１７", "url2": "https://www.kaigokensaku.mhlw.go.jp/08/index.php?action_kouhyou_detail_004_kani=true&JigyosyoCd=0854280013-00&ServiceCd=520&Type=search" }, "geometry": { "type": "Point", "coordinates": [ 139.959218882278492, 36.164071839455794 ] } },
{ "type": "Feature", "properties": { "内容": "介護老人保健施設　葵の園・常総【介護老人保健施設】菅生町1308番地の1", "url2": "https://www.kaigokensaku.mhlw.go.jp/08/index.php?action_kouhyou_detail_004_kani=true&JigyosyoCd=0851180026-00&ServiceCd=520&Type=search" }, "geometry": { "type": "Point", "coordinates": [ 139.934375029608191, 35.989488172266967 ] } },
{ "type": "Feature", "properties": { "内容": "けんちの苑水海道【介護老人保健施設】茨城県常総市豊岡町丙３２６４番地", "url2": "https://www.kaigokensaku.mhlw.go.jp/08/index.php?action_kouhyou_detail_004_kani=true&JigyosyoCd=0851180018-00&ServiceCd=520&Type=search" }, "geometry": { "type": "Point", "coordinates": [ 139.973113300000023, 36.0299288 ] } },
{ "type": "Feature", "properties": { "内容": "介護老人保健施設　くじらヶ丘【介護老人保健施設】茨城県常陸太田市田渡町８５５－１", "url2": "https://www.kaigokensaku.mhlw.go.jp/08/index.php?action_kouhyou_detail_004_kani=true&JigyosyoCd=0851280016-00&ServiceCd=520&Type=search" }, "geometry": { "type": "Point", "coordinates": [ 140.548799899999949, 36.5644003 ] } },
{ "type": "Feature", "properties": { "内容": "介護老人保健施設　博純苑【介護老人保健施設】茨城県高萩市秋山６２５", "url2": "https://www.kaigokensaku.mhlw.go.jp/08/index.php?action_kouhyou_detail_004_kani=true&JigyosyoCd=0851480012-00&ServiceCd=520&Type=search" }, "geometry": { "type": "Point", "coordinates": [ 140.684970300000032, 36.7152799 ] } },
{ "type": "Feature", "properties": { "内容": "介護老人保健施設ノア【介護老人保健施設】茨城県高萩市高浜町3-154-1", "url2": "https://www.kaigokensaku.mhlw.go.jp/08/index.php?action_kouhyou_detail_004_kani=true&JigyosyoCd=0851480020-00&ServiceCd=520&Type=search" }, "geometry": { "type": "Point", "coordinates": [ 140.717926600000055, 36.7021519 ] } },
{ "type": "Feature", "properties": { "内容": "介護老人保健施設ひだまり倶楽部【介護老人保健施設】北茨城市磯原町磯原２－３０５", "url2": "https://www.kaigokensaku.mhlw.go.jp/08/index.php?action_kouhyou_detail_004_kani=true&JigyosyoCd=0851580027-00&ServiceCd=520&Type=search" }, "geometry": { "type": "Point", "coordinates": [ 140.739796699999943, 36.7910925 ] } },
{ "type": "Feature", "properties": { "内容": "介護老人保健施設　おはよう館【介護老人保健施設】茨城県北茨城市磯原町磯原字前大沢1919-4", "url2": "https://www.kaigokensaku.mhlw.go.jp/08/index.php?action_kouhyou_detail_004_kani=true&JigyosyoCd=0851580019-00&ServiceCd=520&Type=search" }, "geometry": { "type": "Point", "coordinates": [ 140.747654054257396, 36.808302996990463 ] } },
{ "type": "Feature", "properties": { "内容": "介護老人保健施設　あたごナーシングビラ【介護老人保健施設】茨城県笠間市土師1080-1", "url2": "https://www.kaigokensaku.mhlw.go.jp/08/index.php?action_kouhyou_detail_004_kani=true&JigyosyoCd=0853280030-00&ServiceCd=520&Type=search" }, "geometry": { "type": "Point", "coordinates": [ 140.297493600000053, 36.3071874 ] } },
{ "type": "Feature", "properties": { "内容": "介護老人保健施設オリーブ友部館【介護老人保健施設】茨城県笠間市旭町32", "url2": "https://www.kaigokensaku.mhlw.go.jp/08/index.php?action_kouhyou_detail_004_kani=true&JigyosyoCd=0851689125-00&ServiceCd=520&Type=search" }, "geometry": { "type": "Point", "coordinates": [ 140.314619048253462, 36.326109299882049 ] } },
{ "type": "Feature", "properties": { "内容": "介護老人保健施設　シルバービィレッジ【介護老人保健施設】笠間市南小泉977-1", "url2": "https://www.kaigokensaku.mhlw.go.jp/08/index.php?action_kouhyou_detail_004_kani=true&JigyosyoCd=0853280022-00&ServiceCd=520&Type=search" }, "geometry": { "type": "Point", "coordinates": [ 140.2851217, 36.3285459 ] } },
{ "type": "Feature", "properties": { "内容": "介護老人保健施設すみれ【介護老人保健施設】茨城県笠間市石井２０４５", "url2": "https://www.kaigokensaku.mhlw.go.jp/08/index.php?action_kouhyou_detail_004_kani=true&JigyosyoCd=0851689117-00&ServiceCd=520&Type=search" }, "geometry": { "type": "Point", "coordinates": [ 140.2479875, 36.3851369 ] } },
{ "type": "Feature", "properties": { "内容": "笠間シルバーケアセンター　パル【介護老人保健施設】茨城県笠間市来栖255-1", "url2": "https://www.kaigokensaku.mhlw.go.jp/08/index.php?action_kouhyou_detail_004_kani=true&JigyosyoCd=0851680017-00&ServiceCd=520&Type=search" }, "geometry": { "type": "Point", "coordinates": [ 140.238759800000025, 36.3780109 ] } },
{ "type": "Feature", "properties": { "内容": "取手市介護老人保健施設緑寿荘【介護老人保健施設】茨城県取手市野々井１９２６番地８", "url2": "https://www.kaigokensaku.mhlw.go.jp/08/index.php?action_kouhyou_detail_004_kani=true&JigyosyoCd=0851780015-00&ServiceCd=520&Type=search" }, "geometry": { "type": "Point", "coordinates": [ 140.025601300000062, 35.9181202 ] } },
{ "type": "Feature", "properties": { "内容": "介護療養型老人保健施設　ネオテラス宗仁会【介護老人保健施設】取手市岡１４９３番地", "url2": "https://www.kaigokensaku.mhlw.go.jp/08/index.php?action_kouhyou_detail_004_kani=true&JigyosyoCd=0851780031-00&ServiceCd=520&Type=search" }, "geometry": { "type": "Point", "coordinates": [ 140.057350700000029, 35.9207796 ] } },
{ "type": "Feature", "properties": { "内容": "医療法人社団　宗仁会　介護老人保健施設　サンライフ宗仁会【介護老人保健施設】茨城県取手市岡１４７１番地", "url2": "https://www.kaigokensaku.mhlw.go.jp/08/index.php?action_kouhyou_detail_004_kani=true&JigyosyoCd=0854480019-00&ServiceCd=520&Type=search" }, "geometry": { "type": "Point", "coordinates": [ 140.056325799999968, 35.9221211 ] } },
{ "type": "Feature", "properties": { "内容": "介護老人保健施設　はあとぴあ【介護老人保健施設】取手市井野２５３", "url2": "https://www.kaigokensaku.mhlw.go.jp/08/index.php?action_kouhyou_detail_004_kani=true&JigyosyoCd=0851780023-00&ServiceCd=520&Type=search" }, "geometry": { "type": "Point", "coordinates": [ 140.086482899999965, 35.9025077 ] } },
{ "type": "Feature", "properties": { "内容": "介護老人保健施設　春秋園【介護老人保健施設】茨城県牛久市猪子町891番地2", "url2": "https://www.kaigokensaku.mhlw.go.jp/08/index.php?action_kouhyou_detail_004_kani=true&JigyosyoCd=0851980029-00&ServiceCd=520&Type=search" }, "geometry": { "type": "Point", "coordinates": [ 140.140951399999949, 35.9985334 ] } },
{ "type": "Feature", "properties": { "内容": "介護老人保健施設　春秋園【介護老人保健施設】茨城県牛久市猪子町891番地2", "url2": "https://www.kaigokensaku.mhlw.go.jp/08/index.php?action_kouhyou_detail_004_kani=true&JigyosyoCd=0851980045-00&ServiceCd=520&Type=search" }, "geometry": { "type": "Point", "coordinates": [ 140.14094590000002, 35.9984973 ] } },
{ "type": "Feature", "properties": { "内容": "介護老人保健施設　セントラルゆうあい【介護老人保健施設】茨城県牛久市柏田町1590-3", "url2": "https://www.kaigokensaku.mhlw.go.jp/08/index.php?action_kouhyou_detail_004_kani=true&JigyosyoCd=0851980011-00&ServiceCd=520&Type=search" }, "geometry": { "type": "Point", "coordinates": [ 140.157139499999971, 35.9824859 ] } },
{ "type": "Feature", "properties": { "内容": "介護老人保健施設　セントラルふれあい【介護老人保健施設】茨城県牛久市柏田町1604番6", "url2": "https://www.kaigokensaku.mhlw.go.jp/08/index.php?action_kouhyou_detail_004_kani=true&JigyosyoCd=0851980037-00&ServiceCd=520&Type=search" }, "geometry": { "type": "Point", "coordinates": [ 140.156509, 35.9811278 ] } },
{ "type": "Feature", "properties": { "内容": "介護老人保健施設プレミエール元気館【介護老人保健施設】茨城県つくば市谷田部6107-1", "url2": "https://www.kaigokensaku.mhlw.go.jp/08/index.php?action_kouhyou_detail_004_kani=true&JigyosyoCd=0852080076-00&ServiceCd=520&Type=search" }, "geometry": { "type": "Point", "coordinates": [ 140.0806513, 36.0424213 ] } },
{ "type": "Feature", "properties": { "内容": "医療法人社団　桜水会　介護老人保健施設「豊浦」【介護老人保健施設】茨城県つくば市神郡2013-1", "url2": "https://www.kaigokensaku.mhlw.go.jp/08/index.php?action_kouhyou_detail_004_kani=true&JigyosyoCd=0852080043-00&ServiceCd=520&Type=search" }, "geometry": { "type": "Point", "coordinates": [ 140.1055503, 36.1917742 ] } },
{ "type": "Feature", "properties": { "内容": "介護老人保健施設アリエッタ【介護老人保健施設】茨城県つくば市北条1174", "url2": "https://www.kaigokensaku.mhlw.go.jp/08/index.php?action_kouhyou_detail_004_kani=true&JigyosyoCd=0852080019-00&ServiceCd=520&Type=search" }, "geometry": { "type": "Point", "coordinates": [ 140.097601700000041, 36.1801972 ] } },
{ "type": "Feature", "properties": { "内容": "医療法人社団双愛会　介護老人保健施設　ひまわり【介護老人保健施設】茨城県つくば市高崎１００８", "url2": "https://www.kaigokensaku.mhlw.go.jp/08/index.php?action_kouhyou_detail_004_kani=true&JigyosyoCd=0852080084-00&ServiceCd=520&Type=search" }, "geometry": { "type": "Point", "coordinates": [ 140.115881599999966, 36.0038966 ] } },
{ "type": "Feature", "properties": { "内容": "介護老人保健施設なでしこ【介護老人保健施設】茨城県つくば市水守2228-2", "url2": "https://www.kaigokensaku.mhlw.go.jp/08/index.php?action_kouhyou_detail_004_kani=true&JigyosyoCd=0852080068-00&ServiceCd=520&Type=search" }, "geometry": { "type": "Point", "coordinates": [ 140.0567686, 36.1549174 ] } },
{ "type": "Feature", "properties": { "内容": "介護老人保健施設そよかぜ【介護老人保健施設】茨城県つくば市上横場2573-1", "url2": "https://www.kaigokensaku.mhlw.go.jp/08/index.php?action_kouhyou_detail_004_kani=true&JigyosyoCd=0852080027-00&ServiceCd=520&Type=search" }, "geometry": { "type": "Point", "coordinates": [ 140.098777399999989, 36.0391148 ] } },
{ "type": "Feature", "properties": { "内容": "介護老人保健施設　つくばリハビリテーションセンター【介護老人保健施設】茨城県つくば市大曽根３６８１", "url2": "https://www.kaigokensaku.mhlw.go.jp/08/index.php?action_kouhyou_detail_004_kani=true&JigyosyoCd=0852080035-00&ServiceCd=520&Type=search" }, "geometry": { "type": "Point", "coordinates": [ 140.080491765745506, 36.138607370879953 ] } },
{ "type": "Feature", "properties": { "内容": "介護老人保健施設　つくばケアセンター【介護老人保健施設】茨城県つくば市要76", "url2": "https://www.kaigokensaku.mhlw.go.jp/08/index.php?action_kouhyou_detail_004_kani=true&JigyosyoCd=0852080050-00&ServiceCd=520&Type=search" }, "geometry": { "type": "Point", "coordinates": [ 140.080319499999973, 36.1085856 ] } },
{ "type": "Feature", "properties": { "内容": "介護老人保健施設　勝田【介護老人保健施設】茨城県ひたちなか市中根5125-2", "url2": "https://www.kaigokensaku.mhlw.go.jp/08/index.php?action_kouhyou_detail_004_kani=true&JigyosyoCd=0852180082-00&ServiceCd=520&Type=search" }, "geometry": { "type": "Point", "coordinates": [ 140.544858799999986, 36.3849732 ] } },
{ "type": "Feature", "properties": { "内容": "介護老人保健施設ラプラス津田【介護老人保健施設】茨城県ひたちなか市津田3728", "url2": "https://www.kaigokensaku.mhlw.go.jp/08/index.php?action_kouhyou_detail_004_kani=true&JigyosyoCd=0852180074-00&ServiceCd=520&Type=search" }, "geometry": { "type": "Point", "coordinates": [ 140.4882556, 36.3930753 ] } },
{ "type": "Feature", "properties": { "内容": "介護老人保健施設プロスペクトガーデンひたちなか【介護老人保健施設】茨城県ひたちなか市高野字柏野２４５５－１", "url2": "https://www.kaigokensaku.mhlw.go.jp/08/index.php?action_kouhyou_detail_004_kani=true&JigyosyoCd=0852180058-00&ServiceCd=520&Type=search" }, "geometry": { "type": "Point", "coordinates": [ 140.5426139, 36.4384773 ] } },
{ "type": "Feature", "properties": { "内容": "介護老人保健施設　みなと苑【介護老人保健施設】茨城県ひたちなか市幸町16-1", "url2": "https://www.kaigokensaku.mhlw.go.jp/08/index.php?action_kouhyou_detail_004_kani=true&JigyosyoCd=0852180033-00&ServiceCd=520&Type=search" }, "geometry": { "type": "Point", "coordinates": [ 140.585358199999973, 36.3485772 ] } },
{ "type": "Feature", "properties": { "内容": "医療法人社団克仁会　介護老人保健施設サンライズ湊【介護老人保健施設】茨城県ひたちなか市阿字ヶ浦字原１４０６－１", "url2": "https://www.kaigokensaku.mhlw.go.jp/08/index.php?action_kouhyou_detail_004_kani=true&JigyosyoCd=0852180017-00&ServiceCd=520&Type=search" }, "geometry": { "type": "Point", "coordinates": [ 140.597939070801004, 36.373631619177317 ] } },
{ "type": "Feature", "properties": { "内容": "介護老人保健施設　いちご苑【介護老人保健施設】茨城県ひたちなか市笹野町１－３－２０", "url2": "https://www.kaigokensaku.mhlw.go.jp/08/index.php?action_kouhyou_detail_004_kani=true&JigyosyoCd=0852180041-00&ServiceCd=520&Type=search" }, "geometry": { "type": "Point", "coordinates": [ 140.541350400000027, 36.3953595 ] } },
{ "type": "Feature", "properties": { "内容": "介護老人保健施設ラプラス津田【介護老人保健施設】茨城県ひたちなか市津田3728", "url2": "https://www.kaigokensaku.mhlw.go.jp/08/index.php?action_kouhyou_detail_004_kani=true&JigyosyoCd=0852180066-00&ServiceCd=520&Type=search" }, "geometry": { "type": "Point", "coordinates": [ 140.488258699999989, 36.3930643 ] } },
{ "type": "Feature", "properties": { "内容": "松寿園リハビリケアセンター【介護老人保健施設】茨城県鹿嶋市武井1961-1", "url2": "https://www.kaigokensaku.mhlw.go.jp/08/index.php?action_kouhyou_detail_004_kani=true&JigyosyoCd=0852280031-00&ServiceCd=520&Type=search" }, "geometry": { "type": "Point", "coordinates": [ 140.585884962498284, 36.057305883658088 ] } },
{ "type": "Feature", "properties": { "内容": "医療法人社団善仁会　介護老人保健施設鹿野苑【介護老人保健施設】茨城県鹿嶋市宮津台188-17", "url2": "https://www.kaigokensaku.mhlw.go.jp/08/index.php?action_kouhyou_detail_004_kani=true&JigyosyoCd=0852280015-00&ServiceCd=520&Type=search" }, "geometry": { "type": "Point", "coordinates": [ 140.655261500000051, 35.9821035 ] } },
{ "type": "Feature", "properties": { "内容": "介護老人保健施設　松寿園リハビリケアセンター【介護老人保健施設】茨城県鹿嶋市武井1961番地1", "url2": "https://www.kaigokensaku.mhlw.go.jp/08/index.php?action_kouhyou_detail_004_kani=true&JigyosyoCd=0852280023-00&ServiceCd=520&Type=search" }, "geometry": { "type": "Point", "coordinates": [ 140.585088236245724, 36.057166322176712 ] } },
{ "type": "Feature", "properties": { "内容": "介護老人保健施設　あおぞら【介護老人保健施設】茨城県潮来市延方5405番地1", "url2": "https://www.kaigokensaku.mhlw.go.jp/08/index.php?action_kouhyou_detail_004_kani=true&JigyosyoCd=0852380013-00&ServiceCd=520&Type=search" }, "geometry": { "type": "Point", "coordinates": [ 140.601207299999942, 35.9323398 ] } },
{ "type": "Feature", "properties": { "内容": "介護老人保健施設　アイケア【介護老人保健施設】茨城県守谷市小山３１８番５", "url2": "https://www.kaigokensaku.mhlw.go.jp/08/index.php?action_kouhyou_detail_004_kani=true&JigyosyoCd=0852480029-00&ServiceCd=520&Type=search" }, "geometry": { "type": "Point", "coordinates": [ 140.012007700000026, 35.9301381 ] } },
{ "type": "Feature", "properties": { "内容": "介護老人保健施設　アイケア【介護老人保健施設】茨城県守谷市小山３１８番５", "url2": "https://www.kaigokensaku.mhlw.go.jp/08/index.php?action_kouhyou_detail_004_kani=true&JigyosyoCd=0852480037-00&ServiceCd=520&Type=search" }, "geometry": { "type": "Point", "coordinates": [ 140.012007700000026, 35.9301381 ] } },
{ "type": "Feature", "properties": { "内容": "介護老人保健施設　ダ・ジャーレ　もりや【介護老人保健施設】守谷市松並1630-1", "url2": "https://www.kaigokensaku.mhlw.go.jp/08/index.php?action_kouhyou_detail_004_kani=true&JigyosyoCd=0852480011-00&ServiceCd=520&Type=search" }, "geometry": { "type": "Point", "coordinates": [ 139.998622341768993, 35.955837051527766 ] } },
{ "type": "Feature", "properties": { "内容": "医療法人芳栄会　介護老人保健施設　プラタナスの丘【介護老人保健施設】茨城県常陸大宮市宇留野３１０９", "url2": "https://www.kaigokensaku.mhlw.go.jp/08/index.php?action_kouhyou_detail_004_kani=true&JigyosyoCd=0852580026-00&ServiceCd=520&Type=search" }, "geometry": { "type": "Point", "coordinates": [ 140.418336299999964, 36.5438849 ] } },
{ "type": "Feature", "properties": { "内容": "老人保健施設　大宮フロイデハイム【介護老人保健施設】茨城県常陸大宮市上町３１８－１", "url2": "https://www.kaigokensaku.mhlw.go.jp/08/index.php?action_kouhyou_detail_004_kani=true&JigyosyoCd=0853380020-00&ServiceCd=520&Type=search" }, "geometry": { "type": "Point", "coordinates": [ 140.412988741919378, 36.549224389617834 ] } },
{ "type": "Feature", "properties": { "内容": "介護老人保健施設　第2フェニックス那珂【介護老人保健施設】茨城県那珂市飯田1733-1", "url2": "https://www.kaigokensaku.mhlw.go.jp/08/index.php?action_kouhyou_detail_004_kani=true&JigyosyoCd=0852680016-00&ServiceCd=520&Type=search" }, "geometry": { "type": "Point", "coordinates": [ 140.463252799999964, 36.4537713 ] } },
{ "type": "Feature", "properties": { "内容": "介護老人保健施設　フェニックス那珂【介護老人保健施設】茨城県那珂市飯田1733－1", "url2": "https://www.kaigokensaku.mhlw.go.jp/08/index.php?action_kouhyou_detail_004_kani=true&JigyosyoCd=0853380046-00&ServiceCd=520&Type=search" }, "geometry": { "type": "Point", "coordinates": [ 140.463252799999964, 36.4537713 ] } },
{ "type": "Feature", "properties": { "内容": "介護老人保健施設　ライブリーライフ那珂【介護老人保健施設】茨城県那珂市菅谷605-2", "url2": "https://www.kaigokensaku.mhlw.go.jp/08/index.php?action_kouhyou_detail_004_kani=true&JigyosyoCd=0853380038-00&ServiceCd=520&Type=search" }, "geometry": { "type": "Point", "coordinates": [ 140.496677800000043, 36.4610992 ] } },
{ "type": "Feature", "properties": { "内容": "プレミエール元気館筑西【介護老人保健施設】茨城県筑西市古郡554-3", "url2": "https://www.kaigokensaku.mhlw.go.jp/08/index.php?action_kouhyou_detail_004_kani=true&JigyosyoCd=0852780030-00&ServiceCd=520&Type=search" }, "geometry": { "type": "Point", "coordinates": [ 140.039902098230669, 36.348291655746571 ] } },
{ "type": "Feature", "properties": { "内容": "社会医療法人恒貴会　協和ヘルシーセンター【介護老人保健施設】茨城県筑西市門井1669番地2", "url2": "https://www.kaigokensaku.mhlw.go.jp/08/index.php?action_kouhyou_detail_004_kani=true&JigyosyoCd=0854180015-00&ServiceCd=520&Type=search" }, "geometry": { "type": "Point", "coordinates": [ 140.014880299999959, 36.3290897 ] } },
{ "type": "Feature", "properties": { "内容": "介護老人保健施設梨花苑【介護老人保健施設】筑西市木戸348番地", "url2": "https://www.kaigokensaku.mhlw.go.jp/08/index.php?action_kouhyou_detail_004_kani=true&JigyosyoCd=0854180023-00&ServiceCd=520&Type=search" }, "geometry": { "type": "Point", "coordinates": [ 139.977801199999931, 36.2438601 ] } },
{ "type": "Feature", "properties": { "内容": "介護老人保健施設　ごぎょうの里【介護老人保健施設】茨城県筑西市小林４６７－１", "url2": "https://www.kaigokensaku.mhlw.go.jp/08/index.php?action_kouhyou_detail_004_kani=true&JigyosyoCd=0850680018-00&ServiceCd=520&Type=search" }, "geometry": { "type": "Point", "coordinates": [ 139.98016210000003, 36.3199258 ] } },
{ "type": "Feature", "properties": { "内容": "介護老人保健施設　きねぶち【介護老人保健施設】茨城県坂東市長谷989番地5", "url2": "https://www.kaigokensaku.mhlw.go.jp/08/index.php?action_kouhyou_detail_004_kani=true&JigyosyoCd=0852880012-00&ServiceCd=520&Type=search" }, "geometry": { "type": "Point", "coordinates": [ 139.885973700000022, 36.0379226 ] } },
{ "type": "Feature", "properties": { "内容": "介護老人保健施設　寿桂苑【介護老人保健施設】茨城県坂東市沓掛4527-1", "url2": "https://www.kaigokensaku.mhlw.go.jp/08/index.php?action_kouhyou_detail_004_kani=true&JigyosyoCd=0854380029-00&ServiceCd=520&Type=search" }, "geometry": { "type": "Point", "coordinates": [ 139.898078427322986, 36.088944899997664 ] } },
{ "type": "Feature", "properties": { "内容": "介護老人保健施設いなしきの郷【介護老人保健施設】茨城県稲敷市佐原組新田1378-1", "url2": "https://www.kaigokensaku.mhlw.go.jp/08/index.php?action_kouhyou_detail_004_kani=true&JigyosyoCd=0852780014-00&ServiceCd=520&Type=search" }, "geometry": { "type": "Point", "coordinates": [ 140.4092809, 35.9318537 ] } },
{ "type": "Feature", "properties": { "内容": "介護老人保健施設いなしきの郷【介護老人保健施設】茨城県稲敷市佐原組新田1378-1", "url2": "https://www.kaigokensaku.mhlw.go.jp/08/index.php?action_kouhyou_detail_004_kani=true&JigyosyoCd=0852980028-00&ServiceCd=520&Type=search" }, "geometry": { "type": "Point", "coordinates": [ 140.409273, 35.931837 ] } },
{ "type": "Feature", "properties": { "内容": "介護老人保健施設　プエブロ稲敷【介護老人保健施設】茨城県稲敷市狸穴11番地", "url2": "https://www.kaigokensaku.mhlw.go.jp/08/index.php?action_kouhyou_detail_004_kani=true&JigyosyoCd=0852780022-00&ServiceCd=520&Type=search" }, "geometry": { "type": "Point", "coordinates": [ 140.2868469, 35.9131694 ] } },
{ "type": "Feature", "properties": { "内容": "介護老人保健施設　プエブロ稲敷【介護老人保健施設】茨城県稲敷市狸穴11番地", "url2": "https://www.kaigokensaku.mhlw.go.jp/08/index.php?action_kouhyou_detail_004_kani=true&JigyosyoCd=0852980010-00&ServiceCd=520&Type=search" }, "geometry": { "type": "Point", "coordinates": [ 140.2868469, 35.9131694 ] } },
{ "type": "Feature", "properties": { "内容": "介護老人保健施設　ホワイトハウス千代田【介護老人保健施設】茨城県かすみがうら市東野寺４９５－２", "url2": "https://www.kaigokensaku.mhlw.go.jp/08/index.php?action_kouhyou_detail_004_kani=true&JigyosyoCd=0853080018-00&ServiceCd=520&Type=search" }, "geometry": { "type": "Point", "coordinates": [ 140.26212570000007, 36.1642479 ] } },
{ "type": "Feature", "properties": { "内容": "介護老人保健施設　葵の園・霞ヶ浦【介護老人保健施設】茨城県かすみがうら市下稲吉入内伝1136番地40", "url2": "https://www.kaigokensaku.mhlw.go.jp/08/index.php?action_kouhyou_detail_004_kani=true&JigyosyoCd=0853080026-00&ServiceCd=520&Type=search" }, "geometry": { "type": "Point", "coordinates": [ 140.245645194800659, 36.141376820714541 ] } },
{ "type": "Feature", "properties": { "内容": "介護老人保健施設さくらがわ【介護老人保健施設】茨城県桜川市東飯田６５９", "url2": "https://www.kaigokensaku.mhlw.go.jp/08/index.php?action_kouhyou_detail_004_kani=true&JigyosyoCd=0854180049-00&ServiceCd=520&Type=search" }, "geometry": { "type": "Point", "coordinates": [ 140.111062299999958, 36.3100303 ] } },
{ "type": "Feature", "properties": { "内容": "介護老人保健施設さざんか荘【介護老人保健施設】茨城県桜川市亀岡992", "url2": "https://www.kaigokensaku.mhlw.go.jp/08/index.php?action_kouhyou_detail_004_kani=true&JigyosyoCd=0853280014-00&ServiceCd=520&Type=search" }, "geometry": { "type": "Point", "coordinates": [ 140.134518800000023, 36.3746424 ] } },
{ "type": "Feature", "properties": { "内容": "介護老人保健施設マカベシルバートピア【介護老人保健施設】茨城県桜川市真壁町東山田1945", "url2": "https://www.kaigokensaku.mhlw.go.jp/08/index.php?action_kouhyou_detail_004_kani=true&JigyosyoCd=0854180031-00&ServiceCd=520&Type=search" }, "geometry": { "type": "Point", "coordinates": [ 140.0768756, 36.2624826 ] } },
{ "type": "Feature", "properties": { "内容": "介護老人保健施設シオン【介護老人保健施設】茨城県神栖市土合本町2丁目9809番地126", "url2": "https://www.kaigokensaku.mhlw.go.jp/08/index.php?action_kouhyou_detail_004_kani=true&JigyosyoCd=0853680049-00&ServiceCd=520&Type=search" }, "geometry": { "type": "Point", "coordinates": [ 140.778086600000051, 35.7926413 ] } },
{ "type": "Feature", "properties": { "内容": "介護老人保健施設　ばんなん白光園【介護老人保健施設】茨城県神栖市賀２１４８", "url2": "https://www.kaigokensaku.mhlw.go.jp/08/index.php?action_kouhyou_detail_004_kani=true&JigyosyoCd=0853680015-00&ServiceCd=520&Type=search" }, "geometry": { "type": "Point", "coordinates": [ 140.624022299999979, 35.9004581 ] } },
{ "type": "Feature", "properties": { "内容": "介護老人保健施設　葵の園・神栖【介護老人保健施設】神栖市神栖四丁目8-30", "url2": "https://www.kaigokensaku.mhlw.go.jp/08/index.php?action_kouhyou_detail_004_kani=true&JigyosyoCd=0855280012-00&ServiceCd=520&Type=search" }, "geometry": { "type": "Point", "coordinates": [ 140.6536691, 35.9107132 ] } },
{ "type": "Feature", "properties": { "内容": "介護老人保健施設かすみがうら【介護老人保健施設】茨城県行方市若海７９３－５", "url2": "https://www.kaigokensaku.mhlw.go.jp/08/index.php?action_kouhyou_detail_004_kani=true&JigyosyoCd=0853780039-00&ServiceCd=520&Type=search" }, "geometry": { "type": "Point", "coordinates": [ 140.433507100000043, 36.1229813 ] } },
{ "type": "Feature", "properties": { "内容": "介護老人保健施設リヒトハウス北浦【介護老人保健施設】茨城県行方市繁昌1712-1", "url2": "https://www.kaigokensaku.mhlw.go.jp/08/index.php?action_kouhyou_detail_004_kani=true&JigyosyoCd=0853780021-00&ServiceCd=520&Type=search" }, "geometry": { "type": "Point", "coordinates": [ 140.519167, 36.0569023 ] } },
{ "type": "Feature", "properties": { "内容": "介護老人保健施設　ゆず【介護老人保健施設】茨城県鉾田市鉾田１３４７番地１", "url2": "https://www.kaigokensaku.mhlw.go.jp/08/index.php?action_kouhyou_detail_004_kani=true&JigyosyoCd=0855480018-00&ServiceCd=520&Type=search" }, "geometry": { "type": "Point", "coordinates": [ 140.516091700000061, 36.1607675 ] } },
{ "type": "Feature", "properties": { "内容": "介護老人保健施設　コミュニティケアセンター樅山【介護老人保健施設】茨城県鉾田市樅山497", "url2": "https://www.kaigokensaku.mhlw.go.jp/08/index.php?action_kouhyou_detail_004_kani=true&JigyosyoCd=0853680056-00&ServiceCd=520&Type=search" }, "geometry": { "type": "Point", "coordinates": [ 140.554110400000013, 36.198373 ] } },
{ "type": "Feature", "properties": { "内容": "介護老人保健施設　フロンティア鉾田　春の場所【介護老人保健施設】鉾田市柏熊９８５－１", "url2": "https://www.kaigokensaku.mhlw.go.jp/08/index.php?action_kouhyou_detail_004_kani=true&JigyosyoCd=0853680031-00&ServiceCd=520&Type=search" }, "geometry": { "type": "Point", "coordinates": [ 140.541958600000044, 36.1785216 ] } },
{ "type": "Feature", "properties": { "内容": "介護老人保健施設　みのり苑【介護老人保健施設】茨城県小美玉市橋場美２１", "url2": "https://www.kaigokensaku.mhlw.go.jp/08/index.php?action_kouhyou_detail_004_kani=true&JigyosyoCd=0853180032-00&ServiceCd=520&Type=search" }, "geometry": { "type": "Point", "coordinates": [ 140.37245710000002, 36.2539511 ] } },
{ "type": "Feature", "properties": { "内容": "介護老人保健施設　小美玉敬愛の杜【介護老人保健施設】小美玉市中台148", "url2": "https://www.kaigokensaku.mhlw.go.jp/08/index.php?action_kouhyou_detail_004_kani=true&JigyosyoCd=0855680013-00&ServiceCd=520&Type=search" }, "geometry": { "type": "Point", "coordinates": [ 140.316293200000018, 36.2247759 ] } },
{ "type": "Feature", "properties": { "内容": "小美玉敬愛の杜【介護老人保健施設】中台148", "url2": "https://www.kaigokensaku.mhlw.go.jp/08/index.php?action_kouhyou_detail_004_kani=true&JigyosyoCd=0855680047-00&ServiceCd=520&Type=search" }, "geometry": { "type": "Point", "coordinates": [ 140.316101, 36.2246894 ] } },
{ "type": "Feature", "properties": { "内容": "介護老人保健施設　小川敬愛の杜【介護老人保健施設】茨城県小美玉市野田576-3", "url2": "https://www.kaigokensaku.mhlw.go.jp/08/index.php?action_kouhyou_detail_004_kani=true&JigyosyoCd=0855680021-00&ServiceCd=520&Type=search" }, "geometry": { "type": "Point", "coordinates": [ 140.370761, 36.192931 ] } },
{ "type": "Feature", "properties": { "内容": "介護老人保健施設　小川敬愛の杜【介護老人保健施設】茨城県小美玉市野田576-3", "url2": "https://www.kaigokensaku.mhlw.go.jp/08/index.php?action_kouhyou_detail_004_kani=true&JigyosyoCd=0855680039-00&ServiceCd=520&Type=search" }, "geometry": { "type": "Point", "coordinates": [ 140.370546423278796, 36.1929353292632 ] } },
{ "type": "Feature", "properties": { "内容": "介護老人保健施設　サン・テレーズ【介護老人保健施設】茨城県小美玉市栗又四ケ1752－1", "url2": "https://www.kaigokensaku.mhlw.go.jp/08/index.php?action_kouhyou_detail_004_kani=true&JigyosyoCd=0853980035-00&ServiceCd=520&Type=search" }, "geometry": { "type": "Point", "coordinates": [ 140.330524, 36.1777587 ] } },
{ "type": "Feature", "properties": { "内容": "介護老人保健施設　レイクヒルひぬま【介護老人保健施設】茨城県東茨城郡茨城町下石崎２３２４", "url2": "https://www.kaigokensaku.mhlw.go.jp/08/index.php?action_kouhyou_detail_004_kani=true&JigyosyoCd=0853180057-00&ServiceCd=520&Type=search" }, "geometry": { "type": "Point", "coordinates": [ 140.512998, 36.2855535 ] } },
{ "type": "Feature", "properties": { "内容": "介護老人保健施設　桜の郷敬愛の杜【介護老人保健施設】茨城県東茨城郡茨城町桜の郷1000番地2", "url2": "https://www.kaigokensaku.mhlw.go.jp/08/index.php?action_kouhyou_detail_004_kani=true&JigyosyoCd=0853180099-00&ServiceCd=520&Type=search" }, "geometry": { "type": "Point", "coordinates": [ 140.41487068213965, 36.322400587758402 ] } },
{ "type": "Feature", "properties": { "内容": "介護老人保健施設　葵の園・水戸【介護老人保健施設】茨城県東茨城郡茨城町桜の郷231番6", "url2": "https://www.kaigokensaku.mhlw.go.jp/08/index.php?action_kouhyou_detail_004_kani=true&JigyosyoCd=0853180123-00&ServiceCd=520&Type=search" }, "geometry": { "type": "Point", "coordinates": [ 140.408147500000041, 36.3243352 ] } },
{ "type": "Feature", "properties": { "内容": "介護老人保健施設　桜の郷敬愛の杜【介護老人保健施設】茨城県東茨城群茨城町桜の郷１０００番地２", "url2": "https://www.kaigokensaku.mhlw.go.jp/08/index.php?action_kouhyou_detail_004_kani=true&JigyosyoCd=0853180131-00&ServiceCd=520&Type=search" }, "geometry": { "type": "Point", "coordinates": [ 140.414540455864909, 36.322640369065425 ] } },
{ "type": "Feature", "properties": { "内容": "介護老人保健施設エバーグリーン【介護老人保健施設】東茨城郡茨城町若宮393-1", "url2": "https://www.kaigokensaku.mhlw.go.jp/08/index.php?action_kouhyou_detail_004_kani=true&JigyosyoCd=0853180024-00&ServiceCd=520&Type=search" }, "geometry": { "type": "Point", "coordinates": [ 140.494554199999982, 36.309074099999982 ] } },
{ "type": "Feature", "properties": { "内容": "介護老人保健施設おおあらい【介護老人保健施設】茨城県東茨城郡大洗町大貫町1212-11", "url2": "https://www.kaigokensaku.mhlw.go.jp/08/index.php?action_kouhyou_detail_004_kani=true&JigyosyoCd=0853180073-00&ServiceCd=520&Type=search" }, "geometry": { "type": "Point", "coordinates": [ 140.558018599999969, 36.292365 ] } },
{ "type": "Feature", "properties": { "内容": "介護老人保健施設きんもくせい【介護老人保健施設】茨城県東茨城郡城里町石塚1223-1", "url2": "https://www.kaigokensaku.mhlw.go.jp/08/index.php?action_kouhyou_detail_004_kani=true&JigyosyoCd=0853180107-00&ServiceCd=520&Type=search" }, "geometry": { "type": "Point", "coordinates": [ 140.3701055, 36.4844676 ] } },
{ "type": "Feature", "properties": { "内容": "介護老人保健施設　カーサ・ビアンしろさと【介護老人保健施設】茨城県東茨城郡城里町阿波山原６０２", "url2": "https://www.kaigokensaku.mhlw.go.jp/08/index.php?action_kouhyou_detail_004_kani=true&JigyosyoCd=0853180081-00&ServiceCd=520&Type=search" }, "geometry": { "type": "Point", "coordinates": [ 140.375388, 36.4795744 ] } },
{ "type": "Feature", "properties": { "内容": "医療法人聖友会介護老人保健施設やすらぎ【介護老人保健施設】茨城県久慈郡大子町大子８８８", "url2": "https://www.kaigokensaku.mhlw.go.jp/08/index.php?action_kouhyou_detail_004_kani=true&JigyosyoCd=0853480028-00&ServiceCd=520&Type=search" }, "geometry": { "type": "Point", "coordinates": [ 140.353643499999947, 36.7688461 ] } },
{ "type": "Feature", "properties": { "内容": "温泉リハビリセンター虹の丘【介護老人保健施設】茨城県久慈郡大子町大字矢田93-1", "url2": "https://www.kaigokensaku.mhlw.go.jp/08/index.php?action_kouhyou_detail_004_kani=true&JigyosyoCd=0853480010-00&ServiceCd=520&Type=search" }, "geometry": { "type": "Point", "coordinates": [ 140.358739499999956, 36.7959541 ] } },
{ "type": "Feature", "properties": { "内容": "介護老人保健施設　葵の園・美浦【介護老人保健施設】茨城県稲敷郡美浦村大字土屋字山下1979番地", "url2": "https://www.kaigokensaku.mhlw.go.jp/08/index.php?action_kouhyou_detail_004_kani=true&JigyosyoCd=0853880045-00&ServiceCd=520&Type=search" }, "geometry": { "type": "Point", "coordinates": [ 140.301914099999976, 36.004562 ] } },
{ "type": "Feature", "properties": { "内容": "介護老人保健施設　ゴーエン美浦【介護老人保健施設】茨城県稲敷郡美浦村宮地678番地", "url2": "https://www.kaigokensaku.mhlw.go.jp/08/index.php?action_kouhyou_detail_004_kani=true&JigyosyoCd=0853880029-00&ServiceCd=520&Type=search" }, "geometry": { "type": "Point", "coordinates": [ 140.316959900000029, 36.0051346 ] } },
{ "type": "Feature", "properties": { "内容": "老人保健施設ケアセンター阿見【介護老人保健施設】茨城県稲敷郡阿見町若栗2957番4", "url2": "https://www.kaigokensaku.mhlw.go.jp/08/index.php?action_kouhyou_detail_004_kani=true&JigyosyoCd=0853880011-00&ServiceCd=520&Type=search" }, "geometry": { "type": "Point", "coordinates": [ 140.222958508459442, 36.005675665104 ] } },
{ "type": "Feature", "properties": { "内容": "介護老人保健施設　スーペリア３６０【介護老人保健施設】茨城県稲敷郡阿見町荒川本郷2033-508", "url2": "https://www.kaigokensaku.mhlw.go.jp/08/index.php?action_kouhyou_detail_004_kani=true&JigyosyoCd=0853880037-00&ServiceCd=520&Type=search" }, "geometry": { "type": "Point", "coordinates": [ 140.18674980000003, 36.0245867 ] } },
{ "type": "Feature", "properties": { "内容": "介護老人保健施設セントラルわかたけ阿見【介護老人保健施設】茨城県稲敷郡阿見町阿見5050番12", "url2": "https://www.kaigokensaku.mhlw.go.jp/08/index.php?action_kouhyou_detail_004_kani=true&JigyosyoCd=0853880052-00&ServiceCd=520&Type=search" }, "geometry": { "type": "Point", "coordinates": [ 140.1999625, 36.0305846 ] } },
{ "type": "Feature", "properties": { "内容": "介護老人保健施設　葵の園・八千代【介護老人保健施設】茨城県結城郡八千代町大字新井１１５番1", "url2": "https://www.kaigokensaku.mhlw.go.jp/08/index.php?action_kouhyou_detail_004_kani=true&JigyosyoCd=0854280021-00&ServiceCd=520&Type=search" }, "geometry": { "type": "Point", "coordinates": [ 139.902562841772436, 36.195775210564349 ] } },
{ "type": "Feature", "properties": { "内容": "老人保健施設境町メディカルピクニック【介護老人保健施設】茨城県猿島郡境町塚崎2555-1", "url2": "https://www.kaigokensaku.mhlw.go.jp/08/index.php?action_kouhyou_detail_004_kani=true&JigyosyoCd=0854380037-00&ServiceCd=520&Type=search" }, "geometry": { "type": "Point", "coordinates": [ 139.774131899999929, 36.1261957 ] } },
{ "type": "Feature", "properties": { "内容": "介護老人保健施設夢彩の舎【介護老人保健施設】茨城県猿島郡境町若林2269-1", "url2": "https://www.kaigokensaku.mhlw.go.jp/08/index.php?action_kouhyou_detail_004_kani=true&JigyosyoCd=0854380045-00&ServiceCd=520&Type=search" }, "geometry": { "type": "Point", "coordinates": [ 139.832414300000011, 36.0778132 ] } },
{ "type": "Feature", "properties": { "内容": "介護老人保健施設もえぎ野【介護老人保健施設】茨城県北相馬郡利根町もえぎ野台1－1－8", "url2": "https://www.kaigokensaku.mhlw.go.jp/08/index.php?action_kouhyou_detail_004_kani=true&JigyosyoCd=0854480035-00&ServiceCd=520&Type=search" }, "geometry": { "type": "Point", "coordinates": [ 140.158162400000037, 35.8781256 ] } },
{ "type": "Feature", "properties": { "内容": "介護老人保健施設もえぎ野【介護老人保健施設】茨城県北相馬郡利根町もえぎ野台1－1－8", "url2": "https://www.kaigokensaku.mhlw.go.jp/08/index.php?action_kouhyou_detail_004_kani=true&JigyosyoCd=0854480043-00&ServiceCd=520&Type=search" }, "geometry": { "type": "Point", "coordinates": [ 140.158076299999948, 35.8779062 ] } }
]
}
