{
"type": "FeatureCollection",
"name": "geo_08_認知症対応型通所介護",
"crs": { "type": "name", "properties": { "name": "urn:ogc:def:crs:OGC:1.3:CRS84" } },
"features": [
{ "type": "Feature", "properties": { "内容": "共用型デイサービス　グループホームいろり端水戸【認知症対応型通所介護】茨城県水戸市開江町8番地", "url2": "https://www.kaigokensaku.mhlw.go.jp/08/index.php?action_kouhyou_detail_004_kani=true&JigyosyoCd=0870107091-00&ServiceCd=720&Type=search" }, "geometry": { "type": "Point", "coordinates": [ 140.390715199999988, 36.395731 ] } },
{ "type": "Feature", "properties": { "内容": "デイホーム　お母さんの家【認知症対応型通所介護】水戸市小吹町2297-19", "url2": "https://www.kaigokensaku.mhlw.go.jp/08/index.php?action_kouhyou_detail_004_kani=true&JigyosyoCd=0870102522-00&ServiceCd=720&Type=search" }, "geometry": { "type": "Point", "coordinates": [ 140.4341445, 36.3431193 ] } },
{ "type": "Feature", "properties": { "内容": "日立市かねはたデイサービスセンター【認知症対応型通所介護】茨城県日立市大沼町3丁目25番10号", "url2": "https://www.kaigokensaku.mhlw.go.jp/08/index.php?action_kouhyou_detail_004_kani=true&JigyosyoCd=0870200318-00&ServiceCd=720&Type=search" }, "geometry": { "type": "Point", "coordinates": [ 140.615772900000024, 36.5298666 ] } },
{ "type": "Feature", "properties": { "内容": "デイホーム土浦マロン館【認知症対応型通所介護】茨城県土浦市菅谷町1358-1", "url2": "https://www.kaigokensaku.mhlw.go.jp/08/index.php?action_kouhyou_detail_004_kani=true&JigyosyoCd=0890300460-00&ServiceCd=720&Type=search" }, "geometry": { "type": "Point", "coordinates": [ 140.268112699999989, 36.107366 ] } },
{ "type": "Feature", "properties": { "内容": "デイサービス寄居【認知症対応型通所介護】茨城県土浦市神立町４４３－５", "url2": "https://www.kaigokensaku.mhlw.go.jp/08/index.php?action_kouhyou_detail_004_kani=true&JigyosyoCd=0890300064-00&ServiceCd=720&Type=search" }, "geometry": { "type": "Point", "coordinates": [ 140.239169668647719, 36.106200644561213 ] } },
{ "type": "Feature", "properties": { "内容": "愛の家デイサービス石岡青柳【認知症対応型通所介護】茨城県石岡市下青柳948-2", "url2": "https://www.kaigokensaku.mhlw.go.jp/08/index.php?action_kouhyou_detail_004_kani=true&JigyosyoCd=0890500184-00&ServiceCd=720&Type=search" }, "geometry": { "type": "Point", "coordinates": [ 140.16929959999996, 36.2061898 ] } },
{ "type": "Feature", "properties": { "内容": "グループホーム美里【認知症対応型通所介護】茨城県龍ケ崎市羽原町1918-1", "url2": "https://www.kaigokensaku.mhlw.go.jp/08/index.php?action_kouhyou_detail_004_kani=true&JigyosyoCd=0890800162-00&ServiceCd=720&Type=search" }, "geometry": { "type": "Point", "coordinates": [ 140.191140100000013, 35.9304798 ] } },
{ "type": "Feature", "properties": { "内容": "共用型通所介護　舞夢【認知症対応型通所介護】茨城県常総市古間木1054-4", "url2": "https://www.kaigokensaku.mhlw.go.jp/08/index.php?action_kouhyou_detail_004_kani=true&JigyosyoCd=0891100067-00&ServiceCd=720&Type=search" }, "geometry": { "type": "Point", "coordinates": [ 139.9557287, 36.0919777 ] } },
{ "type": "Feature", "properties": { "内容": "認知症対応型通所介護スマイルあかね【認知症対応型通所介護】茨城県北茨城市関本町関本中259-6", "url2": "https://www.kaigokensaku.mhlw.go.jp/08/index.php?action_kouhyou_detail_004_kani=true&JigyosyoCd=0891500019-00&ServiceCd=720&Type=search" }, "geometry": { "type": "Point", "coordinates": [ 140.777611500000035, 36.8473664 ] } },
{ "type": "Feature", "properties": { "内容": "デイサービス　あさひ【認知症対応型通所介護】茨城県北茨城市関南町仁井田700番地", "url2": "https://www.kaigokensaku.mhlw.go.jp/08/index.php?action_kouhyou_detail_004_kani=true&JigyosyoCd=0891500100-00&ServiceCd=720&Type=search" }, "geometry": { "type": "Point", "coordinates": [ 140.783293100000037, 36.8314087 ] } },
{ "type": "Feature", "properties": { "内容": "共用型認知症対応型通所介護センター　グループホームかさま【認知症対応型通所介護】茨城県　笠間市石井　2253-1", "url2": "https://www.kaigokensaku.mhlw.go.jp/08/index.php?action_kouhyou_detail_004_kani=true&JigyosyoCd=0891600157-00&ServiceCd=720&Type=search" }, "geometry": { "type": "Point", "coordinates": [ 140.2446062, 36.3820786 ] } },
{ "type": "Feature", "properties": { "内容": "社会福祉法人尚生会認知症対応型通所介護センターグリーンハウスともべ【認知症対応型通所介護】茨城県笠間市鯉淵6269-11", "url2": "https://www.kaigokensaku.mhlw.go.jp/08/index.php?action_kouhyou_detail_004_kani=true&JigyosyoCd=0891600256-00&ServiceCd=720&Type=search" }, "geometry": { "type": "Point", "coordinates": [ 140.3287116, 36.3433526 ] } },
{ "type": "Feature", "properties": { "内容": "社会福祉法人尚生会　認知症対応型通所介護センター　かさまグリーンハウス【認知症対応型通所介護】茨城県笠間市福田3199", "url2": "https://www.kaigokensaku.mhlw.go.jp/08/index.php?action_kouhyou_detail_004_kani=true&JigyosyoCd=0891600033-00&ServiceCd=720&Type=search" }, "geometry": { "type": "Point", "coordinates": [ 140.280879599999906, 36.4076085 ] } },
{ "type": "Feature", "properties": { "内容": "共用型認知症対応型通所介護　たいせつの家【認知症対応型通所介護】茨城県牛久市上柏田1-17-20", "url2": "https://www.kaigokensaku.mhlw.go.jp/08/index.php?action_kouhyou_detail_004_kani=true&JigyosyoCd=0891900086-00&ServiceCd=720&Type=search" }, "geometry": { "type": "Point", "coordinates": [ 140.153125499999987, 35.9940648 ] } },
{ "type": "Feature", "properties": { "内容": "デイサービス美桜【認知症対応型通所介護】茨城県つくば市小野川１０－１２", "url2": "https://www.kaigokensaku.mhlw.go.jp/08/index.php?action_kouhyou_detail_004_kani=true&JigyosyoCd=0892000043-00&ServiceCd=720&Type=search" }, "geometry": { "type": "Point", "coordinates": [ 140.1126461, 36.0499488 ] } },
{ "type": "Feature", "properties": { "内容": "デイサービスクリクリ市毛【認知症対応型通所介護】茨城県ひたちなか市市毛上坪１１８６－２", "url2": "https://www.kaigokensaku.mhlw.go.jp/08/index.php?action_kouhyou_detail_004_kani=true&JigyosyoCd=0872105010-00&ServiceCd=720&Type=search" }, "geometry": { "type": "Point", "coordinates": [ 140.502583499999986, 36.3959421 ] } },
{ "type": "Feature", "properties": { "内容": "デイサービスセンターさわの森【認知症対応型通所介護】高野字柏野2448", "url2": "https://www.kaigokensaku.mhlw.go.jp/08/index.php?action_kouhyou_detail_004_kani=true&JigyosyoCd=0892100348-00&ServiceCd=720&Type=search" }, "geometry": { "type": "Point", "coordinates": [ 140.54631, 36.428078 ] } },
{ "type": "Feature", "properties": { "内容": "デイサービスクリクリ金上【認知症対応型通所介護】茨城県ひたちなか市金1031-1", "url2": "https://www.kaigokensaku.mhlw.go.jp/08/index.php?action_kouhyou_detail_004_kani=true&JigyosyoCd=0892100157-00&ServiceCd=720&Type=search" }, "geometry": { "type": "Point", "coordinates": [ 140.539337299999943, 36.3773642 ] } },
{ "type": "Feature", "properties": { "内容": "認知症対応型通所介護センター　グリーンハウスひたちなか【認知症対応型通所介護】茨城県ひたちなか市東石川3183-1", "url2": "https://www.kaigokensaku.mhlw.go.jp/08/index.php?action_kouhyou_detail_004_kani=true&JigyosyoCd=0892100074-00&ServiceCd=720&Type=search" }, "geometry": { "type": "Point", "coordinates": [ 140.531970900000033, 36.3969926 ] } },
{ "type": "Feature", "properties": { "内容": "愛の家デイサービスひたちなか【認知症対応型通所介護】茨城県ひたちなか市北神敷台3793-1", "url2": "https://www.kaigokensaku.mhlw.go.jp/08/index.php?action_kouhyou_detail_004_kani=true&JigyosyoCd=0892100256-00&ServiceCd=720&Type=search" }, "geometry": { "type": "Point", "coordinates": [ 140.5960641, 36.3550435 ] } },
{ "type": "Feature", "properties": { "内容": "ひたちなか認知症対応型デイサービスセンター【認知症対応型通所介護】大字足崎1474－7フロイデ総合在宅サポートセンターひたちなか", "url2": "https://www.kaigokensaku.mhlw.go.jp/08/index.php?action_kouhyou_detail_004_kani=true&JigyosyoCd=0892100058-00&ServiceCd=720&Type=search" }, "geometry": { "type": "Point", "coordinates": [ 140.552771, 36.404453 ] } },
{ "type": "Feature", "properties": { "内容": "志村デイサービスセンター　（さくらデイサービス）【認知症対応型通所介護】茨城県常陸大宮市上町357-4", "url2": "https://www.kaigokensaku.mhlw.go.jp/08/index.php?action_kouhyou_detail_004_kani=true&JigyosyoCd=0892500174-00&ServiceCd=720&Type=search" }, "geometry": { "type": "Point", "coordinates": [ 140.4138809, 36.5498301 ] } },
{ "type": "Feature", "properties": { "内容": "デイサービス　憩の杜【認知症対応型通所介護】菅谷５３３地域密着型サービス施設　憩の杜", "url2": "https://www.kaigokensaku.mhlw.go.jp/08/index.php?action_kouhyou_detail_004_kani=true&JigyosyoCd=0892600040-00&ServiceCd=720&Type=search" }, "geometry": { "type": "Point", "coordinates": [ 140.49580560000004, 36.4619379 ] } },
{ "type": "Feature", "properties": { "内容": "社会福祉法人聖朋会　サンシャインつくば【認知症対応型通所介護】茨城県かすみがうら市上大堤210-27", "url2": "https://www.kaigokensaku.mhlw.go.jp/08/index.php?action_kouhyou_detail_004_kani=true&JigyosyoCd=0893000059-00&ServiceCd=720&Type=search" }, "geometry": { "type": "Point", "coordinates": [ 140.2884168, 36.1086919 ] } },
{ "type": "Feature", "properties": { "内容": "デイサービスセンターみのり須田【認知症対応型通所介護】茨城県神栖市須田４３０５－１", "url2": "https://www.kaigokensaku.mhlw.go.jp/08/index.php?action_kouhyou_detail_004_kani=true&JigyosyoCd=0895200038-00&ServiceCd=720&Type=search" }, "geometry": { "type": "Point", "coordinates": [ 140.747104700000023, 35.8341366 ] } },
{ "type": "Feature", "properties": { "内容": "認知症高齢者グループホーム　和みの家【認知症対応型通所介護】茨城県鉾田市樅山579-1", "url2": "https://www.kaigokensaku.mhlw.go.jp/08/index.php?action_kouhyou_detail_004_kani=true&JigyosyoCd=0873600613-00&ServiceCd=720&Type=search" }, "geometry": { "type": "Point", "coordinates": [ 140.55315090000002, 36.199152500000011 ] } },
{ "type": "Feature", "properties": { "内容": "デイサービスセンター　どんぐり村集会所【認知症対応型通所介護】茨城県つくばみらい市狸穴1072-46", "url2": "https://www.kaigokensaku.mhlw.go.jp/08/index.php?action_kouhyou_detail_004_kani=true&JigyosyoCd=0874000201-00&ServiceCd=720&Type=search" }, "geometry": { "type": "Point", "coordinates": [ 140.066269, 35.9914161 ] } },
{ "type": "Feature", "properties": { "内容": "認知症対応型通所介護事業所　晴風園の里【認知症対応型通所介護】茨城県小美玉市高崎911番地１", "url2": "https://www.kaigokensaku.mhlw.go.jp/08/index.php?action_kouhyou_detail_004_kani=true&JigyosyoCd=0895600039-00&ServiceCd=720&Type=search" }, "geometry": { "type": "Point", "coordinates": [ 140.323361100000056, 36.1573745 ] } },
{ "type": "Feature", "properties": { "内容": "プライエいつき通所介護事業所　弐番館【認知症対応型通所介護】茨城県結城郡八千代町兵庫４７２－４", "url2": "https://www.kaigokensaku.mhlw.go.jp/08/index.php?action_kouhyou_detail_004_kani=true&JigyosyoCd=0894200047-00&ServiceCd=720&Type=search" }, "geometry": { "type": "Point", "coordinates": [ 139.894991828758293, 36.195288449396251 ] } },
{ "type": "Feature", "properties": { "内容": "共用型認知症対応型デイサービス　ソラスト利根【認知症対応型通所介護】茨城県北相馬郡利根町早尾字早尾台610-1", "url2": "https://www.kaigokensaku.mhlw.go.jp/08/index.php?action_kouhyou_detail_004_kani=true&JigyosyoCd=0894400068-00&ServiceCd=720&Type=search" }, "geometry": { "type": "Point", "coordinates": [ 140.141872, 35.877236 ] } }
]
}
