{
"type": "FeatureCollection",
"name": "geo_08_通所リハビリテーション",
"crs": { "type": "name", "properties": { "name": "urn:ogc:def:crs:OGC:1.3:CRS84" } },
"features": [
{ "type": "Feature", "properties": { "内容": "介護老人保健施設　つねずみ【通所リハビリテーション】茨城県水戸市大場町2-14", "url2": "https://www.kaigokensaku.mhlw.go.jp/08/index.php?action_kouhyou_detail_004_kani=true&JigyosyoCd=0850180043-00&ServiceCd=160&Type=search" }, "geometry": { "type": "Point", "coordinates": [ 140.503433, 36.3376233 ] } },
{ "type": "Feature", "properties": { "内容": "介護老人保健施設　くるみ館　通所リハビリテーション【通所リハビリテーション】茨城県水戸市河和田町3335-1", "url2": "https://www.kaigokensaku.mhlw.go.jp/08/index.php?action_kouhyou_detail_004_kani=true&JigyosyoCd=0850180019-00&ServiceCd=160&Type=search" }, "geometry": { "type": "Point", "coordinates": [ 140.402246699999978, 36.3672261 ] } },
{ "type": "Feature", "properties": { "内容": "城南病院通所リハビリテーション【通所リハビリテーション】茨城県水戸市城南3-15-17", "url2": "https://www.kaigokensaku.mhlw.go.jp/08/index.php?action_kouhyou_detail_004_kani=true&JigyosyoCd=0810110759-00&ServiceCd=160&Type=search" }, "geometry": { "type": "Point", "coordinates": [ 140.4833291, 36.3642974 ] } },
{ "type": "Feature", "properties": { "内容": "介護老人保健施設　はなみずき【通所リハビリテーション】茨城県水戸市東原3-2-8", "url2": "https://www.kaigokensaku.mhlw.go.jp/08/index.php?action_kouhyou_detail_004_kani=true&JigyosyoCd=0850180076-00&ServiceCd=160&Type=search" }, "geometry": { "type": "Point", "coordinates": [ 140.446761599999945, 36.3862421 ] } },
{ "type": "Feature", "properties": { "内容": "介護老人保健施設　つまさと【通所リハビリテーション】茨城県水戸市有賀町2228", "url2": "https://www.kaigokensaku.mhlw.go.jp/08/index.php?action_kouhyou_detail_004_kani=true&JigyosyoCd=0853180040-00&ServiceCd=160&Type=search" }, "geometry": { "type": "Point", "coordinates": [ 140.363063199999942, 36.3823183 ] } },
{ "type": "Feature", "properties": { "内容": "通所リハビリテーション　みがわ【通所リハビリテーション】茨城県　水戸市　見川町2131-105", "url2": "https://www.kaigokensaku.mhlw.go.jp/08/index.php?action_kouhyou_detail_004_kani=true&JigyosyoCd=0850180050-00&ServiceCd=160&Type=search" }, "geometry": { "type": "Point", "coordinates": [ 140.425706, 36.358442 ] } },
{ "type": "Feature", "properties": { "内容": "介護老人保健施設ナーシングホームかたくり【通所リハビリテーション】茨城県水戸市河和田町4516-1", "url2": "https://www.kaigokensaku.mhlw.go.jp/08/index.php?action_kouhyou_detail_004_kani=true&JigyosyoCd=0850180027-00&ServiceCd=160&Type=search" }, "geometry": { "type": "Point", "coordinates": [ 140.392487, 36.3485814 ] } },
{ "type": "Feature", "properties": { "内容": "介護老人保健施設ひまわり水戸【通所リハビリテーション】百合が丘町814-477", "url2": "https://www.kaigokensaku.mhlw.go.jp/08/index.php?action_kouhyou_detail_004_kani=true&JigyosyoCd=0850180100-00&ServiceCd=160&Type=search" }, "geometry": { "type": "Point", "coordinates": [ 140.507352693670697, 36.350685027111851 ] } },
{ "type": "Feature", "properties": { "内容": "フロイデ水戸堀町デイケアセンター【通所リハビリテーション】茨城県水戸市堀町967番地1", "url2": "https://www.kaigokensaku.mhlw.go.jp/08/index.php?action_kouhyou_detail_004_kani=true&JigyosyoCd=0870106432-00&ServiceCd=160&Type=search" }, "geometry": { "type": "Point", "coordinates": [ 140.433643499999988, 36.4029795 ] } },
{ "type": "Feature", "properties": { "内容": "介護老人保健施設　大串の里【通所リハビリテーション】茨城県水戸市大串町５８４番1", "url2": "https://www.kaigokensaku.mhlw.go.jp/08/index.php?action_kouhyou_detail_004_kani=true&JigyosyoCd=0850180084-00&ServiceCd=160&Type=search" }, "geometry": { "type": "Point", "coordinates": [ 140.54222290000007, 36.3322786 ] } },
{ "type": "Feature", "properties": { "内容": "介護老人保健施設こすもぴあ【通所リハビリテーション】水戸市石川4丁目4027", "url2": "https://www.kaigokensaku.mhlw.go.jp/08/index.php?action_kouhyou_detail_004_kani=true&JigyosyoCd=0850180035-00&ServiceCd=160&Type=search" }, "geometry": { "type": "Point", "coordinates": [ 140.424302399999988, 36.3899824 ] } },
{ "type": "Feature", "properties": { "内容": "介護老人保健施設はぁもにか通所リハビリテーション【通所リハビリテーション】茨城県水戸市石川4-4039-26", "url2": "https://www.kaigokensaku.mhlw.go.jp/08/index.php?action_kouhyou_detail_004_kani=true&JigyosyoCd=0850180068-00&ServiceCd=160&Type=search" }, "geometry": { "type": "Point", "coordinates": [ 140.42376349999995, 36.3911072 ] } },
{ "type": "Feature", "properties": { "内容": "介護老人保健施設渡里の里【通所リハビリテーション】茨城県水戸市渡里町285-1", "url2": "https://www.kaigokensaku.mhlw.go.jp/08/index.php?action_kouhyou_detail_004_kani=true&JigyosyoCd=0850180118-00&ServiceCd=160&Type=search" }, "geometry": { "type": "Point", "coordinates": [ 140.4507643, 36.4034996 ] } },
{ "type": "Feature", "properties": { "内容": "デイケアセンターせいらん【通所リハビリテーション】茨城県水戸市酒門町268-1", "url2": "https://www.kaigokensaku.mhlw.go.jp/08/index.php?action_kouhyou_detail_004_kani=true&JigyosyoCd=0870106994-00&ServiceCd=160&Type=search" }, "geometry": { "type": "Point", "coordinates": [ 140.492342900000011, 36.3527766 ] } },
{ "type": "Feature", "properties": { "内容": "介護老人保健施設　葵の園・水戸中央【通所リハビリテーション】茨城県水戸市米沢町608-1", "url2": "https://www.kaigokensaku.mhlw.go.jp/08/index.php?action_kouhyou_detail_004_kani=true&JigyosyoCd=0850180142-00&ServiceCd=160&Type=search" }, "geometry": { "type": "Point", "coordinates": [ 140.458746135581976, 36.337189034028235 ] } },
{ "type": "Feature", "properties": { "内容": "ひたちの森　ハピネス【通所リハビリテーション】茨城県日立市十王町伊師725-1", "url2": "https://www.kaigokensaku.mhlw.go.jp/08/index.php?action_kouhyou_detail_004_kani=true&JigyosyoCd=0850280059-00&ServiceCd=160&Type=search" }, "geometry": { "type": "Point", "coordinates": [ 140.712244199999986, 36.6680669 ] } },
{ "type": "Feature", "properties": { "内容": "介護老人保健施設　さくら日立【通所リハビリテーション】日立市城南町1-1-11", "url2": "https://www.kaigokensaku.mhlw.go.jp/08/index.php?action_kouhyou_detail_004_kani=true&JigyosyoCd=0850280033-00&ServiceCd=160&Type=search" }, "geometry": { "type": "Point", "coordinates": [ 140.647667599999977, 36.5863109 ] } },
{ "type": "Feature", "properties": { "内容": "介護老人保健施設　田尻ヶ丘ヘルシーケア【通所リハビリテーション】茨城県日立市田尻町2-8-11", "url2": "https://www.kaigokensaku.mhlw.go.jp/08/index.php?action_kouhyou_detail_004_kani=true&JigyosyoCd=0850280017-00&ServiceCd=160&Type=search" }, "geometry": { "type": "Point", "coordinates": [ 140.666397299999971, 36.6333947 ] } },
{ "type": "Feature", "properties": { "内容": "日立南ヘルシーセンター【通所リハビリテーション】茨城県日立市大みか町6-17-1", "url2": "https://www.kaigokensaku.mhlw.go.jp/08/index.php?action_kouhyou_detail_004_kani=true&JigyosyoCd=0850280025-00&ServiceCd=160&Type=search" }, "geometry": { "type": "Point", "coordinates": [ 140.609113500000035, 36.5113516 ] } },
{ "type": "Feature", "properties": { "内容": "グルコピア日立デイケアセンター【通所リハビリテーション】茨城県日立市東滑川町1-38-10", "url2": "https://www.kaigokensaku.mhlw.go.jp/08/index.php?action_kouhyou_detail_004_kani=true&JigyosyoCd=0870201670-00&ServiceCd=160&Type=search" }, "geometry": { "type": "Point", "coordinates": [ 140.669306499999948, 36.6073336 ] } },
{ "type": "Feature", "properties": { "内容": "ひたちの森クリニックスポーツリハビリセンター【通所リハビリテーション】茨城県日立市東滑川町5-12-10870202975", "url2": "https://www.kaigokensaku.mhlw.go.jp/08/index.php?action_kouhyou_detail_004_kani=true&JigyosyoCd=0870202975-00&ServiceCd=160&Type=search" }, "geometry": { "type": "Point", "coordinates": [ 140.6795261, 36.6159728 ] } },
{ "type": "Feature", "properties": { "内容": "介護老人保健施設　しおさい【通所リハビリテーション】茨城県日立市国分町3-6-1", "url2": "https://www.kaigokensaku.mhlw.go.jp/08/index.php?action_kouhyou_detail_004_kani=true&JigyosyoCd=0850280074-00&ServiceCd=160&Type=search" }, "geometry": { "type": "Point", "coordinates": [ 140.648081600000012, 36.5652295 ] } },
{ "type": "Feature", "properties": { "内容": "デイケアさくらさくら【通所リハビリテーション】茨城県　日立市　桜川町　１-１-１", "url2": "https://www.kaigokensaku.mhlw.go.jp/08/index.php?action_kouhyou_detail_004_kani=true&JigyosyoCd=0870201456-00&ServiceCd=160&Type=search" }, "geometry": { "type": "Point", "coordinates": [ 140.627915800000011, 36.5568059 ] } },
{ "type": "Feature", "properties": { "内容": "介護老人保健施設ひかり【通所リハビリテーション】茨城県土浦市右籾１１１３－１", "url2": "https://www.kaigokensaku.mhlw.go.jp/08/index.php?action_kouhyou_detail_004_kani=true&JigyosyoCd=0850380031-00&ServiceCd=160&Type=search" }, "geometry": { "type": "Point", "coordinates": [ 140.181744200000026, 36.0498057 ] } },
{ "type": "Feature", "properties": { "内容": "介護老人保健施設いっせい【通所リハビリテーション】茨城県土浦市東崎町6-15", "url2": "https://www.kaigokensaku.mhlw.go.jp/08/index.php?action_kouhyou_detail_004_kani=true&JigyosyoCd=0850380064-00&ServiceCd=160&Type=search" }, "geometry": { "type": "Point", "coordinates": [ 140.206539, 36.082726 ] } },
{ "type": "Feature", "properties": { "内容": "山手医院　通所リハビリテーションセンター【通所リハビリテーション】茨城県土浦市国分町7-6", "url2": "https://www.kaigokensaku.mhlw.go.jp/08/index.php?action_kouhyou_detail_004_kani=true&JigyosyoCd=0870300704-00&ServiceCd=160&Type=search" }, "geometry": { "type": "Point", "coordinates": [ 140.188541, 36.0662512 ] } },
{ "type": "Feature", "properties": { "内容": "介護老人保健施設　さくら【通所リハビリテーション】土浦市神立町字前原４４４番地２号", "url2": "https://www.kaigokensaku.mhlw.go.jp/08/index.php?action_kouhyou_detail_004_kani=true&JigyosyoCd=0850380015-00&ServiceCd=160&Type=search" }, "geometry": { "type": "Point", "coordinates": [ 140.240714753625525, 36.105197843237441 ] } },
{ "type": "Feature", "properties": { "内容": "介護老人保健施設　セントラル土浦【通所リハビリテーション】茨城県土浦市真鍋新町12番10号", "url2": "https://www.kaigokensaku.mhlw.go.jp/08/index.php?action_kouhyou_detail_004_kani=true&JigyosyoCd=0850380080-00&ServiceCd=160&Type=search" }, "geometry": { "type": "Point", "coordinates": [ 140.209797500000036, 36.0905062 ] } },
{ "type": "Feature", "properties": { "内容": "介護老人保健施設　常総の郷【通所リハビリテーション】荒川沖6-110", "url2": "https://www.kaigokensaku.mhlw.go.jp/08/index.php?action_kouhyou_detail_004_kani=true&JigyosyoCd=0850380072-00&ServiceCd=160&Type=search" }, "geometry": { "type": "Point", "coordinates": [ 140.154740700000048, 36.0205279 ] } },
{ "type": "Feature", "properties": { "内容": "医療法人財団　県南病院　通所リハビリテーション【通所リハビリテーション】茨城県土浦市中1087", "url2": "https://www.kaigokensaku.mhlw.go.jp/08/index.php?action_kouhyou_detail_004_kani=true&JigyosyoCd=0810310110-00&ServiceCd=160&Type=search" }, "geometry": { "type": "Point", "coordinates": [ 140.1688605, 36.0489048 ] } },
{ "type": "Feature", "properties": { "内容": "医療法人社団青洲会　神立病院　通所リハビリテーション【通所リハビリテーション】茨城県土浦市神立中央5-4-20ケアセンター元気館", "url2": "https://www.kaigokensaku.mhlw.go.jp/08/index.php?action_kouhyou_detail_004_kani=true&JigyosyoCd=0810310599-00&ServiceCd=160&Type=search" }, "geometry": { "type": "Point", "coordinates": [ 140.2303176, 36.1205812 ] } },
{ "type": "Feature", "properties": { "内容": "介護老人保健施設えがお【通所リハビリテーション】土浦市中村東2-21-1", "url2": "https://www.kaigokensaku.mhlw.go.jp/08/index.php?action_kouhyou_detail_004_kani=true&JigyosyoCd=0850380056-00&ServiceCd=160&Type=search" }, "geometry": { "type": "Point", "coordinates": [ 140.173653, 36.0450171 ] } },
{ "type": "Feature", "properties": { "内容": "青嵐荘ケア・アシスタンス【通所リハビリテーション】茨城県古河市上大野703-1", "url2": "https://www.kaigokensaku.mhlw.go.jp/08/index.php?action_kouhyou_detail_004_kani=true&JigyosyoCd=0854380011-00&ServiceCd=160&Type=search" }, "geometry": { "type": "Point", "coordinates": [ 139.774593200000027, 36.2099162 ] } },
{ "type": "Feature", "properties": { "内容": "医療法人　徳洲会　古河総合病院【通所リハビリテーション】茨城県古河市鴻巣１５５５番地", "url2": "https://www.kaigokensaku.mhlw.go.jp/08/index.php?action_kouhyou_detail_004_kani=true&JigyosyoCd=0810411678-00&ServiceCd=160&Type=search" }, "geometry": { "type": "Point", "coordinates": [ 139.706814799999989, 36.171713 ] } },
{ "type": "Feature", "properties": { "内容": "介護老人保健施設まくらがの郷【通所リハビリテーション】茨城県古河市東本町四丁目2番2号", "url2": "https://www.kaigokensaku.mhlw.go.jp/08/index.php?action_kouhyou_detail_004_kani=true&JigyosyoCd=0850480021-00&ServiceCd=160&Type=search" }, "geometry": { "type": "Point", "coordinates": [ 139.724123205418437, 36.193765133745288 ] } },
{ "type": "Feature", "properties": { "内容": "介護老人保健施設けやきの舎【通所リハビリテーション】茨城県古河市仁連６０１", "url2": "https://www.kaigokensaku.mhlw.go.jp/08/index.php?action_kouhyou_detail_004_kani=true&JigyosyoCd=0850480047-00&ServiceCd=160&Type=search" }, "geometry": { "type": "Point", "coordinates": [ 139.8060194, 36.1830133 ] } },
{ "type": "Feature", "properties": { "内容": "医療法人　慈政会　介護老人保健施設　平成園【通所リハビリテーション】茨城県古河市旭町１－１７－３９", "url2": "https://www.kaigokensaku.mhlw.go.jp/08/index.php?action_kouhyou_detail_004_kani=true&JigyosyoCd=0850480013-00&ServiceCd=160&Type=search" }, "geometry": { "type": "Point", "coordinates": [ 139.72170570000003, 36.1975717 ] } },
{ "type": "Feature", "properties": { "内容": "総和中央病院デイケアセンターあさがお【通所リハビリテーション】茨城県古河市駒羽根825-1", "url2": "https://www.kaigokensaku.mhlw.go.jp/08/index.php?action_kouhyou_detail_004_kani=true&JigyosyoCd=0874300932-00&ServiceCd=160&Type=search" }, "geometry": { "type": "Point", "coordinates": [ 139.760168599999986, 36.1641344 ] } },
{ "type": "Feature", "properties": { "内容": "医療法人明風会　久保田病院【通所リハビリテーション】茨城県石岡市行里川26-3", "url2": "https://www.kaigokensaku.mhlw.go.jp/08/index.php?action_kouhyou_detail_004_kani=true&JigyosyoCd=0810510644-00&ServiceCd=160&Type=search" }, "geometry": { "type": "Point", "coordinates": [ 140.289457, 36.20627 ] } },
{ "type": "Feature", "properties": { "内容": "介護老人保健施設　八郷プロバンス【通所リハビリテーション】石岡市瓦谷766-28", "url2": "https://www.kaigokensaku.mhlw.go.jp/08/index.php?action_kouhyou_detail_004_kani=true&JigyosyoCd=0853980027-00&ServiceCd=160&Type=search" }, "geometry": { "type": "Point", "coordinates": [ 140.220418099999961, 36.2646323 ] } },
{ "type": "Feature", "properties": { "内容": "医療法人　明風会　通所リハビリテーション事業所　明風苑【通所リハビリテーション】石岡市行里川26-3", "url2": "https://www.kaigokensaku.mhlw.go.jp/08/index.php?action_kouhyou_detail_004_kani=true&JigyosyoCd=0870500808-00&ServiceCd=160&Type=search" }, "geometry": { "type": "Point", "coordinates": [ 140.289605299999948, 36.2064079 ] } },
{ "type": "Feature", "properties": { "内容": "医療法人　美湖会　介護老人保健施設　ウイケア【通所リハビリテーション】茨城県石岡市行里川12951-1", "url2": "https://www.kaigokensaku.mhlw.go.jp/08/index.php?action_kouhyou_detail_004_kani=true&JigyosyoCd=0850580036-00&ServiceCd=160&Type=search" }, "geometry": { "type": "Point", "coordinates": [ 140.289627200000012, 36.2082118 ] } },
{ "type": "Feature", "properties": { "内容": "社会福祉法人欅会　介護老人保健施設ゆうゆう【通所リハビリテーション】茨城県石岡市大砂10528-14", "url2": "https://www.kaigokensaku.mhlw.go.jp/08/index.php?action_kouhyou_detail_004_kani=true&JigyosyoCd=0850580044-00&ServiceCd=160&Type=search" }, "geometry": { "type": "Point", "coordinates": [ 140.247907, 36.2258031 ] } },
{ "type": "Feature", "properties": { "内容": "八郷病院通所リハビリセンター【通所リハビリテーション】茨城県石岡市東成井２７１９番地", "url2": "https://www.kaigokensaku.mhlw.go.jp/08/index.php?action_kouhyou_detail_004_kani=true&JigyosyoCd=0810510784-00&ServiceCd=160&Type=search" }, "geometry": { "type": "Point", "coordinates": [ 140.2825317, 36.2570812 ] } },
{ "type": "Feature", "properties": { "内容": "通所リハビリテーションサングリーンやさと【通所リハビリテーション】茨城県石岡市小倉４４３－１介護老人保健施設サングリーンやさと", "url2": "https://www.kaigokensaku.mhlw.go.jp/08/index.php?action_kouhyou_detail_004_kani=true&JigyosyoCd=0853980019-00&ServiceCd=160&Type=search" }, "geometry": { "type": "Point", "coordinates": [ 140.170723299999963, 36.2414678 ] } },
{ "type": "Feature", "properties": { "内容": "医療法人幕内会　通所リハビリテーションあいあい【通所リハビリテーション】茨城県石岡市東石岡5-2-26", "url2": "https://www.kaigokensaku.mhlw.go.jp/08/index.php?action_kouhyou_detail_004_kani=true&JigyosyoCd=0850580028-00&ServiceCd=160&Type=search" }, "geometry": { "type": "Point", "coordinates": [ 140.293124914169312, 36.189065852804781 ] } },
{ "type": "Feature", "properties": { "内容": "介護老人保健施設　あんしん【通所リハビリテーション】茨城県結城市大字結城字西繫昌塚9628-2", "url2": "https://www.kaigokensaku.mhlw.go.jp/08/index.php?action_kouhyou_detail_004_kani=true&JigyosyoCd=0850780032-00&ServiceCd=160&Type=search" }, "geometry": { "type": "Point", "coordinates": [ 139.855301590601044, 36.288721304381923 ] } },
{ "type": "Feature", "properties": { "内容": "介護老人保健施設生きいき倶楽部【通所リハビリテーション】茨城県結城市大字結城９１４３－１", "url2": "https://www.kaigokensaku.mhlw.go.jp/08/index.php?action_kouhyou_detail_004_kani=true&JigyosyoCd=0850780024-00&ServiceCd=160&Type=search" }, "geometry": { "type": "Point", "coordinates": [ 139.859954499999958, 36.2858517 ] } },
{ "type": "Feature", "properties": { "内容": "介護老人保健施設すばる　通所リハビリセンター　茶釜の湯【通所リハビリテーション】茨城県結城市大字結城１０７８０　及び　結城市大字結城１１２９９－１", "url2": "https://www.kaigokensaku.mhlw.go.jp/08/index.php?action_kouhyou_detail_004_kani=true&JigyosyoCd=0850780040-00&ServiceCd=160&Type=search" }, "geometry": { "type": "Point", "coordinates": [ 139.852032600278363, 36.308082913916842 ] } },
{ "type": "Feature", "properties": { "内容": "介護老人保健施設　涼風苑【通所リハビリテーション】龍ケ崎市貝原塚町3689", "url2": "https://www.kaigokensaku.mhlw.go.jp/08/index.php?action_kouhyou_detail_004_kani=true&JigyosyoCd=0850880014-00&ServiceCd=160&Type=search" }, "geometry": { "type": "Point", "coordinates": [ 140.188090099999954, 35.9421189 ] } },
{ "type": "Feature", "properties": { "内容": "介護老人保健施設ビオラセア【通所リハビリテーション】茨城県龍ケ崎市字野原1360-1", "url2": "https://www.kaigokensaku.mhlw.go.jp/08/index.php?action_kouhyou_detail_004_kani=true&JigyosyoCd=0850880030-00&ServiceCd=160&Type=search" }, "geometry": { "type": "Point", "coordinates": [ 140.203228738327994, 35.911036029759515 ] } },
{ "type": "Feature", "properties": { "内容": "介護老人保健施設　けやきの郷　デイケアセンター【通所リハビリテーション】茨城県龍ケ崎市若柴町字沖餅1741-1", "url2": "https://www.kaigokensaku.mhlw.go.jp/08/index.php?action_kouhyou_detail_004_kani=true&JigyosyoCd=0850880022-00&ServiceCd=160&Type=search" }, "geometry": { "type": "Point", "coordinates": [ 140.144392299999936, 35.9237451 ] } },
{ "type": "Feature", "properties": { "内容": "牛尾病院通所リハビリテーション【通所リハビリテーション】茨城県龍ケ崎市馴柴町１－１５－１", "url2": "https://www.kaigokensaku.mhlw.go.jp/08/index.php?action_kouhyou_detail_004_kani=true&JigyosyoCd=0810810564-00&ServiceCd=160&Type=search" }, "geometry": { "type": "Point", "coordinates": [ 140.147580599999969, 35.928925 ] } },
{ "type": "Feature", "properties": { "内容": "介護老人保健施設しろかね【通所リハビリテーション】茨城県下妻市下栗１２１７", "url2": "https://www.kaigokensaku.mhlw.go.jp/08/index.php?action_kouhyou_detail_004_kani=true&JigyosyoCd=0854280013-00&ServiceCd=160&Type=search" }, "geometry": { "type": "Point", "coordinates": [ 139.959218882278492, 36.164058846879811 ] } },
{ "type": "Feature", "properties": { "内容": "医療法人　光潤会　介護老人保健施設　ルーエしもつま【通所リハビリテーション】茨城県下妻市江1832", "url2": "https://www.kaigokensaku.mhlw.go.jp/08/index.php?action_kouhyou_detail_004_kani=true&JigyosyoCd=0851080010-00&ServiceCd=160&Type=search" }, "geometry": { "type": "Point", "coordinates": [ 139.934668699999946, 36.2283614 ] } },
{ "type": "Feature", "properties": { "内容": "イ）研西会　水海道西部病院【通所リハビリテーション】茨城県常総市豊岡町丙685", "url2": "https://www.kaigokensaku.mhlw.go.jp/08/index.php?action_kouhyou_detail_004_kani=true&JigyosyoCd=0811110535-00&ServiceCd=160&Type=search" }, "geometry": { "type": "Point", "coordinates": [ 139.967527799999971, 36.0283371 ] } },
{ "type": "Feature", "properties": { "内容": "けんちの苑通所リハビリテーション【通所リハビリテーション】茨城県常総市豊岡町丙３２６４番地", "url2": "https://www.kaigokensaku.mhlw.go.jp/08/index.php?action_kouhyou_detail_004_kani=true&JigyosyoCd=0851180018-00&ServiceCd=160&Type=search" }, "geometry": { "type": "Point", "coordinates": [ 139.9731051, 36.0298668 ] } },
{ "type": "Feature", "properties": { "内容": "介護老人保健施設　葵の園　常総【通所リハビリテーション】菅生町1308番地の1", "url2": "https://www.kaigokensaku.mhlw.go.jp/08/index.php?action_kouhyou_detail_004_kani=true&JigyosyoCd=0851180026-00&ServiceCd=160&Type=search" }, "geometry": { "type": "Point", "coordinates": [ 139.9341523, 35.9892603 ] } },
{ "type": "Feature", "properties": { "内容": "脳神経外科ブレインピア南太田「お迎えリハビリ」【通所リハビリテーション】茨城県常陸太田市谷河原町１１８３－１", "url2": "https://www.kaigokensaku.mhlw.go.jp/08/index.php?action_kouhyou_detail_004_kani=true&JigyosyoCd=0871200234-00&ServiceCd=160&Type=search" }, "geometry": { "type": "Point", "coordinates": [ 140.515782599999966, 36.5227528 ] } },
{ "type": "Feature", "properties": { "内容": "根本医院　通所リハビリテーション【通所リハビリテーション】茨城県常陸太田市久米町200", "url2": "https://www.kaigokensaku.mhlw.go.jp/08/index.php?action_kouhyou_detail_004_kani=true&JigyosyoCd=0873400394-00&ServiceCd=160&Type=search" }, "geometry": { "type": "Point", "coordinates": [ 140.476768099999958, 36.5409196 ] } },
{ "type": "Feature", "properties": { "内容": "医療法人　大森医院　通所リハビリテーション事業所【通所リハビリテーション】茨城県常陸太田市徳田町474番地", "url2": "https://www.kaigokensaku.mhlw.go.jp/08/index.php?action_kouhyou_detail_004_kani=true&JigyosyoCd=0873400337-00&ServiceCd=160&Type=search" }, "geometry": { "type": "Point", "coordinates": [ 140.479281300000025, 36.785695 ] } },
{ "type": "Feature", "properties": { "内容": "通所リハビリテーション　はすみ敬愛【通所リハビリテーション】木崎二町931-2", "url2": "https://www.kaigokensaku.mhlw.go.jp/08/index.php?action_kouhyou_detail_004_kani=true&JigyosyoCd=08B1200029-00&ServiceCd=160&Type=search" }, "geometry": { "type": "Point", "coordinates": [ 140.524475700000011, 36.5318633 ] } },
{ "type": "Feature", "properties": { "内容": "介護老人保健施設　くじらヶ丘【通所リハビリテーション】茨城県常陸太田市田渡町８５５－１", "url2": "https://www.kaigokensaku.mhlw.go.jp/08/index.php?action_kouhyou_detail_004_kani=true&JigyosyoCd=0851280016-00&ServiceCd=160&Type=search" }, "geometry": { "type": "Point", "coordinates": [ 140.548799899999949, 36.5644003 ] } },
{ "type": "Feature", "properties": { "内容": "介護老人保健施設　ノア【通所リハビリテーション】高萩市高浜町3-154-1", "url2": "https://www.kaigokensaku.mhlw.go.jp/08/index.php?action_kouhyou_detail_004_kani=true&JigyosyoCd=0851480020-00&ServiceCd=160&Type=search" }, "geometry": { "type": "Point", "coordinates": [ 140.717926600000055, 36.7021519 ] } },
{ "type": "Feature", "properties": { "内容": "介護老人保健施設　博純苑【通所リハビリテーション】茨城県高萩市秋山６２５", "url2": "https://www.kaigokensaku.mhlw.go.jp/08/index.php?action_kouhyou_detail_004_kani=true&JigyosyoCd=0851480012-00&ServiceCd=160&Type=search" }, "geometry": { "type": "Point", "coordinates": [ 140.684970300000032, 36.7152799 ] } },
{ "type": "Feature", "properties": { "内容": "高萩それいゆ病院指定通所リハビリテーション事業所【通所リハビリテーション】茨城県高萩市上手綱赤塚268", "url2": "https://www.kaigokensaku.mhlw.go.jp/08/index.php?action_kouhyou_detail_004_kani=true&JigyosyoCd=0811410224-00&ServiceCd=160&Type=search" }, "geometry": { "type": "Point", "coordinates": [ 140.695964089657593, 36.729310280776929 ] } },
{ "type": "Feature", "properties": { "内容": "介護老人保健施設ひだまり倶楽部【通所リハビリテーション】北茨城市磯原町磯原２－３０５", "url2": "https://www.kaigokensaku.mhlw.go.jp/08/index.php?action_kouhyou_detail_004_kani=true&JigyosyoCd=0851580027-00&ServiceCd=160&Type=search" }, "geometry": { "type": "Point", "coordinates": [ 140.7398042, 36.7911522 ] } },
{ "type": "Feature", "properties": { "内容": "介護老人保健施設　おはよう館【通所リハビリテーション】茨城県北茨城市磯原町磯原字前大沢1919-4", "url2": "https://www.kaigokensaku.mhlw.go.jp/08/index.php?action_kouhyou_detail_004_kani=true&JigyosyoCd=0851580019-00&ServiceCd=160&Type=search" }, "geometry": { "type": "Point", "coordinates": [ 140.7509791, 36.8019113 ] } },
{ "type": "Feature", "properties": { "内容": "介護老人保健施設オリーブ友部館【通所リハビリテーション】茨城県笠間市旭町32", "url2": "https://www.kaigokensaku.mhlw.go.jp/08/index.php?action_kouhyou_detail_004_kani=true&JigyosyoCd=0851689125-00&ServiceCd=160&Type=search" }, "geometry": { "type": "Point", "coordinates": [ 140.3198042, 36.3261944 ] } },
{ "type": "Feature", "properties": { "内容": "介護老人保健施設　あたごナーシングビラ【通所リハビリテーション】茨城県笠間市土師1080-1", "url2": "https://www.kaigokensaku.mhlw.go.jp/08/index.php?action_kouhyou_detail_004_kani=true&JigyosyoCd=0853280030-00&ServiceCd=160&Type=search" }, "geometry": { "type": "Point", "coordinates": [ 140.297493600000053, 36.3071874 ] } },
{ "type": "Feature", "properties": { "内容": "介護老人保健施設　シルバービィレッジ【通所リハビリテーション】茨城県笠間市南小泉977-1", "url2": "https://www.kaigokensaku.mhlw.go.jp/08/index.php?action_kouhyou_detail_004_kani=true&JigyosyoCd=0853280022-00&ServiceCd=160&Type=search" }, "geometry": { "type": "Point", "coordinates": [ 140.2851217, 36.3285459 ] } },
{ "type": "Feature", "properties": { "内容": "介護老人保健施設すみれ【通所リハビリテーション】茨城県笠間市石井2045", "url2": "https://www.kaigokensaku.mhlw.go.jp/08/index.php?action_kouhyou_detail_004_kani=true&JigyosyoCd=0851689117-00&ServiceCd=160&Type=search" }, "geometry": { "type": "Point", "coordinates": [ 140.2479875, 36.3851369 ] } },
{ "type": "Feature", "properties": { "内容": "笠間シルバーケアセンター　パル【通所リハビリテーション】茨城県笠間市来栖２５５－１", "url2": "https://www.kaigokensaku.mhlw.go.jp/08/index.php?action_kouhyou_detail_004_kani=true&JigyosyoCd=0851680017-00&ServiceCd=160&Type=search" }, "geometry": { "type": "Point", "coordinates": [ 140.238759800000025, 36.3780109 ] } },
{ "type": "Feature", "properties": { "内容": "有田内科整形リハビリクリニック　通所リハビリテーション【通所リハビリテーション】茨城県取手市毛有363-1", "url2": "https://www.kaigokensaku.mhlw.go.jp/08/index.php?action_kouhyou_detail_004_kani=true&JigyosyoCd=0871700480-00&ServiceCd=160&Type=search" }, "geometry": { "type": "Point", "coordinates": [ 140.086512699999957, 35.9162199 ] } },
{ "type": "Feature", "properties": { "内容": "西間木病院【通所リハビリテーション】茨城県取手市戸頭1-8-21", "url2": "https://www.kaigokensaku.mhlw.go.jp/08/index.php?action_kouhyou_detail_004_kani=true&JigyosyoCd=0811710359-00&ServiceCd=160&Type=search" }, "geometry": { "type": "Point", "coordinates": [ 140.01279169999998, 35.9189309 ] } },
{ "type": "Feature", "properties": { "内容": "さくら通所リハビリテーション【通所リハビリテーション】茨城県取手市桜が丘1-2-1", "url2": "https://www.kaigokensaku.mhlw.go.jp/08/index.php?action_kouhyou_detail_004_kani=true&JigyosyoCd=0871700472-00&ServiceCd=160&Type=search" }, "geometry": { "type": "Point", "coordinates": [ 140.124742199999986, 35.9072637 ] } },
{ "type": "Feature", "properties": { "内容": "医療法人社団　宗仁会　介護老人保健施設　サンライフ宗仁会【通所リハビリテーション】茨城県取手市岡１４７１番地", "url2": "https://www.kaigokensaku.mhlw.go.jp/08/index.php?action_kouhyou_detail_004_kani=true&JigyosyoCd=0854480019-00&ServiceCd=160&Type=search" }, "geometry": { "type": "Point", "coordinates": [ 140.056325799999968, 35.9221211 ] } },
{ "type": "Feature", "properties": { "内容": "介護老人保健施設　はあとぴあ【通所リハビリテーション】茨城県取手市井野２５３", "url2": "https://www.kaigokensaku.mhlw.go.jp/08/index.php?action_kouhyou_detail_004_kani=true&JigyosyoCd=0851780023-00&ServiceCd=160&Type=search" }, "geometry": { "type": "Point", "coordinates": [ 140.086482899999965, 35.9025077 ] } },
{ "type": "Feature", "properties": { "内容": "取手市介護老人保健施設　緑寿荘【通所リハビリテーション】野々井1926番地8", "url2": "https://www.kaigokensaku.mhlw.go.jp/08/index.php?action_kouhyou_detail_004_kani=true&JigyosyoCd=0851780015-00&ServiceCd=160&Type=search" }, "geometry": { "type": "Point", "coordinates": [ 140.025595, 35.9180953 ] } },
{ "type": "Feature", "properties": { "内容": "介護老人保健施設　春秋園【通所リハビリテーション】茨城県牛久市猪子町891番地2", "url2": "https://www.kaigokensaku.mhlw.go.jp/08/index.php?action_kouhyou_detail_004_kani=true&JigyosyoCd=0851980029-00&ServiceCd=160&Type=search" }, "geometry": { "type": "Point", "coordinates": [ 140.140951399999949, 35.9985334 ] } },
{ "type": "Feature", "properties": { "内容": "医療法人社団　桜水会　柏田診療所通所リハビリテーション【通所リハビリテーション】茨城県牛久市上柏田2-39-1", "url2": "https://www.kaigokensaku.mhlw.go.jp/08/index.php?action_kouhyou_detail_004_kani=true&JigyosyoCd=0811910470-00&ServiceCd=160&Type=search" }, "geometry": { "type": "Point", "coordinates": [ 140.1532904, 35.9891468 ] } },
{ "type": "Feature", "properties": { "内容": "介護老人保健施設　セントラルゆうあい【通所リハビリテーション】牛久市柏田町1590-3", "url2": "https://www.kaigokensaku.mhlw.go.jp/08/index.php?action_kouhyou_detail_004_kani=true&JigyosyoCd=0851980011-00&ServiceCd=160&Type=search" }, "geometry": { "type": "Point", "coordinates": [ 140.157139499999971, 35.9824859 ] } },
{ "type": "Feature", "properties": { "内容": "介護老人保健施設　セントラルふれあい【通所リハビリテーション】茨城県牛久市柏田町1604番6", "url2": "https://www.kaigokensaku.mhlw.go.jp/08/index.php?action_kouhyou_detail_004_kani=true&JigyosyoCd=0851980037-00&ServiceCd=160&Type=search" }, "geometry": { "type": "Point", "coordinates": [ 140.156509, 35.9811278 ] } },
{ "type": "Feature", "properties": { "内容": "介護老人保健施設プレミエール元気館【通所リハビリテーション】茨城県つくば市谷田部6107-1", "url2": "https://www.kaigokensaku.mhlw.go.jp/08/index.php?action_kouhyou_detail_004_kani=true&JigyosyoCd=0852080076-00&ServiceCd=160&Type=search" }, "geometry": { "type": "Point", "coordinates": [ 140.0806513, 36.0424213 ] } },
{ "type": "Feature", "properties": { "内容": "医療法人社団　桜水会　介護老人保健施設「豊浦」【通所リハビリテーション】茨城県つくば市神郡2013-1", "url2": "https://www.kaigokensaku.mhlw.go.jp/08/index.php?action_kouhyou_detail_004_kani=true&JigyosyoCd=0852080043-00&ServiceCd=160&Type=search" }, "geometry": { "type": "Point", "coordinates": [ 140.1055503, 36.1917742 ] } },
{ "type": "Feature", "properties": { "内容": "医療法人社団恵仁会介護老人保健施設アリエッタ【通所リハビリテーション】茨城県つくば市北条1174", "url2": "https://www.kaigokensaku.mhlw.go.jp/08/index.php?action_kouhyou_detail_004_kani=true&JigyosyoCd=0852080019-00&ServiceCd=160&Type=search" }, "geometry": { "type": "Point", "coordinates": [ 140.097601700000041, 36.1801972 ] } },
{ "type": "Feature", "properties": { "内容": "通所リハビリテーション雅【通所リハビリテーション】茨城県つくば市高崎1008", "url2": "https://www.kaigokensaku.mhlw.go.jp/08/index.php?action_kouhyou_detail_004_kani=true&JigyosyoCd=0872000724-00&ServiceCd=160&Type=search" }, "geometry": { "type": "Point", "coordinates": [ 140.115881599999966, 36.0038966 ] } },
{ "type": "Feature", "properties": { "内容": "介護老人保健施設　そよかぜ【通所リハビリテーション】茨城県つくば市上横場2573-1", "url2": "https://www.kaigokensaku.mhlw.go.jp/08/index.php?action_kouhyou_detail_004_kani=true&JigyosyoCd=0852080027-00&ServiceCd=160&Type=search" }, "geometry": { "type": "Point", "coordinates": [ 140.098777399999989, 36.0391148 ] } },
{ "type": "Feature", "properties": { "内容": "介護老人保健施設　つくばリハビリテーションセンター【通所リハビリテーション】茨城県つくば市大曽根３６８１", "url2": "https://www.kaigokensaku.mhlw.go.jp/08/index.php?action_kouhyou_detail_004_kani=true&JigyosyoCd=0852080035-00&ServiceCd=160&Type=search" }, "geometry": { "type": "Point", "coordinates": [ 140.080422028311119, 36.138720009682814 ] } },
{ "type": "Feature", "properties": { "内容": "介護老人保健施設　つくばケアセンター　通所リハビリテーション【通所リハビリテーション】茨城県つくば市要76", "url2": "https://www.kaigokensaku.mhlw.go.jp/08/index.php?action_kouhyou_detail_004_kani=true&JigyosyoCd=0852080050-00&ServiceCd=160&Type=search" }, "geometry": { "type": "Point", "coordinates": [ 140.080319499999973, 36.1085856 ] } },
{ "type": "Feature", "properties": { "内容": "広瀬医院通所リハビリテーション【通所リハビリテーション】茨城県つくば市北条85", "url2": "https://www.kaigokensaku.mhlw.go.jp/08/index.php?action_kouhyou_detail_004_kani=true&JigyosyoCd=0812011591-00&ServiceCd=160&Type=search" }, "geometry": { "type": "Point", "coordinates": [ 140.092961800000012, 36.1783101 ] } },
{ "type": "Feature", "properties": { "内容": "介護老人保健施設なでしこ【通所リハビリテーション】水守2228-2", "url2": "https://www.kaigokensaku.mhlw.go.jp/08/index.php?action_kouhyou_detail_004_kani=true&JigyosyoCd=0852080068-00&ServiceCd=160&Type=search" }, "geometry": { "type": "Point", "coordinates": [ 140.0567686, 36.1549174 ] } },
{ "type": "Feature", "properties": { "内容": "介護老人保健施設　ラプラス津田【通所リハビリテーション】茨城県ひたちなか市津田３７２８", "url2": "https://www.kaigokensaku.mhlw.go.jp/08/index.php?action_kouhyou_detail_004_kani=true&JigyosyoCd=0852180066-00&ServiceCd=160&Type=search" }, "geometry": { "type": "Point", "coordinates": [ 140.488192, 36.3930113 ] } },
{ "type": "Feature", "properties": { "内容": "恵愛小林クリニック【通所リハビリテーション】茨城県ひたちなか市幸町16-1", "url2": "https://www.kaigokensaku.mhlw.go.jp/08/index.php?action_kouhyou_detail_004_kani=true&JigyosyoCd=0812110773-00&ServiceCd=160&Type=search" }, "geometry": { "type": "Point", "coordinates": [ 140.585358199999973, 36.3485772 ] } },
{ "type": "Feature", "properties": { "内容": "デイケアさくら【通所リハビリテーション】茨城県ひたちなか市東石川　1581", "url2": "https://www.kaigokensaku.mhlw.go.jp/08/index.php?action_kouhyou_detail_004_kani=true&JigyosyoCd=0872100722-00&ServiceCd=160&Type=search" }, "geometry": { "type": "Point", "coordinates": [ 140.531970900000033, 36.3969926 ] } },
{ "type": "Feature", "properties": { "内容": "介護老人保健施設プロスペクトガーデンひたちなか【通所リハビリテーション】茨城県ひたちなか市高野字柏野２４５５－１", "url2": "https://www.kaigokensaku.mhlw.go.jp/08/index.php?action_kouhyou_detail_004_kani=true&JigyosyoCd=0852180058-00&ServiceCd=160&Type=search" }, "geometry": { "type": "Point", "coordinates": [ 140.542811699999987, 36.4408303 ] } },
{ "type": "Feature", "properties": { "内容": "通所リハビリテーション　すだち【通所リハビリテーション】茨城県ひたちなか市津田３２４５－１", "url2": "https://www.kaigokensaku.mhlw.go.jp/08/index.php?action_kouhyou_detail_004_kani=true&JigyosyoCd=0872101076-00&ServiceCd=160&Type=search" }, "geometry": { "type": "Point", "coordinates": [ 140.493874399999982, 36.4048216 ] } },
{ "type": "Feature", "properties": { "内容": "湊整形外科・内科　通所リハビリテーションラメール【通所リハビリテーション】釈迦町15-9", "url2": "https://www.kaigokensaku.mhlw.go.jp/08/index.php?action_kouhyou_detail_004_kani=true&JigyosyoCd=0872101464-00&ServiceCd=160&Type=search" }, "geometry": { "type": "Point", "coordinates": [ 140.583564199999955, 36.3449054 ] } },
{ "type": "Feature", "properties": { "内容": "医療法人社団克仁会　通所リハビリテーション　サンライズ湊【通所リハビリテーション】茨城県ひたちなか市阿字ヶ浦字原１４０６－１", "url2": "https://www.kaigokensaku.mhlw.go.jp/08/index.php?action_kouhyou_detail_004_kani=true&JigyosyoCd=0852180017-00&ServiceCd=160&Type=search" }, "geometry": { "type": "Point", "coordinates": [ 140.6012098, 36.3751833 ] } },
{ "type": "Feature", "properties": { "内容": "サンライズ湊パワーリハビリテーションセンター【通所リハビリテーション】ひたちなか市阿字ヶ浦町字原１４０６－１", "url2": "https://www.kaigokensaku.mhlw.go.jp/08/index.php?action_kouhyou_detail_004_kani=true&JigyosyoCd=0872101498-00&ServiceCd=160&Type=search" }, "geometry": { "type": "Point", "coordinates": [ 140.6012098, 36.3751833 ] } },
{ "type": "Feature", "properties": { "内容": "介護老人保健施設　いちご苑【通所リハビリテーション】茨城県ひたちなか市笹野町１－３－２０", "url2": "https://www.kaigokensaku.mhlw.go.jp/08/index.php?action_kouhyou_detail_004_kani=true&JigyosyoCd=0852180041-00&ServiceCd=160&Type=search" }, "geometry": { "type": "Point", "coordinates": [ 140.541350400000027, 36.3953595 ] } },
{ "type": "Feature", "properties": { "内容": "きらきら星【通所リハビリテーション】茨城県ひたちなか市高場1673-34", "url2": "https://www.kaigokensaku.mhlw.go.jp/08/index.php?action_kouhyou_detail_004_kani=true&JigyosyoCd=0872100821-00&ServiceCd=160&Type=search" }, "geometry": { "type": "Point", "coordinates": [ 140.542805, 36.417699 ] } },
{ "type": "Feature", "properties": { "内容": "松寿園リハビリケアセンター【通所リハビリテーション】茨城県鹿嶋市武井1961番地1", "url2": "https://www.kaigokensaku.mhlw.go.jp/08/index.php?action_kouhyou_detail_004_kani=true&JigyosyoCd=0852280023-00&ServiceCd=160&Type=search" }, "geometry": { "type": "Point", "coordinates": [ 140.585087771163899, 36.057171077860239 ] } },
{ "type": "Feature", "properties": { "内容": "医療法人社団善仁会介護老人保健施設鹿野苑【通所リハビリテーション】茨城県鹿嶋市宮津台188－17", "url2": "https://www.kaigokensaku.mhlw.go.jp/08/index.php?action_kouhyou_detail_004_kani=true&JigyosyoCd=0852280015-00&ServiceCd=160&Type=search" }, "geometry": { "type": "Point", "coordinates": [ 140.655261500000051, 35.9821035 ] } },
{ "type": "Feature", "properties": { "内容": "医療法人晴生会介護老人保健施設あおぞら【通所リハビリテーション】潮来市延方5405番地1", "url2": "https://www.kaigokensaku.mhlw.go.jp/08/index.php?action_kouhyou_detail_004_kani=true&JigyosyoCd=0852380013-00&ServiceCd=160&Type=search" }, "geometry": { "type": "Point", "coordinates": [ 140.601207299999942, 35.9323398 ] } },
{ "type": "Feature", "properties": { "内容": "さとうデイケア・リハビリテーションセンター【通所リハビリテーション】茨城県守谷市野木崎５２１－１", "url2": "https://www.kaigokensaku.mhlw.go.jp/08/index.php?action_kouhyou_detail_004_kani=true&JigyosyoCd=0872400353-00&ServiceCd=160&Type=search" }, "geometry": { "type": "Point", "coordinates": [ 139.9674951, 35.9461937 ] } },
{ "type": "Feature", "properties": { "内容": "通所リハビリテーション　ダ・ジャーレ　もりや【通所リハビリテーション】茨城県守谷市松並1630-1", "url2": "https://www.kaigokensaku.mhlw.go.jp/08/index.php?action_kouhyou_detail_004_kani=true&JigyosyoCd=0872400395-00&ServiceCd=160&Type=search" }, "geometry": { "type": "Point", "coordinates": [ 139.9987572, 35.9560168 ] } },
{ "type": "Feature", "properties": { "内容": "介護老人保健施設　アイケア【通所リハビリテーション】茨城県守谷市小山３１８番５", "url2": "https://www.kaigokensaku.mhlw.go.jp/08/index.php?action_kouhyou_detail_004_kani=true&JigyosyoCd=0852480029-00&ServiceCd=160&Type=search" }, "geometry": { "type": "Point", "coordinates": [ 140.012007700000026, 35.9301381 ] } },
{ "type": "Feature", "properties": { "内容": "地域リハビリセンター　茨城リハビリテーション病院デイケア【通所リハビリテーション】同地字仲山360", "url2": "https://www.kaigokensaku.mhlw.go.jp/08/index.php?action_kouhyou_detail_004_kani=true&JigyosyoCd=0812410793-00&ServiceCd=160&Type=search" }, "geometry": { "type": "Point", "coordinates": [ 140.01411, 35.952286 ] } },
{ "type": "Feature", "properties": { "内容": "一貫堂クリニック【通所リハビリテーション】茨城県常陸大宮市下町3993", "url2": "https://www.kaigokensaku.mhlw.go.jp/08/index.php?action_kouhyou_detail_004_kani=true&JigyosyoCd=0812510154-00&ServiceCd=160&Type=search" }, "geometry": { "type": "Point", "coordinates": [ 140.417030699999941, 36.5486231 ] } },
{ "type": "Feature", "properties": { "内容": "デイケアセンター貴船【通所リハビリテーション】茨城県常陸大宮市上小瀬1426-1", "url2": "https://www.kaigokensaku.mhlw.go.jp/08/index.php?action_kouhyou_detail_004_kani=true&JigyosyoCd=0872500228-00&ServiceCd=160&Type=search" }, "geometry": { "type": "Point", "coordinates": [ 140.326376, 36.6027808 ] } },
{ "type": "Feature", "properties": { "内容": "医療法人　芳栄会　介護老人保健施設　プラタナスの丘【通所リハビリテーション】茨城県常陸大宮市宇留野３１０９", "url2": "https://www.kaigokensaku.mhlw.go.jp/08/index.php?action_kouhyou_detail_004_kani=true&JigyosyoCd=0852580026-00&ServiceCd=160&Type=search" }, "geometry": { "type": "Point", "coordinates": [ 140.418336299999964, 36.5438849 ] } },
{ "type": "Feature", "properties": { "内容": "介護老人保健施設　大宮フロイデハイム【通所リハビリテーション】茨城県常陸大宮市上町３１８－１", "url2": "https://www.kaigokensaku.mhlw.go.jp/08/index.php?action_kouhyou_detail_004_kani=true&JigyosyoCd=0853380020-00&ServiceCd=160&Type=search" }, "geometry": { "type": "Point", "coordinates": [ 140.413978300000053, 36.5491174 ] } },
{ "type": "Feature", "properties": { "内容": "さとう整形外科クリニック【通所リハビリテーション】茨城県常陸大宮市宇留野3090-4", "url2": "https://www.kaigokensaku.mhlw.go.jp/08/index.php?action_kouhyou_detail_004_kani=true&JigyosyoCd=0812510378-00&ServiceCd=160&Type=search" }, "geometry": { "type": "Point", "coordinates": [ 140.4201138, 36.5436885 ] } },
{ "type": "Feature", "properties": { "内容": "介護老人保健施設　第2フェニックス那珂【通所リハビリテーション】茨城県那珂市飯田1733-1", "url2": "https://www.kaigokensaku.mhlw.go.jp/08/index.php?action_kouhyou_detail_004_kani=true&JigyosyoCd=0852680016-00&ServiceCd=160&Type=search" }, "geometry": { "type": "Point", "coordinates": [ 140.4638918, 36.453368 ] } },
{ "type": "Feature", "properties": { "内容": "介護老人保健施設　フェニックス那珂【通所リハビリテーション】茨城県那珂市飯田1733－1", "url2": "https://www.kaigokensaku.mhlw.go.jp/08/index.php?action_kouhyou_detail_004_kani=true&JigyosyoCd=0853380046-00&ServiceCd=160&Type=search" }, "geometry": { "type": "Point", "coordinates": [ 140.463252799999964, 36.4537713 ] } },
{ "type": "Feature", "properties": { "内容": "介護老人保健施設　ライブリーライフ「那珂」【通所リハビリテーション】茨城県那珂市菅谷６０５－２", "url2": "https://www.kaigokensaku.mhlw.go.jp/08/index.php?action_kouhyou_detail_004_kani=true&JigyosyoCd=0853380038-00&ServiceCd=160&Type=search" }, "geometry": { "type": "Point", "coordinates": [ 140.496677800000043, 36.4610992 ] } },
{ "type": "Feature", "properties": { "内容": "通所リハビリテーション事業所「しずみね」【通所リハビリテーション】茨城県那珂市古徳538-2", "url2": "https://www.kaigokensaku.mhlw.go.jp/08/index.php?action_kouhyou_detail_004_kani=true&JigyosyoCd=0873300792-00&ServiceCd=160&Type=search" }, "geometry": { "type": "Point", "coordinates": [ 140.435712100000046, 36.4954853 ] } },
{ "type": "Feature", "properties": { "内容": "通所リハビリテーション「けいわ」【通所リハビリテーション】茨城県那珂市鴻巣3247-1", "url2": "https://www.kaigokensaku.mhlw.go.jp/08/index.php?action_kouhyou_detail_004_kani=true&JigyosyoCd=0873300636-00&ServiceCd=160&Type=search" }, "geometry": { "type": "Point", "coordinates": [ 140.486204, 36.4581575 ] } },
{ "type": "Feature", "properties": { "内容": "介護老人保健施設プレミエール元気館　筑西【通所リハビリテーション】茨城県筑西市古郡554-3", "url2": "https://www.kaigokensaku.mhlw.go.jp/08/index.php?action_kouhyou_detail_004_kani=true&JigyosyoCd=0852780030-00&ServiceCd=160&Type=search" }, "geometry": { "type": "Point", "coordinates": [ 140.040652364511772, 36.348245338669926 ] } },
{ "type": "Feature", "properties": { "内容": "小松崎病院デイケア【通所リハビリテーション】茨城県筑西市中館２２６５番地", "url2": "https://www.kaigokensaku.mhlw.go.jp/08/index.php?action_kouhyou_detail_004_kani=true&JigyosyoCd=0810610048-00&ServiceCd=160&Type=search" }, "geometry": { "type": "Point", "coordinates": [ 139.97561970000001, 36.3270361 ] } },
{ "type": "Feature", "properties": { "内容": "社会医療法人恒貴会　協和ヘルシーセンター【通所リハビリテーション】茨城県筑西市門井1669番地2", "url2": "https://www.kaigokensaku.mhlw.go.jp/08/index.php?action_kouhyou_detail_004_kani=true&JigyosyoCd=0854180015-00&ServiceCd=160&Type=search" }, "geometry": { "type": "Point", "coordinates": [ 140.014880299999959, 36.3290897 ] } },
{ "type": "Feature", "properties": { "内容": "介護老人保健施設　ごぎょうの里【通所リハビリテーション】茨城県筑西市小林４６７－１", "url2": "https://www.kaigokensaku.mhlw.go.jp/08/index.php?action_kouhyou_detail_004_kani=true&JigyosyoCd=0850680018-00&ServiceCd=160&Type=search" }, "geometry": { "type": "Point", "coordinates": [ 139.98016210000003, 36.3199258 ] } },
{ "type": "Feature", "properties": { "内容": "介護老人保健施設　きねぶち　通所リハビリテーション【通所リハビリテーション】茨城県坂東市長谷９８９番地５", "url2": "https://www.kaigokensaku.mhlw.go.jp/08/index.php?action_kouhyou_detail_004_kani=true&JigyosyoCd=0852880012-00&ServiceCd=160&Type=search" }, "geometry": { "type": "Point", "coordinates": [ 139.885973700000022, 36.0379226 ] } },
{ "type": "Feature", "properties": { "内容": "介護老人保健施設　寿桂苑【通所リハビリテーション】茨城県坂東市沓掛字猪子4527-1", "url2": "https://www.kaigokensaku.mhlw.go.jp/08/index.php?action_kouhyou_detail_004_kani=true&JigyosyoCd=0854380029-00&ServiceCd=160&Type=search" }, "geometry": { "type": "Point", "coordinates": [ 139.9008172, 36.1020482 ] } },
{ "type": "Feature", "properties": { "内容": "通所リハビリテーションいなしきの郷【通所リハビリテーション】茨城県稲敷市佐原組新田1378-1", "url2": "https://www.kaigokensaku.mhlw.go.jp/08/index.php?action_kouhyou_detail_004_kani=true&JigyosyoCd=0852780014-00&ServiceCd=160&Type=search" }, "geometry": { "type": "Point", "coordinates": [ 140.4092809, 35.9318537 ] } },
{ "type": "Feature", "properties": { "内容": "介護老人保健施設　プエブロ稲敷【通所リハビリテーション】茨城県稲敷市狸穴11番地", "url2": "https://www.kaigokensaku.mhlw.go.jp/08/index.php?action_kouhyou_detail_004_kani=true&JigyosyoCd=0852780022-00&ServiceCd=160&Type=search" }, "geometry": { "type": "Point", "coordinates": [ 140.2868469, 35.9131694 ] } },
{ "type": "Feature", "properties": { "内容": "介護老人保健施設　ホワイトハウス千代田【通所リハビリテーション】茨城県かすみがうら市東野寺４９５－２", "url2": "https://www.kaigokensaku.mhlw.go.jp/08/index.php?action_kouhyou_detail_004_kani=true&JigyosyoCd=0853080018-00&ServiceCd=160&Type=search" }, "geometry": { "type": "Point", "coordinates": [ 140.26212570000007, 36.1642479 ] } },
{ "type": "Feature", "properties": { "内容": "介護老人保健施設　葵の園・霞ヶ浦【通所リハビリテーション】茨城県かすみがうら市下稲吉入内伝1136番地40", "url2": "https://www.kaigokensaku.mhlw.go.jp/08/index.php?action_kouhyou_detail_004_kani=true&JigyosyoCd=0853080026-00&ServiceCd=160&Type=search" }, "geometry": { "type": "Point", "coordinates": [ 140.245651924434782, 36.141365986496467 ] } },
{ "type": "Feature", "properties": { "内容": "介護老人保健施設さくらがわ通所リハビリテーション事業所【通所リハビリテーション】茨城県桜川市東飯田６５９", "url2": "https://www.kaigokensaku.mhlw.go.jp/08/index.php?action_kouhyou_detail_004_kani=true&JigyosyoCd=0854180049-00&ServiceCd=160&Type=search" }, "geometry": { "type": "Point", "coordinates": [ 140.111062299999958, 36.3100303 ] } },
{ "type": "Feature", "properties": { "内容": "介護老人保健施設さざんか荘通所リハビリテーション【通所リハビリテーション】茨城県桜川市亀岡992", "url2": "https://www.kaigokensaku.mhlw.go.jp/08/index.php?action_kouhyou_detail_004_kani=true&JigyosyoCd=0853280014-00&ServiceCd=160&Type=search" }, "geometry": { "type": "Point", "coordinates": [ 140.134518800000023, 36.3746424 ] } },
{ "type": "Feature", "properties": { "内容": "介護老人保健施設マカベシルバートピア【通所リハビリテーション】茨城県桜川市真壁町東山田1945", "url2": "https://www.kaigokensaku.mhlw.go.jp/08/index.php?action_kouhyou_detail_004_kani=true&JigyosyoCd=0854180031-00&ServiceCd=160&Type=search" }, "geometry": { "type": "Point", "coordinates": [ 140.0768756, 36.2624826 ] } },
{ "type": "Feature", "properties": { "内容": "介護老人保健施設シオン【通所リハビリテーション】茨城県神栖市土合本町2丁目9809番地126", "url2": "https://www.kaigokensaku.mhlw.go.jp/08/index.php?action_kouhyou_detail_004_kani=true&JigyosyoCd=0853680049-00&ServiceCd=160&Type=search" }, "geometry": { "type": "Point", "coordinates": [ 140.778086600000051, 35.7926413 ] } },
{ "type": "Feature", "properties": { "内容": "介護老人保健施設　ばんなん白光園【通所リハビリテーション】茨城県神栖市賀２１４８", "url2": "https://www.kaigokensaku.mhlw.go.jp/08/index.php?action_kouhyou_detail_004_kani=true&JigyosyoCd=0853680015-00&ServiceCd=160&Type=search" }, "geometry": { "type": "Point", "coordinates": [ 140.624022299999979, 35.9004581 ] } },
{ "type": "Feature", "properties": { "内容": "介護老人保健施設　葵の園・神栖【通所リハビリテーション】神栖四丁目8-30", "url2": "https://www.kaigokensaku.mhlw.go.jp/08/index.php?action_kouhyou_detail_004_kani=true&JigyosyoCd=0855280012-00&ServiceCd=160&Type=search" }, "geometry": { "type": "Point", "coordinates": [ 140.6536691, 35.9107132 ] } },
{ "type": "Feature", "properties": { "内容": "介護老人保健施設かすみがうら【通所リハビリテーション】茨城県行方市若海793-5", "url2": "https://www.kaigokensaku.mhlw.go.jp/08/index.php?action_kouhyou_detail_004_kani=true&JigyosyoCd=0853780039-00&ServiceCd=160&Type=search" }, "geometry": { "type": "Point", "coordinates": [ 140.433507100000043, 36.1229813 ] } },
{ "type": "Feature", "properties": { "内容": "介護老人保健施設リヒトハウス北浦【通所リハビリテーション】茨城県行方市繁昌１７１２-１", "url2": "https://www.kaigokensaku.mhlw.go.jp/08/index.php?action_kouhyou_detail_004_kani=true&JigyosyoCd=0853780021-00&ServiceCd=160&Type=search" }, "geometry": { "type": "Point", "coordinates": [ 140.519167, 36.0569023 ] } },
{ "type": "Feature", "properties": { "内容": "通所リハビリテーションにこにこ【通所リハビリテーション】茨城県鉾田市鉾田2570", "url2": "https://www.kaigokensaku.mhlw.go.jp/08/index.php?action_kouhyou_detail_004_kani=true&JigyosyoCd=0875400160-00&ServiceCd=160&Type=search" }, "geometry": { "type": "Point", "coordinates": [ 140.509671748410057, 36.153133748307511 ] } },
{ "type": "Feature", "properties": { "内容": "介護老人保健施設　コミュニティケアセンター樅山【通所リハビリテーション】茨城県鉾田市樅山497", "url2": "https://www.kaigokensaku.mhlw.go.jp/08/index.php?action_kouhyou_detail_004_kani=true&JigyosyoCd=0853680056-00&ServiceCd=160&Type=search" }, "geometry": { "type": "Point", "coordinates": [ 140.554110400000013, 36.198373 ] } },
{ "type": "Feature", "properties": { "内容": "介護老人保健施設　フロンティア鉾田　春の場所【通所リハビリテーション】鉾田市柏熊９８５－１", "url2": "https://www.kaigokensaku.mhlw.go.jp/08/index.php?action_kouhyou_detail_004_kani=true&JigyosyoCd=0853680031-00&ServiceCd=160&Type=search" }, "geometry": { "type": "Point", "coordinates": [ 140.541958600000044, 36.1785216 ] } },
{ "type": "Feature", "properties": { "内容": "通所リハビリテーション　ゆんたく【通所リハビリテーション】茨城県鉾田市汲上3130", "url2": "https://www.kaigokensaku.mhlw.go.jp/08/index.php?action_kouhyou_detail_004_kani=true&JigyosyoCd=0873600571-00&ServiceCd=160&Type=search" }, "geometry": { "type": "Point", "coordinates": [ 140.5788096, 36.1179761 ] } },
{ "type": "Feature", "properties": { "内容": "通所リハビリテーション小美玉敬愛の杜【通所リハビリテーション】中台148", "url2": "https://www.kaigokensaku.mhlw.go.jp/08/index.php?action_kouhyou_detail_004_kani=true&JigyosyoCd=0855680013-00&ServiceCd=160&Type=search" }, "geometry": { "type": "Point", "coordinates": [ 140.316430851977913, 36.224679433168397 ] } },
{ "type": "Feature", "properties": { "内容": "介護老人保健施設　小川敬愛の杜【通所リハビリテーション】野田576-3", "url2": "https://www.kaigokensaku.mhlw.go.jp/08/index.php?action_kouhyou_detail_004_kani=true&JigyosyoCd=0855680021-00&ServiceCd=160&Type=search" }, "geometry": { "type": "Point", "coordinates": [ 140.370761, 36.192931 ] } },
{ "type": "Feature", "properties": { "内容": "介護老人保健施設　サン・テレーズ【通所リハビリテーション】茨城県小美玉市栗又四ケ1752－1", "url2": "https://www.kaigokensaku.mhlw.go.jp/08/index.php?action_kouhyou_detail_004_kani=true&JigyosyoCd=0853980035-00&ServiceCd=160&Type=search" }, "geometry": { "type": "Point", "coordinates": [ 140.330524, 36.1777587 ] } },
{ "type": "Feature", "properties": { "内容": "介護老人保健施設　レイクヒルひぬま【通所リハビリテーション】茨城県東茨城郡茨城町下石崎２３２４", "url2": "https://www.kaigokensaku.mhlw.go.jp/08/index.php?action_kouhyou_detail_004_kani=true&JigyosyoCd=0853180057-00&ServiceCd=160&Type=search" }, "geometry": { "type": "Point", "coordinates": [ 140.512998, 36.2855535 ] } },
{ "type": "Feature", "properties": { "内容": "介護老人保健施設　桜の郷敬愛の杜【通所リハビリテーション】茨城県東茨城郡茨城町桜の郷1000番地2", "url2": "https://www.kaigokensaku.mhlw.go.jp/08/index.php?action_kouhyou_detail_004_kani=true&JigyosyoCd=0853180099-00&ServiceCd=160&Type=search" }, "geometry": { "type": "Point", "coordinates": [ 140.414902868647829, 36.322340078415607 ] } },
{ "type": "Feature", "properties": { "内容": "葵の園・水戸【通所リハビリテーション】茨城県東茨城郡茨城町桜の郷231-6", "url2": "https://www.kaigokensaku.mhlw.go.jp/08/index.php?action_kouhyou_detail_004_kani=true&JigyosyoCd=0853180123-00&ServiceCd=160&Type=search" }, "geometry": { "type": "Point", "coordinates": [ 140.4082746, 36.3241167 ] } },
{ "type": "Feature", "properties": { "内容": "医療法人桜丘会　ライフピア桜ヶ丘【通所リハビリテーション】茨城県東茨城郡茨城町奥谷1076", "url2": "https://www.kaigokensaku.mhlw.go.jp/08/index.php?action_kouhyou_detail_004_kani=true&JigyosyoCd=0873101802-00&ServiceCd=160&Type=search" }, "geometry": { "type": "Point", "coordinates": [ 140.416309500000011, 36.28564 ] } },
{ "type": "Feature", "properties": { "内容": "介護老人保健施設エバーグリーン【通所リハビリテーション】茨城県東茨城郡茨城町若宮字向ヒ393-1", "url2": "https://www.kaigokensaku.mhlw.go.jp/08/index.php?action_kouhyou_detail_004_kani=true&JigyosyoCd=0853180024-00&ServiceCd=160&Type=search" }, "geometry": { "type": "Point", "coordinates": [ 140.4876899, 36.3076613 ] } },
{ "type": "Feature", "properties": { "内容": "介護老人保健施設おおあらい【通所リハビリテーション】茨城県東茨城郡大洗町大貫町1212-11", "url2": "https://www.kaigokensaku.mhlw.go.jp/08/index.php?action_kouhyou_detail_004_kani=true&JigyosyoCd=0853180073-00&ServiceCd=160&Type=search" }, "geometry": { "type": "Point", "coordinates": [ 140.558018599999969, 36.292365 ] } },
{ "type": "Feature", "properties": { "内容": "介護老人保健施設　カーサ・ビアンしろさと【通所リハビリテーション】茨城県東茨城郡城里町阿波山原６０２", "url2": "https://www.kaigokensaku.mhlw.go.jp/08/index.php?action_kouhyou_detail_004_kani=true&JigyosyoCd=0853180081-00&ServiceCd=160&Type=search" }, "geometry": { "type": "Point", "coordinates": [ 140.375388, 36.4795744 ] } },
{ "type": "Feature", "properties": { "内容": "村立東海病院【通所リハビリテーション】茨城県那珂郡東海村村松2081-2", "url2": "https://www.kaigokensaku.mhlw.go.jp/08/index.php?action_kouhyou_detail_004_kani=true&JigyosyoCd=0813311081-00&ServiceCd=160&Type=search" }, "geometry": { "type": "Point", "coordinates": [ 140.5743367, 36.4586609 ] } },
{ "type": "Feature", "properties": { "内容": "医療法人聖友会介護老人保健施設やすらぎ【通所リハビリテーション】茨城県久慈郡大子町大子８８８", "url2": "https://www.kaigokensaku.mhlw.go.jp/08/index.php?action_kouhyou_detail_004_kani=true&JigyosyoCd=0853480028-00&ServiceCd=160&Type=search" }, "geometry": { "type": "Point", "coordinates": [ 140.353643499999947, 36.7688461 ] } },
{ "type": "Feature", "properties": { "内容": "温泉リハビリセンター虹の丘【通所リハビリテーション】茨城県久慈郡大子町大字矢田93-1", "url2": "https://www.kaigokensaku.mhlw.go.jp/08/index.php?action_kouhyou_detail_004_kani=true&JigyosyoCd=0853480010-00&ServiceCd=160&Type=search" }, "geometry": { "type": "Point", "coordinates": [ 140.358739499999956, 36.7959541 ] } },
{ "type": "Feature", "properties": { "内容": "介護老人保健施設　ゴーエン美浦【通所リハビリテーション】茨城県稲敷郡美浦村宮地６７８番地", "url2": "https://www.kaigokensaku.mhlw.go.jp/08/index.php?action_kouhyou_detail_004_kani=true&JigyosyoCd=0853880029-00&ServiceCd=160&Type=search" }, "geometry": { "type": "Point", "coordinates": [ 140.316959900000029, 36.0051346 ] } },
{ "type": "Feature", "properties": { "内容": "つくばセントラル病院【通所リハビリテーション】牛久市柏田町１５８９－３", "url2": "https://www.kaigokensaku.mhlw.go.jp/08/index.php?action_kouhyou_detail_004_kani=true&JigyosyoCd=0811910231-00&ServiceCd=160&Type=search" }, "geometry": { "type": "Point", "coordinates": [ 140.158539300000029, 35.9822304 ] } },
{ "type": "Feature", "properties": { "内容": "老人保健施設ケアセンター阿見【通所リハビリテーション】茨城県稲敷郡阿見町若栗2957番4", "url2": "https://www.kaigokensaku.mhlw.go.jp/08/index.php?action_kouhyou_detail_004_kani=true&JigyosyoCd=0853880011-00&ServiceCd=160&Type=search" }, "geometry": { "type": "Point", "coordinates": [ 140.222963872877472, 36.005684344289577 ] } },
{ "type": "Feature", "properties": { "内容": "介護老人保健施設　スーペリア３６０【通所リハビリテーション】茨城県稲敷郡阿見町荒川本郷2033-508", "url2": "https://www.kaigokensaku.mhlw.go.jp/08/index.php?action_kouhyou_detail_004_kani=true&JigyosyoCd=0853880037-00&ServiceCd=160&Type=search" }, "geometry": { "type": "Point", "coordinates": [ 140.18674980000003, 36.0245867 ] } },
{ "type": "Feature", "properties": { "内容": "介護老人保健施設セントラルわかたけ阿見【通所リハビリテーション】茨城県稲敷郡阿見町阿見5050番12", "url2": "https://www.kaigokensaku.mhlw.go.jp/08/index.php?action_kouhyou_detail_004_kani=true&JigyosyoCd=0853880052-00&ServiceCd=160&Type=search" }, "geometry": { "type": "Point", "coordinates": [ 140.1999625, 36.0305846 ] } },
{ "type": "Feature", "properties": { "内容": "介護老人保健施設　葵の園・八千代【通所リハビリテーション】茨城県結城郡八千代町大字新井１１５番1", "url2": "https://www.kaigokensaku.mhlw.go.jp/08/index.php?action_kouhyou_detail_004_kani=true&JigyosyoCd=0854280021-00&ServiceCd=160&Type=search" }, "geometry": { "type": "Point", "coordinates": [ 139.9060819, 36.198667 ] } },
{ "type": "Feature", "properties": { "内容": "老人保健施設境町メディカルピクニック【通所リハビリテーション】茨城県猿島郡境町塚崎2555-1", "url2": "https://www.kaigokensaku.mhlw.go.jp/08/index.php?action_kouhyou_detail_004_kani=true&JigyosyoCd=0854380037-00&ServiceCd=160&Type=search" }, "geometry": { "type": "Point", "coordinates": [ 139.774131899999929, 36.1261957 ] } },
{ "type": "Feature", "properties": { "内容": "介護老人保健施設　夢彩の舎【通所リハビリテーション】茨城県猿島郡境町若林2269-1", "url2": "https://www.kaigokensaku.mhlw.go.jp/08/index.php?action_kouhyou_detail_004_kani=true&JigyosyoCd=0854380045-00&ServiceCd=160&Type=search" }, "geometry": { "type": "Point", "coordinates": [ 139.832414299999982, 36.0778132 ] } },
{ "type": "Feature", "properties": { "内容": "介護老人保険施設もえぎ野【通所リハビリテーション】茨城県北相馬郡利根町もえぎ野台1-1-8", "url2": "https://www.kaigokensaku.mhlw.go.jp/08/index.php?action_kouhyou_detail_004_kani=true&JigyosyoCd=0854480035-00&ServiceCd=160&Type=search" }, "geometry": { "type": "Point", "coordinates": [ 140.1579189, 35.8781915 ] } }
]
}
