{
"type": "FeatureCollection",
"name": "geo_08_大学",
"crs": { "type": "name", "properties": { "name": "urn:ogc:def:crs:EPSG::6668" } },
"features": [
{ "type": "Feature", "properties": { "P29_001": "08201", "P29_002": "F108110101414", "P29_003": "16007", "P29_004": "茨城大学", "P29_005": "茨城県水戸市文京2-1-1", "P29_006": "1", "P29_007": "0", "P29_008": "01", "P29_009": "水戸キャンパス" }, "geometry": { "type": "Point", "coordinates": [ 140.44267261752978, 36.401146868294681 ] } },
{ "type": "Feature", "properties": { "P29_001": "08220", "P29_002": "F108110101423", "P29_003": "16007", "P29_004": "筑波大学", "P29_005": "茨城県つくば市天王台1-1-1", "P29_006": "1", "P29_007": "0", "P29_008": "00", "P29_009": null }, "geometry": { "type": "Point", "coordinates": [ 140.103999918307295, 36.111444404335792 ] } },
{ "type": "Feature", "properties": { "P29_001": "08220", "P29_002": "F108110101432", "P29_003": "16007", "P29_004": "筑波技術大学", "P29_005": "茨城県つくば市天久保4-3-15", "P29_006": "1", "P29_007": "0", "P29_008": "00", "P29_009": null }, "geometry": { "type": "Point", "coordinates": [ 140.110516607504735, 36.104176863059458 ] } },
{ "type": "Feature", "properties": { "P29_001": "08443", "P29_002": "F108210101449", "P29_003": "16007", "P29_004": "茨城県立医療大学", "P29_005": "茨城県稲敷郡阿見町阿見字阿見原4669-2", "P29_006": "2", "P29_007": "0", "P29_008": "00", "P29_009": null }, "geometry": { "type": "Point", "coordinates": [ 140.209795273629368, 36.027067693266567 ] } },
{ "type": "Feature", "properties": { "P29_001": "08202", "P29_002": "F108310101456", "P29_003": "16007", "P29_004": "茨城キリスト教大学", "P29_005": "茨城県日立市大みか町6-11-1", "P29_006": "4", "P29_007": "0", "P29_008": "00", "P29_009": null }, "geometry": { "type": "Point", "coordinates": [ 140.616755865822256, 36.514450107308349 ] } },
{ "type": "Feature", "properties": { "P29_001": "08208", "P29_002": "F108310101465", "P29_003": "16007", "P29_004": "流通経済大学", "P29_005": "茨城県龍ケ崎市平畑120", "P29_006": "4", "P29_007": "0", "P29_008": "00", "P29_009": null }, "geometry": { "type": "Point", "coordinates": [ 140.190366657145006, 35.916718154096863 ] } },
{ "type": "Feature", "properties": { "P29_001": "08201", "P29_002": "F108310101474", "P29_003": "16007", "P29_004": "常磐大学", "P29_005": "茨城県水戸市見和1-430-1", "P29_006": "4", "P29_007": "0", "P29_008": "00", "P29_009": null }, "geometry": { "type": "Point", "coordinates": [ 140.440434393496815, 36.381333821295236 ] } },
{ "type": "Feature", "properties": { "P29_001": "08203", "P29_002": "F108310101483", "P29_003": "16007", "P29_004": "つくば国際大学", "P29_005": "茨城県土浦市真鍋6-20-1", "P29_006": "4", "P29_007": "0", "P29_008": "00", "P29_009": null }, "geometry": { "type": "Point", "coordinates": [ 140.19905542701639, 36.107130577315473 ] } },
{ "type": "Feature", "properties": { "P29_001": "08220", "P29_002": "F108310101492", "P29_003": "16007", "P29_004": "筑波学院大学", "P29_005": "茨城県つくば市吾妻3-1", "P29_006": "4", "P29_007": "0", "P29_008": "00", "P29_009": null }, "geometry": { "type": "Point", "coordinates": [ 140.10747043225868, 36.088342164806413 ] } },
{ "type": "Feature", "properties": { "P29_001": "08564", "P29_002": "F108310101508", "P29_003": "16007", "P29_004": "日本ウェルネススポーツ大学", "P29_005": "茨城県北相馬郡利根町大字布川1377", "P29_006": "4", "P29_007": "0", "P29_008": "00", "P29_009": null }, "geometry": { "type": "Point", "coordinates": [ 140.145390003542474, 35.86028999898285 ] } },
{ "type": "Feature", "properties": { "P29_001": "08203", "P29_002": "F108310111971", "P29_003": "16007", "P29_004": "アール医療専門職大学", "P29_005": "茨城県土浦市湖北2-10-35", "P29_006": "4", "P29_007": "0", "P29_008": "00", "P29_009": null }, "geometry": { "type": "Point", "coordinates": [ 140.212499079692208, 36.084925188045311 ] } },
{ "type": "Feature", "properties": { "P29_001": "08201", "P29_002": "F108110101414", "P29_003": "16007", "P29_004": "茨城大学", "P29_005": "茨城県日立市文京2-1-1", "P29_006": "1", "P29_007": "0", "P29_008": "02", "P29_009": "日立キャンパス" }, "geometry": { "type": "Point", "coordinates": [ 140.44310640881622, 36.401512740886616 ] } },
{ "type": "Feature", "properties": { "P29_001": "08443", "P29_002": "F108110101414", "P29_003": "16007", "P29_004": "茨城大学", "P29_005": "茨城県阿見町中央3-21-1", "P29_006": "1", "P29_007": "0", "P29_008": "03", "P29_009": "阿見キャンパス" }, "geometry": { "type": "Point", "coordinates": [ 140.213764513090268, 36.034395634590055 ] } },
{ "type": "Feature", "properties": { "P29_001": "08217", "P29_002": "F113110102737", "P29_003": "16007", "P29_004": "東京芸術大学", "P29_005": "茨城県取手市小文間5000", "P29_006": "1", "P29_007": "0", "P29_008": "02", "P29_009": "取手キャンパス" }, "geometry": { "type": "Point", "coordinates": [ 140.116628423711148, 35.879616947670158 ] } },
{ "type": "Feature", "properties": { "P29_001": "08220", "P29_002": "F114110104609", "P29_003": "16007", "P29_004": "総合研究大学院大学", "P29_005": "茨城県つくば市大穂1-1", "P29_006": "1", "P29_007": "0", "P29_008": "02", "P29_009": "素粒子原子核コース・加速器科学コース・物質構造科学コース" }, "geometry": { "type": "Point", "coordinates": [ 140.073939053624599, 36.151321655146965 ] } }
]
}
