{
"type": "FeatureCollection",
"name": "geo_08_特定施設入居者生活介護（有料老人ホーム）",
"crs": { "type": "name", "properties": { "name": "urn:ogc:def:crs:OGC:1.3:CRS84" } },
"features": [
{ "type": "Feature", "properties": { "内容": "介護付有料老人ホーム　モデスティア水戸【特定施設入居者生活介護（有料老人ホーム）】茨城県水戸市平須町２２０５", "url2": "https://www.kaigokensaku.mhlw.go.jp/08/index.php?action_kouhyou_detail_004_kani=true&JigyosyoCd=0870102530-00&ServiceCd=331&Type=search" }, "geometry": { "type": "Point", "coordinates": [ 140.426503899999943, 36.3328068 ] } },
{ "type": "Feature", "properties": { "内容": "やすらぎ梅寿園【特定施設入居者生活介護（有料老人ホーム）】茨城県水戸市見川町1820－17", "url2": "https://www.kaigokensaku.mhlw.go.jp/08/index.php?action_kouhyou_detail_004_kani=true&JigyosyoCd=0870100641-00&ServiceCd=331&Type=search" }, "geometry": { "type": "Point", "coordinates": [ 140.4361462, 36.357066 ] } },
{ "type": "Feature", "properties": { "内容": "しまナーシングホーム平須【特定施設入居者生活介護（有料老人ホーム）】茨城県水戸市平須町1416", "url2": "https://www.kaigokensaku.mhlw.go.jp/08/index.php?action_kouhyou_detail_004_kani=true&JigyosyoCd=0870102241-00&ServiceCd=331&Type=search" }, "geometry": { "type": "Point", "coordinates": [ 140.428392499999973, 36.334949706609109 ] } },
{ "type": "Feature", "properties": { "内容": "べるびー水戸【特定施設入居者生活介護（有料老人ホーム）】水戸市赤塚１丁目１番地ミオスビル3階", "url2": "https://www.kaigokensaku.mhlw.go.jp/08/index.php?action_kouhyou_detail_004_kani=true&JigyosyoCd=0870103298-00&ServiceCd=331&Type=search" }, "geometry": { "type": "Point", "coordinates": [ 140.4136813, 36.382169 ] } },
{ "type": "Feature", "properties": { "内容": "しまナーシングホームガーデン【特定施設入居者生活介護（有料老人ホーム）】茨城県水戸市河和田町3461", "url2": "https://www.kaigokensaku.mhlw.go.jp/08/index.php?action_kouhyou_detail_004_kani=true&JigyosyoCd=0870105715-00&ServiceCd=331&Type=search" }, "geometry": { "type": "Point", "coordinates": [ 140.426466799999957, 36.3666658 ] } },
{ "type": "Feature", "properties": { "内容": "ローズヴィラ水戸【特定施設入居者生活介護（有料老人ホーム）】水戸市堀町1444-1", "url2": "https://www.kaigokensaku.mhlw.go.jp/08/index.php?action_kouhyou_detail_004_kani=true&JigyosyoCd=0870100732-00&ServiceCd=331&Type=search" }, "geometry": { "type": "Point", "coordinates": [ 140.413922400000047, 36.4020278 ] } },
{ "type": "Feature", "properties": { "内容": "ケアレジデンス水戸新館【特定施設入居者生活介護（有料老人ホーム）】茨城県水戸市大塚町１７４１番地", "url2": "https://www.kaigokensaku.mhlw.go.jp/08/index.php?action_kouhyou_detail_004_kani=true&JigyosyoCd=0870100757-00&ServiceCd=331&Type=search" }, "geometry": { "type": "Point", "coordinates": [ 140.390802500000063, 36.3933337 ] } },
{ "type": "Feature", "properties": { "内容": "ケアレジデンス水戸元吉田館【特定施設入居者生活介護（有料老人ホーム）】水戸市元吉田町223番地", "url2": "https://www.kaigokensaku.mhlw.go.jp/08/index.php?action_kouhyou_detail_004_kani=true&JigyosyoCd=0870102340-00&ServiceCd=331&Type=search" }, "geometry": { "type": "Point", "coordinates": [ 140.4694787, 36.3518621 ] } },
{ "type": "Feature", "properties": { "内容": "ケアレジデンス水戸本館【特定施設入居者生活介護（有料老人ホーム）】水戸市大塚町1661番地", "url2": "https://www.kaigokensaku.mhlw.go.jp/08/index.php?action_kouhyou_detail_004_kani=true&JigyosyoCd=0870100740-00&ServiceCd=331&Type=search" }, "geometry": { "type": "Point", "coordinates": [ 140.39405510000006, 36.3879844 ] } },
{ "type": "Feature", "properties": { "内容": "ヴィラまごころ大みか【特定施設入居者生活介護（有料老人ホーム）】森山町３－１７－４１", "url2": "https://www.kaigokensaku.mhlw.go.jp/08/index.php?action_kouhyou_detail_004_kani=true&JigyosyoCd=0870202819-00&ServiceCd=331&Type=search" }, "geometry": { "type": "Point", "coordinates": [ 140.6197348, 36.5223172 ] } },
{ "type": "Feature", "properties": { "内容": "らいふアシスト・泉ヶ森【特定施設入居者生活介護（有料老人ホーム）】日立市水木町二丁目20番1号", "url2": "https://www.kaigokensaku.mhlw.go.jp/08/index.php?action_kouhyou_detail_004_kani=true&JigyosyoCd=0870200722-00&ServiceCd=331&Type=search" }, "geometry": { "type": "Point", "coordinates": [ 140.624361799999974, 36.5190777 ] } },
{ "type": "Feature", "properties": { "内容": "らいふアシスト・泉ヶ森　南館【特定施設入居者生活介護（有料老人ホーム）】日立市水木町二丁目20番5号", "url2": "https://www.kaigokensaku.mhlw.go.jp/08/index.php?action_kouhyou_detail_004_kani=true&JigyosyoCd=0870201084-00&ServiceCd=331&Type=search" }, "geometry": { "type": "Point", "coordinates": [ 140.62290059999998, 36.5184455 ] } },
{ "type": "Feature", "properties": { "内容": "介護付有料老人ホーム　サンテーヌ土浦【特定施設入居者生活介護（有料老人ホーム）】茨城県土浦市文京町８番３号", "url2": "https://www.kaigokensaku.mhlw.go.jp/08/index.php?action_kouhyou_detail_004_kani=true&JigyosyoCd=0870301819-00&ServiceCd=331&Type=search" }, "geometry": { "type": "Point", "coordinates": [ 140.192128599999933, 36.0834322 ] } },
{ "type": "Feature", "properties": { "内容": "ケアパレス・ナヴァーレ【特定施設入居者生活介護（有料老人ホーム）】茨城県土浦市港町３－３０－２３", "url2": "https://www.kaigokensaku.mhlw.go.jp/08/index.php?action_kouhyou_detail_004_kani=true&JigyosyoCd=0870302783-00&ServiceCd=331&Type=search" }, "geometry": { "type": "Point", "coordinates": [ 140.217909299999974, 36.0796002 ] } },
{ "type": "Feature", "properties": { "内容": "介護付有料老人ホーム　サンテーヌ土浦新館介護棟【特定施設入居者生活介護（有料老人ホーム）】茨城県土浦市文京町８番５号", "url2": "https://www.kaigokensaku.mhlw.go.jp/08/index.php?action_kouhyou_detail_004_kani=true&JigyosyoCd=0870301934-00&ServiceCd=331&Type=search" }, "geometry": { "type": "Point", "coordinates": [ 140.191792599999985, 36.0834849 ] } },
{ "type": "Feature", "properties": { "内容": "ハートワン土浦【特定施設入居者生活介護（有料老人ホーム）】茨城県土浦市天川1-18-80", "url2": "https://www.kaigokensaku.mhlw.go.jp/08/index.php?action_kouhyou_detail_004_kani=true&JigyosyoCd=0870301488-00&ServiceCd=331&Type=search" }, "geometry": { "type": "Point", "coordinates": [ 140.175491100000045, 36.065679 ] } },
{ "type": "Feature", "properties": { "内容": "介護付有料老人ホームかがやきの郷【特定施設入居者生活介護（有料老人ホーム）】茨城県土浦市常名２２１２番地", "url2": "https://www.kaigokensaku.mhlw.go.jp/08/index.php?action_kouhyou_detail_004_kani=true&JigyosyoCd=0870300498-00&ServiceCd=331&Type=search" }, "geometry": { "type": "Point", "coordinates": [ 140.191605399999958, 36.1016433 ] } },
{ "type": "Feature", "properties": { "内容": "ツクイ・サンシャイン古河あかやま【特定施設入居者生活介護（有料老人ホーム）】茨城県古河市旭町一丁目17番8号", "url2": "https://www.kaigokensaku.mhlw.go.jp/08/index.php?action_kouhyou_detail_004_kani=true&JigyosyoCd=0870400553-00&ServiceCd=331&Type=search" }, "geometry": { "type": "Point", "coordinates": [ 139.7216963, 36.195932 ] } },
{ "type": "Feature", "properties": { "内容": "介護付有料老人ホーム　ヒューマンサポート古河【特定施設入居者生活介護（有料老人ホーム）】古河市本町一丁目3-30", "url2": "https://www.kaigokensaku.mhlw.go.jp/08/index.php?action_kouhyou_detail_004_kani=true&JigyosyoCd=0870400843-00&ServiceCd=331&Type=search" }, "geometry": { "type": "Point", "coordinates": [ 139.706523899999979, 36.1960856 ] } },
{ "type": "Feature", "properties": { "内容": "桃の里・古河【特定施設入居者生活介護（有料老人ホーム）】茨城県古河市横山町1-2-6", "url2": "https://www.kaigokensaku.mhlw.go.jp/08/index.php?action_kouhyou_detail_004_kani=true&JigyosyoCd=0870401593-00&ServiceCd=331&Type=search" }, "geometry": { "type": "Point", "coordinates": [ 139.70497, 36.1968832 ] } },
{ "type": "Feature", "properties": { "内容": "ハートワン東石岡【特定施設入居者生活介護（有料老人ホーム）】茨城県石岡市東石岡四丁目6番44号", "url2": "https://www.kaigokensaku.mhlw.go.jp/08/index.php?action_kouhyou_detail_004_kani=true&JigyosyoCd=0870501301-00&ServiceCd=331&Type=search" }, "geometry": { "type": "Point", "coordinates": [ 140.296350219712821, 36.186990061473281 ] } },
{ "type": "Feature", "properties": { "内容": "ケアホーム常陸国府館【特定施設入居者生活介護（有料老人ホーム）】茨城県石岡市府中１－３－９", "url2": "https://www.kaigokensaku.mhlw.go.jp/08/index.php?action_kouhyou_detail_004_kani=true&JigyosyoCd=0870500758-00&ServiceCd=331&Type=search" }, "geometry": { "type": "Point", "coordinates": [ 140.275543199999987, 36.1912479 ] } },
{ "type": "Feature", "properties": { "内容": "しもふさの郷　百寿の家【特定施設入居者生活介護（有料老人ホーム）】茨城県結城市大字武井1248番地", "url2": "https://www.kaigokensaku.mhlw.go.jp/08/index.php?action_kouhyou_detail_004_kani=true&JigyosyoCd=0870700325-00&ServiceCd=331&Type=search" }, "geometry": { "type": "Point", "coordinates": [ 139.8242592, 36.2344343 ] } },
{ "type": "Feature", "properties": { "内容": "介護付き有料老人ホーム　ひのき【特定施設入居者生活介護（有料老人ホーム）】茨城県龍ケ崎市馴柴町三区739", "url2": "https://www.kaigokensaku.mhlw.go.jp/08/index.php?action_kouhyou_detail_004_kani=true&JigyosyoCd=0870801073-00&ServiceCd=331&Type=search" }, "geometry": { "type": "Point", "coordinates": [ 140.177468501049816, 35.910126351025781 ] } },
{ "type": "Feature", "properties": { "内容": "つくば長寿の郷【特定施設入居者生活介護（有料老人ホーム）】常総市大沢1994番地6", "url2": "https://www.kaigokensaku.mhlw.go.jp/08/index.php?action_kouhyou_detail_004_kani=true&JigyosyoCd=0871100434-00&ServiceCd=331&Type=search" }, "geometry": { "type": "Point", "coordinates": [ 139.9366933, 36.1213437 ] } },
{ "type": "Feature", "properties": { "内容": "有料老人ホーム梨花園別館【特定施設入居者生活介護（有料老人ホーム）】常陸太田市上土木内町601-1有料老人ホーム梨花園別館", "url2": "https://www.kaigokensaku.mhlw.go.jp/08/index.php?action_kouhyou_detail_004_kani=true&JigyosyoCd=0871200598-00&ServiceCd=331&Type=search" }, "geometry": { "type": "Point", "coordinates": [ 140.558830404299187, 36.503592875952194 ] } },
{ "type": "Feature", "properties": { "内容": "シルバーパークはこだ【特定施設入居者生活介護（有料老人ホーム）】茨城県笠間市箱田1838-1", "url2": "https://www.kaigokensaku.mhlw.go.jp/08/index.php?action_kouhyou_detail_004_kani=true&JigyosyoCd=0871600201-00&ServiceCd=331&Type=search" }, "geometry": { "type": "Point", "coordinates": [ 140.22200829999997, 36.402697099999976 ] } },
{ "type": "Feature", "properties": { "内容": "ルシオーレ　牛久【特定施設入居者生活介護（有料老人ホーム）】茨城県牛久市岡見町1060番地7", "url2": "https://www.kaigokensaku.mhlw.go.jp/08/index.php?action_kouhyou_detail_004_kani=true&JigyosyoCd=0871900809-00&ServiceCd=331&Type=search" }, "geometry": { "type": "Point", "coordinates": [ 140.184388949829128, 35.972763834408482 ] } },
{ "type": "Feature", "properties": { "内容": "サンシャインつくばリゾート【特定施設入居者生活介護（有料老人ホーム）】手代木1932", "url2": "https://www.kaigokensaku.mhlw.go.jp/08/index.php?action_kouhyou_detail_004_kani=true&JigyosyoCd=0872003264-00&ServiceCd=331&Type=search" }, "geometry": { "type": "Point", "coordinates": [ 140.0983826, 36.059585 ] } },
{ "type": "Feature", "properties": { "内容": "サンシャイン・ヴィラつくば倶楽夢【特定施設入居者生活介護（有料老人ホーム）】茨城県つくば市谷田部６１０７－２", "url2": "https://www.kaigokensaku.mhlw.go.jp/08/index.php?action_kouhyou_detail_004_kani=true&JigyosyoCd=0872001862-00&ServiceCd=331&Type=search" }, "geometry": { "type": "Point", "coordinates": [ 140.0812429, 36.0426185 ] } },
{ "type": "Feature", "properties": { "内容": "介護付有料老人ホーム　つくばメディケアレジデンス【特定施設入居者生活介護（有料老人ホーム）】茨城県つくば市大曽根3721-9", "url2": "https://www.kaigokensaku.mhlw.go.jp/08/index.php?action_kouhyou_detail_004_kani=true&JigyosyoCd=0872001979-00&ServiceCd=331&Type=search" }, "geometry": { "type": "Point", "coordinates": [ 140.07938809999996, 36.139495900000043 ] } },
{ "type": "Feature", "properties": { "内容": "らいふつくば花畑【特定施設入居者生活介護（有料老人ホーム）】茨城県つくば市花畑1丁目17番地4号らいふつくば花畑", "url2": "https://www.kaigokensaku.mhlw.go.jp/08/index.php?action_kouhyou_detail_004_kani=true&JigyosyoCd=0872001334-00&ServiceCd=331&Type=search" }, "geometry": { "type": "Point", "coordinates": [ 140.0882239, 36.131633 ] } },
{ "type": "Feature", "properties": { "内容": "ニチイケアセンターかつた【特定施設入居者生活介護（有料老人ホーム）】茨城県ひたちなか市市毛1111-1", "url2": "https://www.kaigokensaku.mhlw.go.jp/08/index.php?action_kouhyou_detail_004_kani=true&JigyosyoCd=0872101316-00&ServiceCd=331&Type=search" }, "geometry": { "type": "Point", "coordinates": [ 140.503357199999982, 36.395642100000018 ] } },
{ "type": "Feature", "properties": { "内容": "ハートワンひたちなか【特定施設入居者生活介護（有料老人ホーム）】茨城県ひたちなか市津田2031-150", "url2": "https://www.kaigokensaku.mhlw.go.jp/08/index.php?action_kouhyou_detail_004_kani=true&JigyosyoCd=0872102470-00&ServiceCd=331&Type=search" }, "geometry": { "type": "Point", "coordinates": [ 140.501253346804788, 36.415401850075305 ] } },
{ "type": "Feature", "properties": { "内容": "ラ・ナシカ　ひたちなか【特定施設入居者生活介護（有料老人ホーム）】茨城県ひたちなか市馬渡2831－46", "url2": "https://www.kaigokensaku.mhlw.go.jp/08/index.php?action_kouhyou_detail_004_kani=true&JigyosyoCd=0872101241-00&ServiceCd=331&Type=search" }, "geometry": { "type": "Point", "coordinates": [ 140.5664219, 36.4024388 ] } },
{ "type": "Feature", "properties": { "内容": "介護付有料老人ホーム　おひさま館2号館【特定施設入居者生活介護（有料老人ホーム）】茨城県ひたちなか市馬渡3839-1", "url2": "https://www.kaigokensaku.mhlw.go.jp/08/index.php?action_kouhyou_detail_004_kani=true&JigyosyoCd=0872102512-00&ServiceCd=331&Type=search" }, "geometry": { "type": "Point", "coordinates": [ 140.5610508, 36.3970643 ] } },
{ "type": "Feature", "properties": { "内容": "特定有料老人ホーム　フレグレントかしま　指定特定施設入居者生活介護【特定施設入居者生活介護（有料老人ホーム）】茨城県鹿嶋市平井１３５０－４１０", "url2": "https://www.kaigokensaku.mhlw.go.jp/08/index.php?action_kouhyou_detail_004_kani=true&JigyosyoCd=0872200274-00&ServiceCd=331&Type=search" }, "geometry": { "type": "Point", "coordinates": [ 140.6619346, 35.9589883 ] } },
{ "type": "Feature", "properties": { "内容": "ハートワン潮来【特定施設入居者生活介護（有料老人ホーム）】茨城県潮来市大生１３７０－２", "url2": "https://www.kaigokensaku.mhlw.go.jp/08/index.php?action_kouhyou_detail_004_kani=true&JigyosyoCd=0872300504-00&ServiceCd=331&Type=search" }, "geometry": { "type": "Point", "coordinates": [ 140.5575416, 35.9993486 ] } },
{ "type": "Feature", "properties": { "内容": "介護付有料老人ホーム　ヒューマンサポート守谷【特定施設入居者生活介護（有料老人ホーム）】茨城県守谷市松並青葉４丁目２３番地５", "url2": "https://www.kaigokensaku.mhlw.go.jp/08/index.php?action_kouhyou_detail_004_kani=true&JigyosyoCd=0872401039-00&ServiceCd=331&Type=search" }, "geometry": { "type": "Point", "coordinates": [ 139.9967097, 35.959749 ] } },
{ "type": "Feature", "properties": { "内容": "サンシャイン・ヴィラ守谷倶楽夢【特定施設入居者生活介護（有料老人ホーム）】茨城県守谷市松並1879-13", "url2": "https://www.kaigokensaku.mhlw.go.jp/08/index.php?action_kouhyou_detail_004_kani=true&JigyosyoCd=0872400783-00&ServiceCd=331&Type=search" }, "geometry": { "type": "Point", "coordinates": [ 139.996088500000013, 35.9563027 ] } },
{ "type": "Feature", "properties": { "内容": "介護付き有料老人ホーム　えくぼ【特定施設入居者生活介護（有料老人ホーム）】後台1495-1", "url2": "https://www.kaigokensaku.mhlw.go.jp/08/index.php?action_kouhyou_detail_004_kani=true&JigyosyoCd=0872600390-00&ServiceCd=331&Type=search" }, "geometry": { "type": "Point", "coordinates": [ 140.479008300000032, 36.4235557 ] } },
{ "type": "Feature", "properties": { "内容": "介護付有料老人ホームヒューマンサポート筑西【特定施設入居者生活介護（有料老人ホーム）】茨城県筑西市直井360-2", "url2": "https://www.kaigokensaku.mhlw.go.jp/08/index.php?action_kouhyou_detail_004_kani=true&JigyosyoCd=0872700687-00&ServiceCd=331&Type=search" }, "geometry": { "type": "Point", "coordinates": [ 139.990098399999965, 36.3130479 ] } },
{ "type": "Feature", "properties": { "内容": "夢眠ちくせい【特定施設入居者生活介護（有料老人ホーム）】茨城県筑西市二木成1530", "url2": "https://www.kaigokensaku.mhlw.go.jp/08/index.php?action_kouhyou_detail_004_kani=true&JigyosyoCd=0870600384-00&ServiceCd=331&Type=search" }, "geometry": { "type": "Point", "coordinates": [ 139.981067700000011, 36.2985744 ] } },
{ "type": "Feature", "properties": { "内容": "ハートワン神立【特定施設入居者生活介護（有料老人ホーム）】茨城県かすみがうら市稲吉2-18-15", "url2": "https://www.kaigokensaku.mhlw.go.jp/08/index.php?action_kouhyou_detail_004_kani=true&JigyosyoCd=0873000129-00&ServiceCd=331&Type=search" }, "geometry": { "type": "Point", "coordinates": [ 140.247173100000026, 36.1232596 ] } },
{ "type": "Feature", "properties": { "内容": "介護付き有料老人ホーム　ハートワン千代田【特定施設入居者生活介護（有料老人ホーム）】茨城県かすみがうら市上稲吉1831-27", "url2": "https://www.kaigokensaku.mhlw.go.jp/08/index.php?action_kouhyou_detail_004_kani=true&JigyosyoCd=0873000285-00&ServiceCd=331&Type=search" }, "geometry": { "type": "Point", "coordinates": [ 140.215896199999946, 36.1260834 ] } },
{ "type": "Feature", "properties": { "内容": "ハートワン霞ケ浦【特定施設入居者生活介護（有料老人ホーム）】茨城県かすみがうら市宍倉6202-10", "url2": "https://www.kaigokensaku.mhlw.go.jp/08/index.php?action_kouhyou_detail_004_kani=true&JigyosyoCd=0873000376-00&ServiceCd=331&Type=search" }, "geometry": { "type": "Point", "coordinates": [ 140.261557708073411, 36.128487752995241 ] } },
{ "type": "Feature", "properties": { "内容": "ハートワン霞ヶ浦B棟【特定施設入居者生活介護（有料老人ホーム）】茨城県かすみがうら市宍倉6148-14", "url2": "https://www.kaigokensaku.mhlw.go.jp/08/index.php?action_kouhyou_detail_004_kani=true&JigyosyoCd=0873000467-00&ServiceCd=331&Type=search" }, "geometry": { "type": "Point", "coordinates": [ 140.262304020795114, 36.128192741646849 ] } },
{ "type": "Feature", "properties": { "内容": "ハートワン玉造【特定施設入居者生活介護（有料老人ホーム）】茨城県行方市玉造甲476-1", "url2": "https://www.kaigokensaku.mhlw.go.jp/08/index.php?action_kouhyou_detail_004_kani=true&JigyosyoCd=0875300311-00&ServiceCd=331&Type=search" }, "geometry": { "type": "Point", "coordinates": [ 140.4151928, 36.1029431 ] } },
{ "type": "Feature", "properties": { "内容": "ハートワンつくばみらい【特定施設入居者生活介護（有料老人ホーム）】茨城県つくばみらい市狸穴1395番46", "url2": "https://www.kaigokensaku.mhlw.go.jp/08/index.php?action_kouhyou_detail_004_kani=true&JigyosyoCd=0875500530-00&ServiceCd=331&Type=search" }, "geometry": { "type": "Point", "coordinates": [ 140.067744354106139, 35.992698441708903 ] } },
{ "type": "Feature", "properties": { "内容": "ハートワン小川【特定施設入居者生活介護（有料老人ホーム）】茨城県小美玉市野田1339-1", "url2": "https://www.kaigokensaku.mhlw.go.jp/08/index.php?action_kouhyou_detail_004_kani=true&JigyosyoCd=0875600132-00&ServiceCd=331&Type=search" }, "geometry": { "type": "Point", "coordinates": [ 140.384311, 36.1988938 ] } },
{ "type": "Feature", "properties": { "内容": "グランドホームとんぼ【特定施設入居者生活介護（有料老人ホーム）】茨城県東茨城郡茨城町中石崎2651－1", "url2": "https://www.kaigokensaku.mhlw.go.jp/08/index.php?action_kouhyou_detail_004_kani=true&JigyosyoCd=0873101406-00&ServiceCd=331&Type=search" }, "geometry": { "type": "Point", "coordinates": [ 140.494658100000038, 36.283589 ] } },
{ "type": "Feature", "properties": { "内容": "御前山俱楽部【特定施設入居者生活介護（有料老人ホーム）】茨城県東茨城郡城里町御前山1500御前山俱楽部", "url2": "https://www.kaigokensaku.mhlw.go.jp/08/index.php?action_kouhyou_detail_004_kani=true&JigyosyoCd=0873101695-00&ServiceCd=331&Type=search" }, "geometry": { "type": "Point", "coordinates": [ 140.3339523, 36.541081 ] } },
{ "type": "Feature", "properties": { "内容": "しまナーシングホーム常北【特定施設入居者生活介護（有料老人ホーム）】茨城県東茨城郡城里町石塚539-1", "url2": "https://www.kaigokensaku.mhlw.go.jp/08/index.php?action_kouhyou_detail_004_kani=true&JigyosyoCd=0873100887-00&ServiceCd=331&Type=search" }, "geometry": { "type": "Point", "coordinates": [ 140.3742492, 36.4786301 ] } },
{ "type": "Feature", "properties": { "内容": "有料老人ホームわかぐり【特定施設入居者生活介護（有料老人ホーム）】茨城県稲敷郡阿見町鈴木１３６－３", "url2": "https://www.kaigokensaku.mhlw.go.jp/08/index.php?action_kouhyou_detail_004_kani=true&JigyosyoCd=0873800726-00&ServiceCd=331&Type=search" }, "geometry": { "type": "Point", "coordinates": [ 140.21669959999997, 36.0216935 ] } },
{ "type": "Feature", "properties": { "内容": "介護付き有料老人ホーム阿見長寿館【特定施設入居者生活介護（有料老人ホーム）】茨城県稲敷郡阿見町中央６－８－１８", "url2": "https://www.kaigokensaku.mhlw.go.jp/08/index.php?action_kouhyou_detail_004_kani=true&JigyosyoCd=0873800916-00&ServiceCd=331&Type=search" }, "geometry": { "type": "Point", "coordinates": [ 140.2242417, 36.0281284 ] } }
]
}
