{
"type": "FeatureCollection",
"name": "geo_08_定期巡回・随時対応型訪問介護看護",
"crs": { "type": "name", "properties": { "name": "urn:ogc:def:crs:OGC:1.3:CRS84" } },
"features": [
{ "type": "Feature", "properties": { "内容": "ゆりかご☆いんくる【定期巡回・随時対応型訪問介護看護】茨城県水戸市飯富町3467-1", "url": "https://www.kaigokensaku.mhlw.go.jp/08/index.php?action_kouhyou_detail_004_kani=true&JigyosyoCd=0890100415-00&ServiceCd=760&Type=search", "url2": "https://www.yurikago-kaigo.com/kaigo/incl/index.html" }, "geometry": { "type": "Point", "coordinates": [ 140.41504470000001, 36.4222624 ] } },
{ "type": "Feature", "properties": { "内容": "フロイデみと定期巡回サービス【定期巡回・随時対応型訪問介護看護】茨城県水戸市堀町967-1", "url": "https://www.kaigokensaku.mhlw.go.jp/08/index.php?action_kouhyou_detail_004_kani=true&JigyosyoCd=0890100514-00&ServiceCd=760&Type=search", "url2": "https://www.hakujinkai.com" }, "geometry": { "type": "Point", "coordinates": [ 140.4335211, 36.4029035 ] } },
{ "type": "Feature", "properties": { "内容": "ヘルパーステーションけやき【定期巡回・随時対応型訪問介護看護】茨城県水戸市住吉町57-2", "url": "https://www.kaigokensaku.mhlw.go.jp/08/index.php?action_kouhyou_detail_004_kani=true&JigyosyoCd=0890100563-00&ServiceCd=760&Type=search", "url2": "http://www.suisei.or.jp" }, "geometry": { "type": "Point", "coordinates": [ 140.4792956, 36.3345181 ] } },
{ "type": "Feature", "properties": { "内容": "ナザレ園サポート24水戸【定期巡回・随時対応型訪問介護看護】茨城県水戸市石川1-3829-3", "url": "https://www.kaigokensaku.mhlw.go.jp/08/index.php?action_kouhyou_detail_004_kani=true&JigyosyoCd=0890100357-00&ServiceCd=760&Type=search", "url2": "www.nazareen.or.jp" }, "geometry": { "type": "Point", "coordinates": [ 140.430028600000014, 36.3919361 ] } },
{ "type": "Feature", "properties": { "内容": "やさしい手結城定期巡回・訪問介護看護事業所【定期巡回・随時対応型訪問介護看護】茨城県結城市結城9802-1やさしい手シニアリビングやさしえ結城", "url": "https://www.kaigokensaku.mhlw.go.jp/08/index.php?action_kouhyou_detail_004_kani=true&JigyosyoCd=0890700057-00&ServiceCd=760&Type=search", "url2": "sp.yasashiite.com/subdomains/section/228/" }, "geometry": { "type": "Point", "coordinates": [ 139.860247299999969, 36.2904288 ] } },
{ "type": "Feature", "properties": { "内容": "ナザレ園サポート24常陸太田【定期巡回・随時対応型訪問介護看護】茨城県常陸太田市磯部町字腰巻57番地ナザレ園ホーム・ライフ・サービス常陸太田", "url": "https://www.kaigokensaku.mhlw.go.jp/08/index.php?action_kouhyou_detail_004_kani=true&JigyosyoCd=0891200099-00&ServiceCd=760&Type=search", "url2": "https://nazareen.or.jp/" }, "geometry": { "type": "Point", "coordinates": [ 140.530956259277332, 36.519324813775285 ] } },
{ "type": "Feature", "properties": { "内容": "フロイデともべ定期巡回サービス【定期巡回・随時対応型訪問介護看護】茨城県笠間市鯉淵6526-19", "url": "https://www.kaigokensaku.mhlw.go.jp/08/index.php?action_kouhyou_detail_004_kani=true&JigyosyoCd=0891600231-00&ServiceCd=760&Type=search", "url2": "https://www.hakuyukai-sfg.com" }, "geometry": { "type": "Point", "coordinates": [ 140.3203987, 36.3494962 ] } },
{ "type": "Feature", "properties": { "内容": "医療法人博仁会　定期巡回・随時対応型訪問介護看護事業所　フロイデひたちなか定期巡回サービス【定期巡回・随時対応型訪問介護看護】茨城県ひたちなか市足崎1474番地8フロイデひたちなかメディカルプラザ　ベルリン棟", "url": "https://www.kaigokensaku.mhlw.go.jp/08/index.php?action_kouhyou_detail_004_kani=true&JigyosyoCd=0892100413-00&ServiceCd=760&Type=search", "url2": "https://www.hakujinkai.com/satellite_mp_hitachinaka.php" }, "geometry": { "type": "Point", "coordinates": [ 140.5526755, 36.4037835 ] } },
{ "type": "Feature", "properties": { "内容": "ふくふく鹿嶋【定期巡回・随時対応型訪問介護看護】茨城県鹿嶋市大字宮中字宮中野3820番地1", "url": "https://www.kaigokensaku.mhlw.go.jp/08/index.php?action_kouhyou_detail_004_kani=true&JigyosyoCd=0892200023-00&ServiceCd=760&Type=search", "url2": "http://www.ns-group.co.jp" }, "geometry": { "type": "Point", "coordinates": [ 140.6081327, 35.98067310000004 ] } },
{ "type": "Feature", "properties": { "内容": "ふくふく潮来【定期巡回・随時対応型訪問介護看護】茨城県潮来市日の出4-2-8", "url": "https://www.kaigokensaku.mhlw.go.jp/08/index.php?action_kouhyou_detail_004_kani=true&JigyosyoCd=0892300039-00&ServiceCd=760&Type=search", "url2": "www.ns-group.co.jp" }, "geometry": { "type": "Point", "coordinates": [ 140.575055117999284, 35.932813698349541 ] } },
{ "type": "Feature", "properties": { "内容": "おおみやホームヘルパーステーション【定期巡回・随時対応型訪問介護看護】茨城県常陸大宮市上町３２１番地ＮＴＴ常陸大宮ビル１階", "url": "https://www.kaigokensaku.mhlw.go.jp/08/index.php?action_kouhyou_detail_004_kani=true&JigyosyoCd=0892500133-00&ServiceCd=760&Type=search", "url2": "http://www.hakujinkai.com/" }, "geometry": { "type": "Point", "coordinates": [ 140.412744964418039, 36.549258437059571 ] } },
{ "type": "Feature", "properties": { "内容": "ナザレ園定期巡回・随時対応型訪問介護看護事業所【定期巡回・随時対応型訪問介護看護】茨城県那珂市中里342-3", "url": "https://www.kaigokensaku.mhlw.go.jp/08/index.php?action_kouhyou_detail_004_kani=true&JigyosyoCd=0892600081-00&ServiceCd=760&Type=search", "url2": "www.nazareen.or.jp" }, "geometry": { "type": "Point", "coordinates": [ 140.457168799999977, 36.4851895 ] } },
{ "type": "Feature", "properties": { "内容": "定期巡回・随時対応型訪問介護看護　リアン【定期巡回・随時対応型訪問介護看護】茨城県筑西市藤ヶ谷2264番地2", "url": "https://www.kaigokensaku.mhlw.go.jp/08/index.php?action_kouhyou_detail_004_kani=true&JigyosyoCd=0892700170-00&ServiceCd=760&Type=search", "url2": null }, "geometry": { "type": "Point", "coordinates": [ 139.9501678, 36.2600972 ] } },
{ "type": "Feature", "properties": { "内容": "ふくふく神栖【定期巡回・随時対応型訪問介護看護】茨城県神栖市若松中央2-20", "url": "https://www.kaigokensaku.mhlw.go.jp/08/index.php?action_kouhyou_detail_004_kani=true&JigyosyoCd=0895200095-00&ServiceCd=760&Type=search", "url2": "http://www.ns-group.co.jp" }, "geometry": { "type": "Point", "coordinates": [ 140.734144199999946, 35.8351411 ] } },
{ "type": "Feature", "properties": { "内容": "在宅サポート　オークス東海【定期巡回・随時対応型訪問介護看護】茨城県那珂郡東海村大字船場字八枚割５８８番地７", "url": "https://www.kaigokensaku.mhlw.go.jp/08/index.php?action_kouhyou_detail_004_kani=true&JigyosyoCd=0893300038-00&ServiceCd=760&Type=search", "url2": null }, "geometry": { "type": "Point", "coordinates": [ 140.546577170020782, 36.449888629722565 ] } }
]
}
