{
"type": "FeatureCollection",
"name": "geo_08_特別支援学校",
"crs": { "type": "name", "properties": { "name": "urn:ogc:def:crs:EPSG::6668" } },
"features": [
{ "type": "Feature", "properties": { "P29_001": "08221", "P29_002": "E108110000016", "P29_003": "16012", "P29_004": "茨城大学教育学部附属特別支援学校", "P29_005": "茨城県ひたちなか市津田1955", "P29_006": "1", "P29_007": "0", "P29_008": "00", "P29_009": null }, "geometry": { "type": "Point", "coordinates": [ 140.507503389397471, 36.413024854437424 ] } },
{ "type": "Feature", "properties": { "P29_001": "08201", "P29_002": "E108220100012", "P29_003": "16012", "P29_004": "茨城県立盲学校", "P29_005": "茨城県水戸市袴塚1-3-1", "P29_006": "2", "P29_007": "0", "P29_008": "00", "P29_009": null }, "geometry": { "type": "Point", "coordinates": [ 140.451012006798493, 36.394736482387806 ] } },
{ "type": "Feature", "properties": { "P29_001": "08201", "P29_002": "E108220100021", "P29_003": "16012", "P29_004": "茨城県立水戸聾学校", "P29_005": "茨城県水戸市千波町2863-1", "P29_006": "2", "P29_007": "0", "P29_008": "00", "P29_009": null }, "geometry": { "type": "Point", "coordinates": [ 140.455372012684762, 36.356752401132368 ] } },
{ "type": "Feature", "properties": { "P29_001": "08201", "P29_002": "E108220100030", "P29_003": "16012", "P29_004": "茨城県立水戸特別支援学校", "P29_005": "茨城県水戸市吉沢町3979", "P29_006": "2", "P29_007": "0", "P29_008": "00", "P29_009": null }, "geometry": { "type": "Point", "coordinates": [ 140.474472681784931, 36.337721054403204 ] } },
{ "type": "Feature", "properties": { "P29_001": "08201", "P29_002": "E108220100049", "P29_003": "16012", "P29_004": "茨城県立水戸飯富特別支援学校", "P29_005": "茨城県水戸市飯富町3436-20", "P29_006": "2", "P29_007": "0", "P29_008": "00", "P29_009": null }, "geometry": { "type": "Point", "coordinates": [ 140.416948165412492, 36.418181373064527 ] } },
{ "type": "Feature", "properties": { "P29_001": "08201", "P29_002": "E108220100058", "P29_003": "16012", "P29_004": "茨城県立水戸高等特別支援学校", "P29_005": "茨城県水戸市下大野町6212", "P29_006": "2", "P29_007": "0", "P29_008": "00", "P29_009": null }, "geometry": { "type": "Point", "coordinates": [ 140.557213748126031, 36.344963581598684 ] } },
{ "type": "Feature", "properties": { "P29_001": "08201", "P29_002": "E108220100067", "P29_003": "16012", "P29_004": "茨城県立内原特別支援学校", "P29_005": "茨城県水戸市鯉淵町2570", "P29_006": "2", "P29_007": "0", "P29_008": "00", "P29_009": null }, "geometry": { "type": "Point", "coordinates": [ 140.362076116004999, 36.352876517016405 ] } },
{ "type": "Feature", "properties": { "P29_001": "08202", "P29_002": "E108220200011", "P29_003": "16012", "P29_004": "日立市立日立特別支援学校", "P29_005": "茨城県日立市鮎川町3-11-2", "P29_006": "3", "P29_007": "0", "P29_008": "00", "P29_009": null }, "geometry": { "type": "Point", "coordinates": [ 140.639121961295729, 36.567790509604649 ] } },
{ "type": "Feature", "properties": { "P29_001": "08203", "P29_002": "E108220300010", "P29_003": "16012", "P29_004": "茨城県立土浦特別支援学校", "P29_005": "茨城県土浦市上高津1238", "P29_006": "2", "P29_007": "0", "P29_008": "00", "P29_009": null }, "geometry": { "type": "Point", "coordinates": [ 140.169138272961959, 36.073239205182126 ] } },
{ "type": "Feature", "properties": { "P29_001": "08205", "P29_002": "E108220500018", "P29_003": "16012", "P29_004": "茨城県立石岡特別支援学校", "P29_005": "茨城県石岡市下青柳716-1", "P29_006": "2", "P29_007": "0", "P29_008": "00", "P29_009": null }, "geometry": { "type": "Point", "coordinates": [ 140.179418994637047, 36.212094440865449 ] } },
{ "type": "Feature", "properties": { "P29_001": "08207", "P29_002": "E108220700016", "P29_003": "16012", "P29_004": "茨城県立結城特別支援学校", "P29_005": "茨城県結城市鹿窪1357-10", "P29_006": "2", "P29_007": "0", "P29_008": "00", "P29_009": null }, "geometry": { "type": "Point", "coordinates": [ 139.87950757857331, 36.270657205013407 ] } },
{ "type": "Feature", "properties": { "P29_001": "08210", "P29_002": "E108221000011", "P29_003": "16012", "P29_004": "茨城県立下妻特別支援学校", "P29_005": "茨城県下妻市半谷492-4", "P29_006": "2", "P29_007": "0", "P29_008": "00", "P29_009": null }, "geometry": { "type": "Point", "coordinates": [ 139.9354818473943, 36.212795488228139 ] } },
{ "type": "Feature", "properties": { "P29_001": "08212", "P29_002": "E108221200019", "P29_003": "16012", "P29_004": "茨城県立常陸太田特別支援学校", "P29_005": "茨城県常陸太田市瑞龍町1032-1", "P29_006": "2", "P29_007": "0", "P29_008": "00", "P29_009": null }, "geometry": { "type": "Point", "coordinates": [ 140.532801002552787, 36.562774000134056 ] } },
{ "type": "Feature", "properties": { "P29_001": "08215", "P29_002": "E108221500016", "P29_003": "16012", "P29_004": "茨城県立北茨城特別支援学校", "P29_005": "茨城県北茨城市中郷町小野矢指1657", "P29_006": "2", "P29_007": "0", "P29_008": "00", "P29_009": null }, "geometry": { "type": "Point", "coordinates": [ 140.732266237074384, 36.75030390422215 ] } },
{ "type": "Feature", "properties": { "P29_001": "08216", "P29_002": "E108221600015", "P29_003": "16012", "P29_004": "茨城県立友部特別支援学校", "P29_005": "茨城県笠間市鯉淵6558-1", "P29_006": "2", "P29_007": "0", "P29_008": "00", "P29_009": null }, "geometry": { "type": "Point", "coordinates": [ 140.324290486698004, 36.351816610708411 ] } },
{ "type": "Feature", "properties": { "P29_001": "08216", "P29_002": "E108221600024", "P29_003": "16012", "P29_004": "茨城県立友部東特別支援学校", "P29_005": "茨城県笠間市鯉淵6528-1", "P29_006": "2", "P29_007": "0", "P29_008": "00", "P29_009": null }, "geometry": { "type": "Point", "coordinates": [ 140.322076993512638, 36.351465854808431 ] } },
{ "type": "Feature", "properties": { "P29_001": "08220", "P29_002": "E108222000019", "P29_003": "16012", "P29_004": "茨城県立つくば特別支援学校", "P29_005": "茨城県つくば市玉取2100", "P29_006": "2", "P29_007": "0", "P29_008": "00", "P29_009": null }, "geometry": { "type": "Point", "coordinates": [ 140.1049232880967, 36.126426188066688 ] } },
{ "type": "Feature", "properties": { "P29_001": "08221", "P29_002": "E108222100018", "P29_003": "16012", "P29_004": "茨城県立勝田特別支援学校", "P29_005": "茨城県ひたちなか市高場2452", "P29_006": "2", "P29_007": "0", "P29_008": "00", "P29_009": null }, "geometry": { "type": "Point", "coordinates": [ 140.528092985656087, 36.433449391163258 ] } },
{ "type": "Feature", "properties": { "P29_001": "08222", "P29_002": "E108222200017", "P29_003": "16012", "P29_004": "茨城県立鹿島特別支援学校", "P29_005": "茨城県鹿嶋市沼尾1195", "P29_006": "2", "P29_007": "0", "P29_008": "00", "P29_009": null }, "geometry": { "type": "Point", "coordinates": [ 140.603984887795121, 36.000234518454413 ] } },
{ "type": "Feature", "properties": { "P29_001": "08227", "P29_002": "E108222700012", "P29_003": "16012", "P29_004": "茨城県立協和特別支援学校", "P29_005": "茨城県筑西市谷永島495-1", "P29_006": "2", "P29_007": "0", "P29_008": "00", "P29_009": null }, "geometry": { "type": "Point", "coordinates": [ 140.03094927858163, 36.312001713453213 ] } },
{ "type": "Feature", "properties": { "P29_001": "08235", "P29_002": "E108223500012", "P29_003": "16012", "P29_004": "茨城県立伊奈特別支援学校", "P29_005": "茨城県つくばみらい市青古新田300", "P29_006": "2", "P29_007": "0", "P29_008": "00", "P29_009": null }, "geometry": { "type": "Point", "coordinates": [ 140.020783856491619, 35.972236991028495 ] } },
{ "type": "Feature", "properties": { "P29_001": "08364", "P29_002": "E108236400015", "P29_003": "16012", "P29_004": "茨城県立大子特別支援学校", "P29_005": "茨城県久慈郡大子町頃藤3602", "P29_006": "2", "P29_007": "0", "P29_008": "00", "P29_009": null }, "geometry": { "type": "Point", "coordinates": [ 140.386561002895945, 36.722293999354967 ] } },
{ "type": "Feature", "properties": { "P29_001": "08442", "P29_002": "E108244200011", "P29_003": "16012", "P29_004": "茨城県立美浦特別支援学校", "P29_005": "茨城県稲敷郡美浦村土屋字笹山3127", "P29_006": "2", "P29_007": "0", "P29_008": "00", "P29_009": null }, "geometry": { "type": "Point", "coordinates": [ 140.287213530137763, 36.001430531386312 ] } },
{ "type": "Feature", "properties": { "P29_001": "08443", "P29_002": "E108244300010", "P29_003": "16012", "P29_004": "茨城県立霞ケ浦聾学校", "P29_005": "茨城県稲敷郡阿見町上長3-2", "P29_006": "2", "P29_007": "0", "P29_008": "00", "P29_009": null }, "geometry": { "type": "Point", "coordinates": [ 140.19706954116981, 36.006598828620952 ] } },
{ "type": "Feature", "properties": { "P29_001": "08546", "P29_002": "E108254600016", "P29_003": "16012", "P29_004": "茨城県立境特別支援学校", "P29_005": "茨城県猿島郡境町塚崎2170", "P29_006": "2", "P29_007": "0", "P29_008": "00", "P29_009": null }, "geometry": { "type": "Point", "coordinates": [ 139.768167311380921, 36.126962972195187 ] } }
]
}
