{
"type": "FeatureCollection",
"name": "geo_8_4",
"crs": { "type": "name", "properties": { "name": "urn:ogc:def:crs:OGC:1.3:CRS84" } },
"features": [
{ "type": "Feature", "properties": { "ID": 840800800010, "正式名称": "出張専門　ゆずのき助産院", "機関区分": 4, "都道府県コード": 8, "市区町村コード": 228, "所在地": "茨城県坂東市小山１１８５－２", "緯度": 36.006619, "経度": 139.869109, "url": "https://www.iryou.teikyouseido.mhlw.go.jp/znk-web/juminkanja/S2430/initialize?prefCd=08&kikanCd=0800800010&kikanKbn=4", "url2": null, "内容": "出張専門　ゆずのき助産院【4:助産院】茨城県坂東市小山１１８５－２" }, "geometry": { "type": "Point", "coordinates": [ 139.869109, 36.006619 ] } },
{ "type": "Feature", "properties": { "ID": 846081000005, "正式名称": "ひまわり母乳育児相談室　＜出張専門＞", "機関区分": 4, "都道府県コード": 8, "市区町村コード": 201, "所在地": "茨城県水戸市米沢町", "緯度": 36.34157, "経度": 140.4629, "url": "https://www.iryou.teikyouseido.mhlw.go.jp/znk-web/juminkanja/S2430/initialize?prefCd=08&kikanCd=6081000005&kikanKbn=4", "url2": "http://www.oketani.or.jp/", "内容": "ひまわり母乳育児相談室　＜出張専門＞【4:助産院】茨城県水戸市米沢町" }, "geometry": { "type": "Point", "coordinates": [ 140.4629, 36.34157 ] } },
{ "type": "Feature", "properties": { "ID": 846081000010, "正式名称": "マタニティ・ケア・伊藤", "機関区分": 4, "都道府県コード": 8, "市区町村コード": 215, "所在地": "茨城県北茨城市中郷町小野矢指２６－６", "緯度": 36.7525, "経度": 140.735833, "url": "https://www.iryou.teikyouseido.mhlw.go.jp/znk-web/juminkanja/S2430/initialize?prefCd=08&kikanCd=6081000010&kikanKbn=4", "url2": null, "内容": "マタニティ・ケア・伊藤【4:助産院】茨城県北茨城市中郷町小野矢指２６－６" }, "geometry": { "type": "Point", "coordinates": [ 140.735833, 36.7525 ] } },
{ "type": "Feature", "properties": { "ID": 846081000023, "正式名称": "エステル母乳育児相談所", "機関区分": 4, "都道府県コード": 8, "市区町村コード": 234, "所在地": "茨城県鉾田市借宿１４３０", "緯度": 36.154444, "経度": 140.470556, "url": "https://www.iryou.teikyouseido.mhlw.go.jp/znk-web/juminkanja/S2430/initialize?prefCd=08&kikanCd=6081000023&kikanKbn=4", "url2": "http://www.geocities.jp/esuteru_bonyu/", "内容": "エステル母乳育児相談所【4:助産院】茨城県鉾田市借宿１４３０" }, "geometry": { "type": "Point", "coordinates": [ 140.470556, 36.154444 ] } },
{ "type": "Feature", "properties": { "ID": 846081000027, "正式名称": "守谷助産院", "機関区分": 4, "都道府県コード": 8, "市区町村コード": 224, "所在地": "茨城県守谷市松ケ丘５－２７－１９", "緯度": 35.942531, "経度": 139.983821, "url": "https://www.iryou.teikyouseido.mhlw.go.jp/znk-web/juminkanja/S2430/initialize?prefCd=08&kikanCd=6081000027&kikanKbn=4", "url2": "https://www.midwifemap.com/mysite/moriya-josanin/#access", "内容": "守谷助産院【4:助産院】茨城県守谷市松ケ丘５－２７－１９" }, "geometry": { "type": "Point", "coordinates": [ 139.983821, 35.942531 ] } },
{ "type": "Feature", "properties": { "ID": 846081000030, "正式名称": "助産院かかんち", "機関区分": 4, "都道府県コード": 8, "市区町村コード": 217, "所在地": "茨城県取手市本郷１ー７－１", "緯度": 35.906111, "経度": 140.063611, "url": "https://www.iryou.teikyouseido.mhlw.go.jp/znk-web/juminkanja/S2430/initialize?prefCd=08&kikanCd=6081000030&kikanKbn=4", "url2": "http://kakanchi.web.fc2.com/", "内容": "助産院かかんち【4:助産院】茨城県取手市本郷１ー７－１" }, "geometry": { "type": "Point", "coordinates": [ 140.063611, 35.906111 ] } },
{ "type": "Feature", "properties": { "ID": 846081000034, "正式名称": "さとう助産院", "機関区分": 4, "都道府県コード": 8, "市区町村コード": 207, "所在地": "茨城県結城市結城１２０７８－１１", "緯度": 36.312778, "経度": 139.875833, "url": "https://www.iryou.teikyouseido.mhlw.go.jp/znk-web/juminkanja/S2430/initialize?prefCd=08&kikanCd=6081000034&kikanKbn=4", "url2": "https://sato-yukijosan.com/", "内容": "さとう助産院【4:助産院】茨城県結城市結城１２０７８－１１" }, "geometry": { "type": "Point", "coordinates": [ 139.875833, 36.312778 ] } },
{ "type": "Feature", "properties": { "ID": 846081000036, "正式名称": "もものみ助産院", "機関区分": 4, "都道府県コード": 8, "市区町村コード": 204, "所在地": "茨城県古河市本町", "緯度": 36.187222, "経度": 139.713333, "url": "https://www.iryou.teikyouseido.mhlw.go.jp/znk-web/juminkanja/S2430/initialize?prefCd=08&kikanCd=6081000036&kikanKbn=4", "url2": null, "内容": "もものみ助産院【4:助産院】茨城県古河市本町" }, "geometry": { "type": "Point", "coordinates": [ 139.713333, 36.187222 ] } },
{ "type": "Feature", "properties": { "ID": 846081000043, "正式名称": "とべ助産院", "機関区分": 4, "都道府県コード": 8, "市区町村コード": 341, "所在地": "茨城県那珂郡東海村須和間１３１５－２", "緯度": 36.452164, "経度": 140.554383, "url": "https://www.iryou.teikyouseido.mhlw.go.jp/znk-web/juminkanja/S2430/initialize?prefCd=08&kikanCd=6081000043&kikanKbn=4", "url2": "http://midwifemap.com/tobejosanin/mysite/", "内容": "とべ助産院【4:助産院】茨城県那珂郡東海村須和間１３１５－２" }, "geometry": { "type": "Point", "coordinates": [ 140.554383, 36.452164 ] } },
{ "type": "Feature", "properties": { "ID": 846081000046, "正式名称": "桶谷式おおこし母乳育児相談室", "機関区分": 4, "都道府県コード": 8, "市区町村コード": 221, "所在地": "茨城県ひたちなか市東石川３４２０番地１１", "緯度": 36.404444, "経度": 140.524444, "url": "https://www.iryou.teikyouseido.mhlw.go.jp/znk-web/juminkanja/S2430/initialize?prefCd=08&kikanCd=6081000046&kikanKbn=4", "url2": null, "内容": "桶谷式おおこし母乳育児相談室【4:助産院】茨城県ひたちなか市東石川３４２０番地１１" }, "geometry": { "type": "Point", "coordinates": [ 140.524444, 36.404444 ] } },
{ "type": "Feature", "properties": { "ID": 846081003023, "正式名称": "ひかり助産院", "機関区分": 4, "都道府県コード": 8, "市区町村コード": 232, "所在地": "茨城県神栖市土合本町３－９８０９－１９１", "緯度": 35.789722, "経度": 140.783056, "url": "https://www.iryou.teikyouseido.mhlw.go.jp/znk-web/juminkanja/S2430/initialize?prefCd=08&kikanCd=6081003023&kikanKbn=4", "url2": null, "内容": "ひかり助産院【4:助産院】茨城県神栖市土合本町３－９８０９－１９１" }, "geometry": { "type": "Point", "coordinates": [ 140.783056, 35.789722 ] } },
{ "type": "Feature", "properties": { "ID": 846081003029, "正式名称": "吉田　直子", "機関区分": 4, "都道府県コード": 8, "市区町村コード": 220, "所在地": "茨城県つくば市豊里の杜１−４−８", "緯度": 36.100278, "経度": 140.054444, "url": "https://www.iryou.teikyouseido.mhlw.go.jp/znk-web/juminkanja/S2430/initialize?prefCd=08&kikanCd=6081003029&kikanKbn=4", "url2": null, "内容": "吉田　直子【4:助産院】茨城県つくば市豊里の杜１−４−８" }, "geometry": { "type": "Point", "coordinates": [ 140.054444, 36.100278 ] } },
{ "type": "Feature", "properties": { "ID": 846081003032, "正式名称": "出張助産院　ちさと", "機関区分": 4, "都道府県コード": 8, "市区町村コード": 204, "所在地": "茨城県古河市東本町", "緯度": 36.19, "経度": 139.719722, "url": "https://www.iryou.teikyouseido.mhlw.go.jp/znk-web/juminkanja/S2430/initialize?prefCd=08&kikanCd=6081003032&kikanKbn=4", "url2": null, "内容": "出張助産院　ちさと【4:助産院】茨城県古河市東本町" }, "geometry": { "type": "Point", "coordinates": [ 139.719722, 36.19 ] } },
{ "type": "Feature", "properties": { "ID": 846081003035, "正式名称": "めぐろ助産院", "機関区分": 4, "都道府県コード": 8, "市区町村コード": 221, "所在地": "茨城県ひたちなか市市毛１１６６－２サニーハイツＡ１０２", "緯度": 36.39835, "経度": 140.508384, "url": "https://www.iryou.teikyouseido.mhlw.go.jp/znk-web/juminkanja/S2430/initialize?prefCd=08&kikanCd=6081003035&kikanKbn=4", "url2": "https://meguro-and-mammy-salon.com/access/", "内容": "めぐろ助産院【4:助産院】茨城県ひたちなか市市毛１１６６－２サニーハイツＡ１０２" }, "geometry": { "type": "Point", "coordinates": [ 140.508384, 36.39835 ] } },
{ "type": "Feature", "properties": { "ID": 846081003045, "正式名称": "産前産後ケアサポートいとが", "機関区分": 4, "都道府県コード": 8, "市区町村コード": 216, "所在地": "茨城県笠間市旭町", "緯度": 36.317222, "経度": 140.320556, "url": "https://www.iryou.teikyouseido.mhlw.go.jp/znk-web/juminkanja/S2430/initialize?prefCd=08&kikanCd=6081003045&kikanKbn=4", "url2": null, "内容": "産前産後ケアサポートいとが【4:助産院】茨城県笠間市旭町" }, "geometry": { "type": "Point", "coordinates": [ 140.320556, 36.317222 ] } },
{ "type": "Feature", "properties": { "ID": 846081003048, "正式名称": "ＢＩＯ　ＨＯＵＳＥ", "機関区分": 4, "都道府県コード": 8, "市区町村コード": 235, "所在地": "茨城県つくばみらい市紫峰ヶ丘１丁目１８の８", "緯度": 35.996389, "経度": 140.043611, "url": "https://www.iryou.teikyouseido.mhlw.go.jp/znk-web/juminkanja/S2430/initialize?prefCd=08&kikanCd=6081003048&kikanKbn=4", "url2": "https://sites.google.com/site/biohouse2015/", "内容": "ＢＩＯ　ＨＯＵＳＥ【4:助産院】茨城県つくばみらい市紫峰ヶ丘１丁目１８の８" }, "geometry": { "type": "Point", "coordinates": [ 140.043611, 35.996389 ] } },
{ "type": "Feature", "properties": { "ID": 846081003049, "正式名称": "母乳育児相談「ほっと」", "機関区分": 4, "都道府県コード": 8, "市区町村コード": 224, "所在地": "茨城県守谷市ひがし野２－７－１４", "緯度": 35.948611, "経度": 140.004167, "url": "https://www.iryou.teikyouseido.mhlw.go.jp/znk-web/juminkanja/S2430/initialize?prefCd=08&kikanCd=6081003049&kikanKbn=4", "url2": null, "内容": "母乳育児相談「ほっと」【4:助産院】茨城県守谷市ひがし野２－７－１４" }, "geometry": { "type": "Point", "coordinates": [ 140.004167, 35.948611 ] } },
{ "type": "Feature", "properties": { "ID": 846081003054, "正式名称": "アイナ助産院", "機関区分": 4, "都道府県コード": 8, "市区町村コード": 203, "所在地": "茨城県土浦市", "緯度": 36.07795, "経度": 140.2031, "url": "https://www.iryou.teikyouseido.mhlw.go.jp/znk-web/juminkanja/S2430/initialize?prefCd=08&kikanCd=6081003054&kikanKbn=4", "url2": null, "内容": "アイナ助産院【4:助産院】茨城県土浦市" }, "geometry": { "type": "Point", "coordinates": [ 140.2031, 36.07795 ] } },
{ "type": "Feature", "properties": { "ID": 846081003066, "正式名称": "産前産後ＭＷケア　助産院ナカ・ヨシ", "機関区分": 4, "都道府県コード": 8, "市区町村コード": 220, "所在地": "茨城県つくば市山木３５９－２", "緯度": 36.164674, "経度": 140.077407, "url": "https://www.iryou.teikyouseido.mhlw.go.jp/znk-web/juminkanja/S2430/initialize?prefCd=08&kikanCd=6081003066&kikanKbn=4", "url2": "http://nakayoshi-mw.com", "内容": "産前産後ＭＷケア　助産院ナカ・ヨシ【4:助産院】茨城県つくば市山木３５９－２" }, "geometry": { "type": "Point", "coordinates": [ 140.077407, 36.164674 ] } },
{ "type": "Feature", "properties": { "ID": 846081003073, "正式名称": "出張訪問助産師　長谷川左弥子", "機関区分": 4, "都道府県コード": 8, "市区町村コード": 202, "所在地": "茨城県日立市川尻町１－１２－１４", "緯度": 36.6511956, "経度": 140.6989765, "url": "https://www.iryou.teikyouseido.mhlw.go.jp/znk-web/juminkanja/S2430/initialize?prefCd=08&kikanCd=6081003073&kikanKbn=4", "url2": null, "内容": "出張訪問助産師　長谷川左弥子【4:助産院】茨城県日立市川尻町１－１２－１４" }, "geometry": { "type": "Point", "coordinates": [ 140.698976499999986, 36.6511956 ] } }
]
}
