{
"type": "FeatureCollection",
"name": "geo_08_各種学校",
"crs": { "type": "name", "properties": { "name": "urn:ogc:def:crs:EPSG::6668" } },
"features": [
{ "type": "Feature", "properties": { "P29_001": "08201", "P29_002": "H208320100013", "P29_003": "16015", "P29_004": "茨城朝鮮初中高級学校", "P29_005": "茨城県水戸市千波町2846", "P29_006": "4", "P29_007": "0", "P29_008": "00", "P29_009": null }, "geometry": { "type": "Point", "coordinates": [ 140.457094838239357, 36.356609336200698 ] } },
{ "type": "Feature", "properties": { "P29_001": "08201", "P29_002": "H208320100031", "P29_003": "16015", "P29_004": "水戸駿優予備学校", "P29_005": "茨城県水戸市三の丸1-1-42", "P29_006": "4", "P29_007": "0", "P29_008": "00", "P29_009": null }, "geometry": { "type": "Point", "coordinates": [ 140.476924249294058, 36.372710715876572 ] } },
{ "type": "Feature", "properties": { "P29_001": "08201", "P29_002": "H208320100040", "P29_003": "16015", "P29_004": "水戸筑波ゼミナール", "P29_005": "茨城県水戸市桜川2-5-3", "P29_006": "4", "P29_007": "0", "P29_008": "00", "P29_009": null }, "geometry": { "type": "Point", "coordinates": [ 140.48005172621302, 36.368915230981848 ] } },
{ "type": "Feature", "properties": { "P29_001": "08203", "P29_002": "H208320300011", "P29_003": "16015", "P29_004": "土浦市医師会附属准看護学院", "P29_005": "茨城県土浦市東真鍋町2-39", "P29_006": "4", "P29_007": "0", "P29_008": "00", "P29_009": null }, "geometry": { "type": "Point", "coordinates": [ 140.206380879337189, 36.091618906196857 ] } },
{ "type": "Feature", "properties": { "P29_001": "08204", "P29_002": "H208320400010", "P29_003": "16015", "P29_004": "古河和装専門学院", "P29_005": "茨城県古河市旭町2-20-30", "P29_006": "4", "P29_007": "0", "P29_008": "00", "P29_009": null }, "geometry": { "type": "Point", "coordinates": [ 139.728100536675242, 36.194876718598763 ] } },
{ "type": "Feature", "properties": { "P29_001": "08205", "P29_002": "H208320500019", "P29_003": "16015", "P29_004": "サクラ服装学院", "P29_005": "茨城県石岡市国府6-3-5", "P29_006": "4", "P29_007": "0", "P29_008": "00", "P29_009": null }, "geometry": { "type": "Point", "coordinates": [ 140.27310462747127, 36.186526256220937 ] } },
{ "type": "Feature", "properties": { "P29_001": "08220", "P29_002": "H208322000010", "P29_003": "16015", "P29_004": "ＴＳＵＫＵＢＡＩＮＴＥＲＮＡＴＩＯＮＡＬＳＣＨＯＯＬ", "P29_005": "茨城県つくば市上郷7846-1", "P29_006": "4", "P29_007": "0", "P29_008": "00", "P29_009": null }, "geometry": { "type": "Point", "coordinates": [ 140.02225788634297, 36.076517482516195 ] } },
{ "type": "Feature", "properties": { "P29_001": "08220", "P29_002": "H208322000029", "P29_003": "16015", "P29_004": "日本つくば国際語学院", "P29_005": "茨城県つくば市松代2-4", "P29_006": "4", "P29_007": "0", "P29_008": "00", "P29_009": null }, "geometry": { "type": "Point", "coordinates": [ 140.099821338944736, 36.074475689070518 ] } },
{ "type": "Feature", "properties": { "P29_001": "08222", "P29_002": "H208322200018", "P29_003": "16015", "P29_004": "鹿島医師会附属准看護学院", "P29_005": "茨城県鹿嶋市宮中1998-2", "P29_006": "4", "P29_007": "0", "P29_008": "00", "P29_009": null }, "geometry": { "type": "Point", "coordinates": [ 140.642066756453971, 35.964967424732741 ] } },
{ "type": "Feature", "properties": { "P29_001": "08227", "P29_002": "H208322700013", "P29_003": "16015", "P29_004": "真壁医師会准看護学院", "P29_005": "茨城県筑西市二木成827-1", "P29_006": "4", "P29_007": "0", "P29_008": "00", "P29_009": null }, "geometry": { "type": "Point", "coordinates": [ 139.973766931144837, 36.296940563486345 ] } },
{ "type": "Feature", "properties": { "P29_001": "08227", "P29_002": "H208322700022", "P29_003": "16015", "P29_004": "下館文化服装学院", "P29_005": "茨城県筑西市下岡崎1-5-8", "P29_006": "4", "P29_007": "0", "P29_008": "00", "P29_009": null }, "geometry": { "type": "Point", "coordinates": [ 139.983276777880491, 36.305317965160974 ] } }
]
}
