{
"type": "FeatureCollection",
"name": "geo_08_特定福祉用具販売",
"crs": { "type": "name", "properties": { "name": "urn:ogc:def:crs:OGC:1.3:CRS84" } },
"features": [
{ "type": "Feature", "properties": { "内容": "株式会社ヤマシタ茨城営業所【特定福祉用具販売】茨城県水戸市青柳町4262-2", "url": "https://www.kaigokensaku.mhlw.go.jp/08/index.php?action_kouhyou_detail_004_kani=true&JigyosyoCd=0870100237-00&ServiceCd=410&Type=search", "url2": "http://www.ycota.jp" }, "geometry": { "type": "Point", "coordinates": [ 140.482417964538428, 36.392799636444721 ] } },
{ "type": "Feature", "properties": { "内容": "パナソニックエイジフリー水戸【特定福祉用具販売】茨城県水戸市酒門町3301-2", "url": "https://www.kaigokensaku.mhlw.go.jp/08/index.php?action_kouhyou_detail_004_kani=true&JigyosyoCd=0870106507-00&ServiceCd=410&Type=search", "url2": "https://sumai.panasonic.jp/agefree/map/detail.php?id=420" }, "geometry": { "type": "Point", "coordinates": [ 140.4830326, 36.3351872 ] } },
{ "type": "Feature", "properties": { "内容": "株式会社　栗原医療器械店　水戸支店【特定福祉用具販売】茨城県水戸市石川2丁目4090番地の1", "url": "https://www.kaigokensaku.mhlw.go.jp/08/index.php?action_kouhyou_detail_004_kani=true&JigyosyoCd=0870103371-00&ServiceCd=410&Type=search", "url2": "http://www.kuribara.co.jp" }, "geometry": { "type": "Point", "coordinates": [ 140.430790699999989, 36.3881357 ] } },
{ "type": "Feature", "properties": { "内容": "フランスベッド株式会社　メディカル茨城営業所【特定福祉用具販売】水戸市見川町2131-992", "url": "https://www.kaigokensaku.mhlw.go.jp/08/index.php?action_kouhyou_detail_004_kani=true&JigyosyoCd=0870103389-00&ServiceCd=410&Type=search", "url2": null }, "geometry": { "type": "Point", "coordinates": [ 140.4275053, 36.3625557 ] } },
{ "type": "Feature", "properties": { "内容": "有限会社　ヨシフク【特定福祉用具販売】茨城県水戸市酒門町1437-3", "url": "https://www.kaigokensaku.mhlw.go.jp/08/index.php?action_kouhyou_detail_004_kani=true&JigyosyoCd=0870100526-00&ServiceCd=410&Type=search", "url2": null }, "geometry": { "type": "Point", "coordinates": [ 140.492281199999979, 36.3416392 ] } },
{ "type": "Feature", "properties": { "内容": "株式会社　キガ　水戸営業所【特定福祉用具販売】茨城県水戸市住吉町２３０－８", "url": "https://www.kaigokensaku.mhlw.go.jp/08/index.php?action_kouhyou_detail_004_kani=true&JigyosyoCd=0870102423-00&ServiceCd=410&Type=search", "url2": "http://www.kiga.co.jp" }, "geometry": { "type": "Point", "coordinates": [ 140.469911, 36.3357231 ] } },
{ "type": "Feature", "properties": { "内容": "ライフ緑岡【特定福祉用具販売】水戸市見川町1820-17", "url": "https://www.kaigokensaku.mhlw.go.jp/08/index.php?action_kouhyou_detail_004_kani=true&JigyosyoCd=0870101219-00&ServiceCd=410&Type=search", "url2": "http://www.shinaikai.or.jp" }, "geometry": { "type": "Point", "coordinates": [ 140.4361462, 36.357066 ] } },
{ "type": "Feature", "properties": { "内容": "株式会社ミッキーズ【特定福祉用具販売】茨城県水戸市見川2-76-4", "url": "https://www.kaigokensaku.mhlw.go.jp/08/index.php?action_kouhyou_detail_004_kani=true&JigyosyoCd=0870106978-00&ServiceCd=410&Type=search", "url2": "mickeys-kaigo.jo" }, "geometry": { "type": "Point", "coordinates": [ 140.440971, 36.3733456 ] } },
{ "type": "Feature", "properties": { "内容": "ソネット水戸【特定福祉用具販売】茨城県水戸市白梅4-1-35", "url": "https://www.kaigokensaku.mhlw.go.jp/08/index.php?action_kouhyou_detail_004_kani=true&JigyosyoCd=0870106119-00&ServiceCd=410&Type=search", "url2": "http://www.sonnette.biz/" }, "geometry": { "type": "Point", "coordinates": [ 140.484634599999907, 36.3643863 ] } },
{ "type": "Feature", "properties": { "内容": "有限会社　ケアショップケーアンドエム【特定福祉用具販売】茨城県水戸市元吉田町１５９６－１", "url": "https://www.kaigokensaku.mhlw.go.jp/08/index.php?action_kouhyou_detail_004_kani=true&JigyosyoCd=0870101201-00&ServiceCd=410&Type=search", "url2": null }, "geometry": { "type": "Point", "coordinates": [ 140.479104499999949, 36.3507796 ] } },
{ "type": "Feature", "properties": { "内容": "ダスキン　ヘルスレント水戸ステーション【特定福祉用具販売】茨城県水戸市元吉田町1028-3", "url": "https://www.kaigokensaku.mhlw.go.jp/08/index.php?action_kouhyou_detail_004_kani=true&JigyosyoCd=0870101508-00&ServiceCd=410&Type=search", "url2": "http://www.kasite.net" }, "geometry": { "type": "Point", "coordinates": [ 140.464523699451263, 36.347144380353896 ] } },
{ "type": "Feature", "properties": { "内容": "株式会社　ロングライフ【特定福祉用具販売】茨城県水戸市谷津町細田1-8", "url": "https://www.kaigokensaku.mhlw.go.jp/08/index.php?action_kouhyou_detail_004_kani=true&JigyosyoCd=0870101490-00&ServiceCd=410&Type=search", "url2": "http://www.longlife.co.jp" }, "geometry": { "type": "Point", "coordinates": [ 140.362412899999981, 36.4125369 ] } },
{ "type": "Feature", "properties": { "内容": "株式会社リフォーム・ケア【特定福祉用具販売】茨城県水戸市元吉田町282-1", "url": "https://www.kaigokensaku.mhlw.go.jp/08/index.php?action_kouhyou_detail_004_kani=true&JigyosyoCd=0870107125-00&ServiceCd=410&Type=search", "url2": "http://www.reform-care.co.jp" }, "geometry": { "type": "Point", "coordinates": [ 140.47482, 36.3546746 ] } },
{ "type": "Feature", "properties": { "内容": "かすみウェルフェアサービス　水戸営業所【特定福祉用具販売】茨城県水戸市酒門町1828ドミールサカドA棟", "url": "https://www.kaigokensaku.mhlw.go.jp/08/index.php?action_kouhyou_detail_004_kani=true&JigyosyoCd=0870107067-00&ServiceCd=410&Type=search", "url2": null }, "geometry": { "type": "Point", "coordinates": [ 140.483305300000012, 36.3453353 ] } },
{ "type": "Feature", "properties": { "内容": "有限会社　ロイエル商会【特定福祉用具販売】茨城県水戸市平須町　1828-254", "url": "https://www.kaigokensaku.mhlw.go.jp/08/index.php?action_kouhyou_detail_004_kani=true&JigyosyoCd=0870100450-00&ServiceCd=410&Type=search", "url2": "www.royel.co.jp" }, "geometry": { "type": "Point", "coordinates": [ 140.440863799999988, 36.332143 ] } },
{ "type": "Feature", "properties": { "内容": "株式会社ミカ【特定福祉用具販売】茨城県水戸市河和田町3330-10", "url": "https://www.kaigokensaku.mhlw.go.jp/08/index.php?action_kouhyou_detail_004_kani=true&JigyosyoCd=0870100252-00&ServiceCd=410&Type=search", "url2": "https://www.mika-k.co.jp/" }, "geometry": { "type": "Point", "coordinates": [ 140.402635499999974, 36.3672761 ] } },
{ "type": "Feature", "properties": { "内容": "株式会社日本ドライ　介護用品のスマイル水戸営業所【特定福祉用具販売】茨城県水戸市見川町　2131-318", "url": "https://www.kaigokensaku.mhlw.go.jp/08/index.php?action_kouhyou_detail_004_kani=true&JigyosyoCd=0870101086-00&ServiceCd=410&Type=search", "url2": "https://jp-dry.co.jp/" }, "geometry": { "type": "Point", "coordinates": [ 140.42427269999996, 36.3596446 ] } },
{ "type": "Feature", "properties": { "内容": "ケアショップPOM【特定福祉用具販売】茨城県水戸市笠原町147-3山野コーポG棟407", "url": "https://www.kaigokensaku.mhlw.go.jp/08/index.php?action_kouhyou_detail_004_kani=true&JigyosyoCd=0870107042-00&ServiceCd=410&Type=search", "url2": null }, "geometry": { "type": "Point", "coordinates": [ 140.457070499999986, 36.3450017 ] } },
{ "type": "Feature", "properties": { "内容": "日立福祉レンタルサービス【特定福祉用具販売】茨城県日立市久慈町7丁目26番18号", "url": "https://www.kaigokensaku.mhlw.go.jp/08/index.php?action_kouhyou_detail_004_kani=true&JigyosyoCd=0870202611-00&ServiceCd=410&Type=search", "url2": null }, "geometry": { "type": "Point", "coordinates": [ 140.607166, 36.5119132 ] } },
{ "type": "Feature", "properties": { "内容": "株式会社　ヒューマンサポートライフ　日立介護ステーション【特定福祉用具販売】茨城県日立市会瀬町2-21-11", "url": "https://www.kaigokensaku.mhlw.go.jp/08/index.php?action_kouhyou_detail_004_kani=true&JigyosyoCd=0870200011-00&ServiceCd=410&Type=search", "url2": "https://www.h-l-h.jp/" }, "geometry": { "type": "Point", "coordinates": [ 140.648385015662569, 36.578589044777488 ] } },
{ "type": "Feature", "properties": { "内容": "あさがおケアサービス【特定福祉用具販売】千石町２－４－６", "url": "https://www.kaigokensaku.mhlw.go.jp/08/index.php?action_kouhyou_detail_004_kani=true&JigyosyoCd=0870201118-00&ServiceCd=410&Type=search", "url2": "https://www.oyama-hitachi.co.jp/service/asagao-care-service" }, "geometry": { "type": "Point", "coordinates": [ 140.627829199999951, 36.5545863 ] } },
{ "type": "Feature", "properties": { "内容": "株式会社日本ドライ　介護用品のスマイル日立営業所【特定福祉用具販売】茨城県日立市十王町伊師3308-1", "url": "https://www.kaigokensaku.mhlw.go.jp/08/index.php?action_kouhyou_detail_004_kani=true&JigyosyoCd=0870201621-00&ServiceCd=410&Type=search", "url2": "https://jp-dry.co.jp/" }, "geometry": { "type": "Point", "coordinates": [ 140.700801, 36.6773409 ] } },
{ "type": "Feature", "properties": { "内容": "福祉用具事業所　架橋【特定福祉用具販売】茨城県日立市田尻町7-2-13橋の作八棟", "url": "https://www.kaigokensaku.mhlw.go.jp/08/index.php?action_kouhyou_detail_004_kani=true&JigyosyoCd=0870202744-00&ServiceCd=410&Type=search", "url2": null }, "geometry": { "type": "Point", "coordinates": [ 140.670859693436796, 36.624959166740481 ] } },
{ "type": "Feature", "properties": { "内容": "株式会社　ライフメイト【特定福祉用具販売】茨城県日立市多賀町3-5-13黒澤店舗2号室", "url": "https://www.kaigokensaku.mhlw.go.jp/08/index.php?action_kouhyou_detail_004_kani=true&JigyosyoCd=0870202165-00&ServiceCd=410&Type=search", "url2": null }, "geometry": { "type": "Point", "coordinates": [ 140.634850699999987, 36.5582667 ] } },
{ "type": "Feature", "properties": { "内容": "株式会社　土浦メディカル【特定福祉用具販売】茨城県土浦市中高津３丁目１４番３号", "url": "https://www.kaigokensaku.mhlw.go.jp/08/index.php?action_kouhyou_detail_004_kani=true&JigyosyoCd=0870300266-00&ServiceCd=410&Type=search", "url2": null }, "geometry": { "type": "Point", "coordinates": [ 140.1775082, 36.0672138 ] } },
{ "type": "Feature", "properties": { "内容": "アールイーライフ福祉用具相談所【特定福祉用具販売】土浦市永国1059-1永井ビル102", "url": "https://www.kaigokensaku.mhlw.go.jp/08/index.php?action_kouhyou_detail_004_kani=true&JigyosyoCd=0870301926-00&ServiceCd=410&Type=search", "url2": null }, "geometry": { "type": "Point", "coordinates": [ 140.182432227919776, 36.065474487103565 ] } },
{ "type": "Feature", "properties": { "内容": "東京インテリア　MS　土浦【特定福祉用具販売】土浦市中村南6-5-31中村倉庫A101", "url": "https://www.kaigokensaku.mhlw.go.jp/08/index.php?action_kouhyou_detail_004_kani=true&JigyosyoCd=0870302080-00&ServiceCd=410&Type=search", "url2": "http://www.tokyointerior.co.jp/" }, "geometry": { "type": "Point", "coordinates": [ 140.159362102736623, 36.037891933218816 ] } },
{ "type": "Feature", "properties": { "内容": "(有)常総システム【特定福祉用具販売】茨城県土浦市神立中央3-11-6", "url": "https://www.kaigokensaku.mhlw.go.jp/08/index.php?action_kouhyou_detail_004_kani=true&JigyosyoCd=0870301454-00&ServiceCd=410&Type=search", "url2": null }, "geometry": { "type": "Point", "coordinates": [ 140.239186055819744, 36.121886456938633 ] } },
{ "type": "Feature", "properties": { "内容": "株式会社　栗原医療器械店　土浦支店【特定福祉用具販売】茨城県土浦市若松町1番地21号", "url": "https://www.kaigokensaku.mhlw.go.jp/08/index.php?action_kouhyou_detail_004_kani=true&JigyosyoCd=0870301751-00&ServiceCd=410&Type=search", "url2": "https://www.kuribara.co,jp" }, "geometry": { "type": "Point", "coordinates": [ 140.2019765, 36.1062209 ] } },
{ "type": "Feature", "properties": { "内容": "福祉用具ふるさと【特定福祉用具販売】茨城県土浦市荒川沖5-44-101", "url": "https://www.kaigokensaku.mhlw.go.jp/08/index.php?action_kouhyou_detail_004_kani=true&JigyosyoCd=0870303278-00&ServiceCd=410&Type=search", "url2": "https://sites.google.com/view/furusatokaigo/%E3%83%9B%E3%83%BC%E3%83%A0" }, "geometry": { "type": "Point", "coordinates": [ 140.1597682, 36.0224054 ] } },
{ "type": "Feature", "properties": { "内容": "株式会社福祉用具サービスもんちゃん【特定福祉用具販売】茨城県土浦市おおつ野８－１５－２９", "url": "https://www.kaigokensaku.mhlw.go.jp/08/index.php?action_kouhyou_detail_004_kani=true&JigyosyoCd=0870302650-00&ServiceCd=410&Type=search", "url2": "https://www.welfare-tech-monchan.com/" }, "geometry": { "type": "Point", "coordinates": [ 140.252887, 36.0900158 ] } },
{ "type": "Feature", "properties": { "内容": "株式会社　ロングライフ　土浦営業所【特定福祉用具販売】茨城県土浦市沖新田40-5", "url": "https://www.kaigokensaku.mhlw.go.jp/08/index.php?action_kouhyou_detail_004_kani=true&JigyosyoCd=0870300472-00&ServiceCd=410&Type=search", "url2": "http://www.longlife.co.jp" }, "geometry": { "type": "Point", "coordinates": [ 140.161223699999937, 36.0197587 ] } },
{ "type": "Feature", "properties": { "内容": "株式会社　日本ドライ　介護用品のスマイル　土浦営業所【特定福祉用具販売】茨城県土浦市国分町7-5", "url": "https://www.kaigokensaku.mhlw.go.jp/08/index.php?action_kouhyou_detail_004_kani=true&JigyosyoCd=0870301173-00&ServiceCd=410&Type=search", "url2": "https://jp-dry.co.jp/" }, "geometry": { "type": "Point", "coordinates": [ 140.1890022, 36.0660925 ] } },
{ "type": "Feature", "properties": { "内容": "株式会社　三和サクセス【特定福祉用具販売】茨城県古河市仁連1493-25", "url": "https://www.kaigokensaku.mhlw.go.jp/08/index.php?action_kouhyou_detail_004_kani=true&JigyosyoCd=0874300411-00&ServiceCd=410&Type=search", "url2": null }, "geometry": { "type": "Point", "coordinates": [ 139.811799139675202, 36.191909994727006 ] } },
{ "type": "Feature", "properties": { "内容": "ウエルシア介護サービス古河【特定福祉用具販売】茨城県古河市鴻巣956-1", "url": "https://www.kaigokensaku.mhlw.go.jp/08/index.php?action_kouhyou_detail_004_kani=true&JigyosyoCd=0870401825-00&ServiceCd=410&Type=search", "url2": "https://www.welcia-kaigo.co.jp/" }, "geometry": { "type": "Point", "coordinates": [ 139.7062154, 36.1764203 ] } },
{ "type": "Feature", "properties": { "内容": "ケアショップあおぞら【特定福祉用具販売】茨城県古河市小堤2020-18", "url": "https://www.kaigokensaku.mhlw.go.jp/08/index.php?action_kouhyou_detail_004_kani=true&JigyosyoCd=0870401643-00&ServiceCd=410&Type=search", "url2": null }, "geometry": { "type": "Point", "coordinates": [ 139.7537958, 36.20770310000001 ] } },
{ "type": "Feature", "properties": { "内容": "ウェルケアシステム株式会社【特定福祉用具販売】茨城県古河市上辺見2826-2", "url": "https://www.kaigokensaku.mhlw.go.jp/08/index.php?action_kouhyou_detail_004_kani=true&JigyosyoCd=0870400223-00&ServiceCd=410&Type=search", "url2": "https://www.wellcare-system.com" }, "geometry": { "type": "Point", "coordinates": [ 139.7337686, 36.1836789 ] } },
{ "type": "Feature", "properties": { "内容": "ケアサポートかいじ【特定福祉用具販売】茨城県石岡市貝地２－１０－３９", "url": "https://www.kaigokensaku.mhlw.go.jp/08/index.php?action_kouhyou_detail_004_kani=true&JigyosyoCd=0870500709-00&ServiceCd=410&Type=search", "url2": "http://nf-support.com" }, "geometry": { "type": "Point", "coordinates": [ 140.282542799999987, 36.1828294 ] } },
{ "type": "Feature", "properties": { "内容": "株式会社ダーナ【特定福祉用具販売】茨城県石岡市山崎1693", "url": "https://www.kaigokensaku.mhlw.go.jp/08/index.php?action_kouhyou_detail_004_kani=true&JigyosyoCd=0870501368-00&ServiceCd=410&Type=search", "url2": null }, "geometry": { "type": "Point", "coordinates": [ 140.249653099999989, 36.2614034 ] } },
{ "type": "Feature", "properties": { "内容": "株式会社　茨城福祉サービス【特定福祉用具販売】茨城県石岡市東光台４－９－３", "url": "https://www.kaigokensaku.mhlw.go.jp/08/index.php?action_kouhyou_detail_004_kani=true&JigyosyoCd=0870500022-00&ServiceCd=410&Type=search", "url2": null }, "geometry": { "type": "Point", "coordinates": [ 140.304451400000062, 36.1838549 ] } },
{ "type": "Feature", "properties": { "内容": "ダスキンヘルスレント石岡ステーション【特定福祉用具販売】茨城県石岡市石岡13462-56", "url": "https://www.kaigokensaku.mhlw.go.jp/08/index.php?action_kouhyou_detail_004_kani=true&JigyosyoCd=0870500600-00&ServiceCd=410&Type=search", "url2": "http://d-yamadaya.com" }, "geometry": { "type": "Point", "coordinates": [ 140.2949226, 36.1995351 ] } },
{ "type": "Feature", "properties": { "内容": "パナソニックエイジフリーショップ結城【特定福祉用具販売】茨城県結城市小田林2098", "url": "https://www.kaigokensaku.mhlw.go.jp/08/index.php?action_kouhyou_detail_004_kani=true&JigyosyoCd=0870700234-00&ServiceCd=410&Type=search", "url2": "http://www.kaigo-yuki.jp/" }, "geometry": { "type": "Point", "coordinates": [ 139.849674300000061, 36.2982532 ] } },
{ "type": "Feature", "properties": { "内容": "いちえレンタル【特定福祉用具販売】茨城県結城市上成２７番地２２", "url": "https://www.kaigokensaku.mhlw.go.jp/08/index.php?action_kouhyou_detail_004_kani=true&JigyosyoCd=0870700812-00&ServiceCd=410&Type=search", "url2": null }, "geometry": { "type": "Point", "coordinates": [ 139.8423783, 36.2740689 ] } },
{ "type": "Feature", "properties": { "内容": "株式会社酒井家具　福祉用具貸与事業部【特定福祉用具販売】愛戸町59", "url": "https://www.kaigokensaku.mhlw.go.jp/08/index.php?action_kouhyou_detail_004_kani=true&JigyosyoCd=0870800570-00&ServiceCd=410&Type=search", "url2": "http://www.2780.jp/" }, "geometry": { "type": "Point", "coordinates": [ 140.1901291, 35.9130437 ] } },
{ "type": "Feature", "properties": { "内容": "テクノエイド　ルピナス【特定福祉用具販売】茨城県龍ケ崎市南が丘2-6-3", "url": "https://www.kaigokensaku.mhlw.go.jp/08/index.php?action_kouhyou_detail_004_kani=true&JigyosyoCd=0870801396-00&ServiceCd=410&Type=search", "url2": null }, "geometry": { "type": "Point", "coordinates": [ 140.1431648, 35.8815681 ] } },
{ "type": "Feature", "properties": { "内容": "ナチュラルライフサポート【特定福祉用具販売】茨城県龍ケ崎市若柴町2967-5中島ビル　103", "url": "https://www.kaigokensaku.mhlw.go.jp/08/index.php?action_kouhyou_detail_004_kani=true&JigyosyoCd=0870800299-00&ServiceCd=410&Type=search", "url2": "http://www.flora-kaigo.co.jp/" }, "geometry": { "type": "Point", "coordinates": [ 140.145644597344983, 35.926134526070193 ] } },
{ "type": "Feature", "properties": { "内容": "株式会社　豊光レンタル【特定福祉用具販売】茨城県下妻市樋橋201-1", "url": "https://www.kaigokensaku.mhlw.go.jp/08/index.php?action_kouhyou_detail_004_kani=true&JigyosyoCd=0871001053-00&ServiceCd=410&Type=search", "url2": null }, "geometry": { "type": "Point", "coordinates": [ 140.001766399999951, 36.1658495 ] } },
{ "type": "Feature", "properties": { "内容": "有限会社さくら介護センター【特定福祉用具販売】茨城県下妻市大串851-1", "url": "https://www.kaigokensaku.mhlw.go.jp/08/index.php?action_kouhyou_detail_004_kani=true&JigyosyoCd=0871000154-00&ServiceCd=410&Type=search", "url2": null }, "geometry": { "type": "Point", "coordinates": [ 139.97461659781834, 36.199504300937889 ] } },
{ "type": "Feature", "properties": { "内容": "有限会社　健友リース【特定福祉用具販売】茨城県常総市大房715-2", "url": "https://www.kaigokensaku.mhlw.go.jp/08/index.php?action_kouhyou_detail_004_kani=true&JigyosyoCd=0874200264-00&ServiceCd=410&Type=search", "url2": "https://kenyulease.wixsite.com/home" }, "geometry": { "type": "Point", "coordinates": [ 139.971377, 36.1030089 ] } },
{ "type": "Feature", "properties": { "内容": "介護支援センターハートランド【特定福祉用具販売】茨城県常陸太田市馬場町86番地", "url": "https://www.kaigokensaku.mhlw.go.jp/08/index.php?action_kouhyou_detail_004_kani=true&JigyosyoCd=0871200119-00&ServiceCd=410&Type=search", "url2": "http://www.heart-land.ne.jp" }, "geometry": { "type": "Point", "coordinates": [ 140.530091, 36.5503786 ] } },
{ "type": "Feature", "properties": { "内容": "ダスキンヘルスレントひたちステーション【特定福祉用具販売】茨城県常陸太田市寿町537-7", "url": "https://www.kaigokensaku.mhlw.go.jp/08/index.php?action_kouhyou_detail_004_kani=true&JigyosyoCd=0871200952-00&ServiceCd=410&Type=search", "url2": "https://healthrent.duskin.jp/" }, "geometry": { "type": "Point", "coordinates": [ 140.520472700000028, 36.5401186 ] } },
{ "type": "Feature", "properties": { "内容": "有限会社　愛ぷらす【特定福祉用具販売】小目町160-1", "url": "https://www.kaigokensaku.mhlw.go.jp/08/index.php?action_kouhyou_detail_004_kani=true&JigyosyoCd=0871200960-00&ServiceCd=410&Type=search", "url2": null }, "geometry": { "type": "Point", "coordinates": [ 140.56540050000001, 36.5246616 ] } },
{ "type": "Feature", "properties": { "内容": "まごちゃんレンタル【特定福祉用具販売】茨城県高萩市高萩795-4", "url": "https://www.kaigokensaku.mhlw.go.jp/08/index.php?action_kouhyou_detail_004_kani=true&JigyosyoCd=0871400537-00&ServiceCd=410&Type=search", "url2": null }, "geometry": { "type": "Point", "coordinates": [ 140.6925314, 36.7232309 ] } },
{ "type": "Feature", "properties": { "内容": "パナソニックエイジフリーショップふれあい取手【特定福祉用具販売】茨城県取手市戸頭８－７－３", "url": "https://www.kaigokensaku.mhlw.go.jp/08/index.php?action_kouhyou_detail_004_kani=true&JigyosyoCd=0871700696-00&ServiceCd=410&Type=search", "url2": null }, "geometry": { "type": "Point", "coordinates": [ 140.009341799999987, 35.9243235 ] } },
{ "type": "Feature", "properties": { "内容": "合同会社福祉用具アシスト【特定福祉用具販売】茨城県取手市白山3－8－12", "url": "https://www.kaigokensaku.mhlw.go.jp/08/index.php?action_kouhyou_detail_004_kani=true&JigyosyoCd=0871701405-00&ServiceCd=410&Type=search", "url2": null }, "geometry": { "type": "Point", "coordinates": [ 140.061273044590024, 35.904132180878022 ] } },
{ "type": "Feature", "properties": { "内容": "春さんさん館【特定福祉用具販売】茨城県牛久市南1-4-20", "url": "https://www.kaigokensaku.mhlw.go.jp/08/index.php?action_kouhyou_detail_004_kani=true&JigyosyoCd=0871900247-00&ServiceCd=410&Type=search", "url2": null }, "geometry": { "type": "Point", "coordinates": [ 140.142077500000028, 35.9733425 ] } },
{ "type": "Feature", "properties": { "内容": "介護ショップ　愛・すまいる【特定福祉用具販売】茨城県牛久市南4-45-45", "url": "https://www.kaigokensaku.mhlw.go.jp/08/index.php?action_kouhyou_detail_004_kani=true&JigyosyoCd=0871901070-00&ServiceCd=410&Type=search", "url2": "https://www.mitojuken.com" }, "geometry": { "type": "Point", "coordinates": [ 140.1445998, 35.965112 ] } },
{ "type": "Feature", "properties": { "内容": "有限会社フジタデンキ【特定福祉用具販売】茨城県牛久市牛久町２５９－２", "url": "https://www.kaigokensaku.mhlw.go.jp/08/index.php?action_kouhyou_detail_004_kani=true&JigyosyoCd=0871901088-00&ServiceCd=410&Type=search", "url2": null }, "geometry": { "type": "Point", "coordinates": [ 140.1395772, 35.973519 ] } },
{ "type": "Feature", "properties": { "内容": "アロハ・ケア　牛久営業所【特定福祉用具販売】茨城県牛久市中央５－１３－１５ALOHAビル　1階", "url": "https://www.kaigokensaku.mhlw.go.jp/08/index.php?action_kouhyou_detail_004_kani=true&JigyosyoCd=0871901302-00&ServiceCd=410&Type=search", "url2": "http://hp.kaipoke.biz/td9/" }, "geometry": { "type": "Point", "coordinates": [ 140.141736118939349, 35.977695659946754 ] } },
{ "type": "Feature", "properties": { "内容": "peace福祉用具【特定福祉用具販売】茨城県牛久市田宮町２４８", "url": "https://www.kaigokensaku.mhlw.go.jp/08/index.php?action_kouhyou_detail_004_kani=true&JigyosyoCd=0871901591-00&ServiceCd=410&Type=search", "url2": "https://otera-jimu.com/company/" }, "geometry": { "type": "Point", "coordinates": [ 140.1381433, 35.9804718 ] } },
{ "type": "Feature", "properties": { "内容": "株式会社　樹里　牛久営業所【特定福祉用具販売】牛久町５５２－３TOAハイツ３０６号", "url": "https://www.kaigokensaku.mhlw.go.jp/08/index.php?action_kouhyou_detail_004_kani=true&JigyosyoCd=0871900924-00&ServiceCd=410&Type=search", "url2": "http://www.juri.co.jp" }, "geometry": { "type": "Point", "coordinates": [ 140.139339100000029, 35.9680542 ] } },
{ "type": "Feature", "properties": { "内容": "パナソニックエイジフリーショップつくば【特定福祉用具販売】茨城県つくば市上東光台4-19-7", "url": "https://www.kaigokensaku.mhlw.go.jp/08/index.php?action_kouhyou_detail_004_kani=true&JigyosyoCd=0872001615-00&ServiceCd=410&Type=search", "url2": "http://www.age-t.jp" }, "geometry": { "type": "Point", "coordinates": [ 140.067101435216955, 36.092781174999509 ] } },
{ "type": "Feature", "properties": { "内容": "株式会社幸和義肢研究所【特定福祉用具販売】茨城県つくば市大白硲３４１－１", "url": "https://www.kaigokensaku.mhlw.go.jp/08/index.php?action_kouhyou_detail_004_kani=true&JigyosyoCd=0872000443-00&ServiceCd=410&Type=search", "url2": "http://www.kowagishi.com" }, "geometry": { "type": "Point", "coordinates": [ 140.073135, 36.0512283 ] } },
{ "type": "Feature", "properties": { "内容": "（株式会社）ランド・プラン【特定福祉用具販売】茨城県つくば市吾妻３－７－１", "url": "https://www.kaigokensaku.mhlw.go.jp/08/index.php?action_kouhyou_detail_004_kani=true&JigyosyoCd=0872001920-00&ServiceCd=410&Type=search", "url2": null }, "geometry": { "type": "Point", "coordinates": [ 140.110517499999986, 36.0886076 ] } },
{ "type": "Feature", "properties": { "内容": "福祉用具アドニス【特定福祉用具販売】筑穂3-5-3", "url": "https://www.kaigokensaku.mhlw.go.jp/08/index.php?action_kouhyou_detail_004_kani=true&JigyosyoCd=0872003280-00&ServiceCd=410&Type=search", "url2": "https://adonis0000.amebaownd.com/" }, "geometry": { "type": "Point", "coordinates": [ 140.0780556, 36.1299475 ] } },
{ "type": "Feature", "properties": { "内容": "ダスキンヘルスレント茨城南ステーション【特定福祉用具販売】茨城県つくば市栗原２３１３", "url": "https://www.kaigokensaku.mhlw.go.jp/08/index.php?action_kouhyou_detail_004_kani=true&JigyosyoCd=0870300951-00&ServiceCd=410&Type=search", "url2": null }, "geometry": { "type": "Point", "coordinates": [ 140.115990499999953, 36.1259315 ] } },
{ "type": "Feature", "properties": { "内容": "ウエルシア介護サービスつくば【特定福祉用具販売】茨城県つくば市豊里の杜2-1-1", "url": "https://www.kaigokensaku.mhlw.go.jp/08/index.php?action_kouhyou_detail_004_kani=true&JigyosyoCd=0872000450-00&ServiceCd=410&Type=search", "url2": "https://www.welcia-kaigo.co.jp/" }, "geometry": { "type": "Point", "coordinates": [ 140.046602600000028, 36.100658 ] } },
{ "type": "Feature", "properties": { "内容": "あうるケア【特定福祉用具販売】茨城県つくば市栄332-1ケイハウス101", "url": "https://www.kaigokensaku.mhlw.go.jp/08/index.php?action_kouhyou_detail_004_kani=true&JigyosyoCd=0872003371-00&ServiceCd=410&Type=search", "url2": null }, "geometry": { "type": "Point", "coordinates": [ 140.142255555819702, 36.108157558009275 ] } },
{ "type": "Feature", "properties": { "内容": "株式会社フロンティア　つくば営業所【特定福祉用具販売】茨城県つくば市東新井20-10", "url": "https://www.kaigokensaku.mhlw.go.jp/08/index.php?action_kouhyou_detail_004_kani=true&JigyosyoCd=0872003348-00&ServiceCd=410&Type=search", "url2": "https://www.frontier-ph.com/" }, "geometry": { "type": "Point", "coordinates": [ 140.111816299999987, 36.0753712 ] } },
{ "type": "Feature", "properties": { "内容": "さくら薬局　福祉用具センター【特定福祉用具販売】茨城県つくば市大角豆1741-2", "url": "https://www.kaigokensaku.mhlw.go.jp/08/index.php?action_kouhyou_detail_004_kani=true&JigyosyoCd=0872001672-00&ServiceCd=410&Type=search", "url2": "http://www.tukuba-sakura.com" }, "geometry": { "type": "Point", "coordinates": [ 140.138313499999981, 36.0678185 ] } },
{ "type": "Feature", "properties": { "内容": "ウエルシア介護サービスひたちなか【特定福祉用具販売】茨城県ひたちなか市中根3361-1", "url": "https://www.kaigokensaku.mhlw.go.jp/08/index.php?action_kouhyou_detail_004_kani=true&JigyosyoCd=0872100318-00&ServiceCd=410&Type=search", "url2": "https://www.welcia-kaigo.co.jp/" }, "geometry": { "type": "Point", "coordinates": [ 140.561845400000067, 36.3934434 ] } },
{ "type": "Feature", "properties": { "内容": "株式会社　ウチダデンキ　介護事業部【特定福祉用具販売】馬渡２７６８－４", "url": "https://www.kaigokensaku.mhlw.go.jp/08/index.php?action_kouhyou_detail_004_kani=true&JigyosyoCd=0872101910-00&ServiceCd=410&Type=search", "url2": "http://www.hp-s.cc/uchida/" }, "geometry": { "type": "Point", "coordinates": [ 140.565527553997754, 36.399211306273855 ] } },
{ "type": "Feature", "properties": { "内容": "株式会社ケアフロンティア【特定福祉用具販売】茨城県ひたちなか市市毛1114", "url": "https://www.kaigokensaku.mhlw.go.jp/08/index.php?action_kouhyou_detail_004_kani=true&JigyosyoCd=0872101704-00&ServiceCd=410&Type=search", "url2": null }, "geometry": { "type": "Point", "coordinates": [ 140.502947299999988, 36.3958347 ] } },
{ "type": "Feature", "properties": { "内容": "株式会社日本ドライ　介護用品のスマイルひたちなか営業所【特定福祉用具販売】茨城県ひたちなか市市毛1154-1", "url": "https://www.kaigokensaku.mhlw.go.jp/08/index.php?action_kouhyou_detail_004_kani=true&JigyosyoCd=0872102397-00&ServiceCd=410&Type=search", "url2": "http://www.jp-dry.co.jp" }, "geometry": { "type": "Point", "coordinates": [ 140.5042206, 36.3988247 ] } },
{ "type": "Feature", "properties": { "内容": "ウエルシア介護サービス鹿嶋【特定福祉用具販売】茨城県鹿嶋市宮中字東山289-1", "url": "https://www.kaigokensaku.mhlw.go.jp/08/index.php?action_kouhyou_detail_004_kani=true&JigyosyoCd=0872201108-00&ServiceCd=410&Type=search", "url2": "https://www.welcia-kaigo.co.jp/" }, "geometry": { "type": "Point", "coordinates": [ 140.6288069, 35.9638694 ] } },
{ "type": "Feature", "properties": { "内容": "住まいくらぶ【特定福祉用具販売】茨城県守谷市立沢727-7", "url": "https://www.kaigokensaku.mhlw.go.jp/08/index.php?action_kouhyou_detail_004_kani=true&JigyosyoCd=0872400999-00&ServiceCd=410&Type=search", "url2": "https://sumai-club.business.site/" }, "geometry": { "type": "Point", "coordinates": [ 139.97124212698364, 35.95923 ] } },
{ "type": "Feature", "properties": { "内容": "クォーターハーフ株式会社【特定福祉用具販売】茨城県常陸大宮市泉531-7", "url": "https://www.kaigokensaku.mhlw.go.jp/08/index.php?action_kouhyou_detail_004_kani=true&JigyosyoCd=0872500400-00&ServiceCd=410&Type=search", "url2": "http://ｗｗｗ.ｑ-half.net/" }, "geometry": { "type": "Point", "coordinates": [ 140.424933499999952, 36.5298841 ] } },
{ "type": "Feature", "properties": { "内容": "有限会社いばらき総合介護サービス【特定福祉用具販売】茨城県常陸大宮市上町357-4", "url": "https://www.kaigokensaku.mhlw.go.jp/08/index.php?action_kouhyou_detail_004_kani=true&JigyosyoCd=0873300800-00&ServiceCd=410&Type=search", "url2": "http://www.hakujinkai.com" }, "geometry": { "type": "Point", "coordinates": [ 140.413880900000038, 36.5498301 ] } },
{ "type": "Feature", "properties": { "内容": "ナザレ園福祉用具貸与事業所【特定福祉用具販売】茨城県那珂市中里365番地12", "url": "https://www.kaigokensaku.mhlw.go.jp/08/index.php?action_kouhyou_detail_004_kani=true&JigyosyoCd=0873300719-00&ServiceCd=410&Type=search", "url2": "nazareen@nazareen.or.jp" }, "geometry": { "type": "Point", "coordinates": [ 140.456263300000046, 36.4843146 ] } },
{ "type": "Feature", "properties": { "内容": "ケアサポートなか【特定福祉用具販売】茨城県那珂市菅谷509-2", "url": "https://www.kaigokensaku.mhlw.go.jp/08/index.php?action_kouhyou_detail_004_kani=true&JigyosyoCd=0873300404-00&ServiceCd=410&Type=search", "url2": null }, "geometry": { "type": "Point", "coordinates": [ 140.4947422, 36.4613635 ] } },
{ "type": "Feature", "properties": { "内容": "介護用品Plus【特定福祉用具販売】菅谷2312-4ﾌﾚﾝｽﾞﾊｳｽ菅谷東H棟", "url": "https://www.kaigokensaku.mhlw.go.jp/08/index.php?action_kouhyou_detail_004_kani=true&JigyosyoCd=0872600457-00&ServiceCd=410&Type=search", "url2": "https://www.gradation-plus.jp/" }, "geometry": { "type": "Point", "coordinates": [ 140.502209599999986, 36.443721 ] } },
{ "type": "Feature", "properties": { "内容": "株式会社　ロングライフ那珂営業所【特定福祉用具販売】茨城県那珂市菅谷5487-4", "url": "https://www.kaigokensaku.mhlw.go.jp/08/index.php?action_kouhyou_detail_004_kani=true&JigyosyoCd=0873300131-00&ServiceCd=410&Type=search", "url2": "http://www.longlife.co.jp" }, "geometry": { "type": "Point", "coordinates": [ 140.4997942, 36.4577025 ] } },
{ "type": "Feature", "properties": { "内容": "株式会社須藤【特定福祉用具販売】筑西市大字玉戸２１２０番地", "url": "https://www.kaigokensaku.mhlw.go.jp/08/index.php?action_kouhyou_detail_004_kani=true&JigyosyoCd=0870600137-00&ServiceCd=410&Type=search", "url2": null }, "geometry": { "type": "Point", "coordinates": [ 139.942977899999988, 36.2919484 ] } },
{ "type": "Feature", "properties": { "内容": "株式会社大島輪業【特定福祉用具販売】茨城県筑西市二木成924", "url": "https://www.kaigokensaku.mhlw.go.jp/08/index.php?action_kouhyou_detail_004_kani=true&JigyosyoCd=0870600335-00&ServiceCd=410&Type=search", "url2": "http://www.ooshima-r.jp/pc/" }, "geometry": { "type": "Point", "coordinates": [ 139.975379800000042, 36.3002336 ] } },
{ "type": "Feature", "properties": { "内容": "昊栄レンタルサービス【特定福祉用具販売】筑西市門井1675-1", "url": "https://www.kaigokensaku.mhlw.go.jp/08/index.php?action_kouhyou_detail_004_kani=true&JigyosyoCd=0874100159-00&ServiceCd=410&Type=search", "url2": "http://www.kouei-lifes.co.jp" }, "geometry": { "type": "Point", "coordinates": [ 140.015671910358037, 36.328083972337609 ] } },
{ "type": "Feature", "properties": { "内容": "株式会社ロングライフ　筑西営業所【特定福祉用具販売】茨城県筑西市横塚61-1", "url": "https://www.kaigokensaku.mhlw.go.jp/08/index.php?action_kouhyou_detail_004_kani=true&JigyosyoCd=0872701164-00&ServiceCd=410&Type=search", "url2": "https://www.longlife.co.jp/" }, "geometry": { "type": "Point", "coordinates": [ 140.0083795, 36.3213674 ] } },
{ "type": "Feature", "properties": { "内容": "すまいる【特定福祉用具販売】茨城県坂東市逆井2708-3", "url": "https://www.kaigokensaku.mhlw.go.jp/08/index.php?action_kouhyou_detail_004_kani=true&JigyosyoCd=0872800545-00&ServiceCd=410&Type=search", "url2": "https://bih-smile.com/" }, "geometry": { "type": "Point", "coordinates": [ 139.8521786, 36.1336951 ] } },
{ "type": "Feature", "properties": { "内容": "ヤックスレンタルサービス県南【特定福祉用具販売】茨城県稲敷市角崎1672", "url": "https://www.kaigokensaku.mhlw.go.jp/08/index.php?action_kouhyou_detail_004_kani=true&JigyosyoCd=0872900535-00&ServiceCd=410&Type=search", "url2": null }, "geometry": { "type": "Point", "coordinates": [ 140.286642712781685, 35.905701291825437 ] } },
{ "type": "Feature", "properties": { "内容": "株式会社リードケア【特定福祉用具販売】茨城県稲敷市江戸崎甲934番地3江戸崎センタービル105", "url": "https://www.kaigokensaku.mhlw.go.jp/08/index.php?action_kouhyou_detail_004_kani=true&JigyosyoCd=0872900543-00&ServiceCd=410&Type=search", "url2": "https://www.lead-kaigo.com" }, "geometry": { "type": "Point", "coordinates": [ 140.3200368, 35.9578791 ] } },
{ "type": "Feature", "properties": { "内容": "合同会社　ケアリース【特定福祉用具販売】茨城県稲敷市柴崎字寄居下606-1", "url": "https://www.kaigokensaku.mhlw.go.jp/08/index.php?action_kouhyou_detail_004_kani=true&JigyosyoCd=0872900410-00&ServiceCd=410&Type=search", "url2": null }, "geometry": { "type": "Point", "coordinates": [ 140.30813381635096, 35.914524510094751 ] } },
{ "type": "Feature", "properties": { "内容": "まるふく介護保険サービス【特定福祉用具販売】茨城県かすみがうら市下稲吉2632-24", "url": "https://www.kaigokensaku.mhlw.go.jp/08/index.php?action_kouhyou_detail_004_kani=true&JigyosyoCd=0873000178-00&ServiceCd=410&Type=search", "url2": null }, "geometry": { "type": "Point", "coordinates": [ 140.230369500000052, 36.1273088 ] } },
{ "type": "Feature", "properties": { "内容": "株式会社カシマクオリティーライフ　息栖店【特定福祉用具販売】茨城県神栖市息栖2736-40", "url": "https://www.kaigokensaku.mhlw.go.jp/08/index.php?action_kouhyou_detail_004_kani=true&JigyosyoCd=0875201071-00&ServiceCd=410&Type=search", "url2": "http://www.kql.co.jp" }, "geometry": { "type": "Point", "coordinates": [ 140.622750200000013, 35.8959516 ] } },
{ "type": "Feature", "properties": { "内容": "株式会社カシマクオリティーライフ【特定福祉用具販売】神栖市土合本町1-8762-37", "url": "https://www.kaigokensaku.mhlw.go.jp/08/index.php?action_kouhyou_detail_004_kani=true&JigyosyoCd=0873600506-00&ServiceCd=410&Type=search", "url2": "http://www.kql.co.jp" }, "geometry": { "type": "Point", "coordinates": [ 140.782879505416673, 35.788936362571484 ] } },
{ "type": "Feature", "properties": { "内容": "株式会社日本ドライ　介護用品のスマイル神栖営業所【特定福祉用具販売】茨城県神栖市日川4073-1", "url": "https://www.kaigokensaku.mhlw.go.jp/08/index.php?action_kouhyou_detail_004_kani=true&JigyosyoCd=0875200974-00&ServiceCd=410&Type=search", "url2": "https://jp-dry.co.jp" }, "geometry": { "type": "Point", "coordinates": [ 140.6914399, 35.8611219 ] } },
{ "type": "Feature", "properties": { "内容": "かすみウェルフェアサービス【特定福祉用具販売】茨城県行方市矢幡1881-12", "url": "https://www.kaigokensaku.mhlw.go.jp/08/index.php?action_kouhyou_detail_004_kani=true&JigyosyoCd=0873700462-00&ServiceCd=410&Type=search", "url2": "http://www.matsuzaki-material.co.jp/" }, "geometry": { "type": "Point", "coordinates": [ 140.5296131, 36.0008375 ] } },
{ "type": "Feature", "properties": { "内容": "ケアショップあるくす【特定福祉用具販売】茨城県鉾田市烟田788", "url": "https://www.kaigokensaku.mhlw.go.jp/08/index.php?action_kouhyou_detail_004_kani=true&JigyosyoCd=0875400186-00&ServiceCd=410&Type=search", "url2": "https://sites.google.com/view/careshop-arcus" }, "geometry": { "type": "Point", "coordinates": [ 140.542417, 36.1564575 ] } },
{ "type": "Feature", "properties": { "内容": "株式会社　星医療酸器　茨城事業所【特定福祉用具販売】茨城県小美玉市小岩戸字鹿久保1034-1", "url": "https://www.kaigokensaku.mhlw.go.jp/08/index.php?action_kouhyou_detail_004_kani=true&JigyosyoCd=0873101000-00&ServiceCd=410&Type=search", "url2": "https://www.hosi.co.jp/" }, "geometry": { "type": "Point", "coordinates": [ 140.3507641, 36.2513712 ] } },
{ "type": "Feature", "properties": { "内容": "有限会社　東関東サービス【特定福祉用具販売】茨城県小美玉市小岩戸　2024番地の１２６", "url": "https://www.kaigokensaku.mhlw.go.jp/08/index.php?action_kouhyou_detail_004_kani=true&JigyosyoCd=0873100655-00&ServiceCd=410&Type=search", "url2": "http://wwwhigashikantou@vega.ocn.jp" }, "geometry": { "type": "Point", "coordinates": [ 140.352072799999974, 36.2572114 ] } },
{ "type": "Feature", "properties": { "内容": "株式会社　県央福祉サービス【特定福祉用具販売】茨城県小美玉市中野谷565", "url": "https://www.kaigokensaku.mhlw.go.jp/08/index.php?action_kouhyou_detail_004_kani=true&JigyosyoCd=0875600124-00&ServiceCd=410&Type=search", "url2": "http://kenoufukushi1810.jp" }, "geometry": { "type": "Point", "coordinates": [ 140.33144470000002, 36.2212183 ] } },
{ "type": "Feature", "properties": { "内容": "株式会社ロングライフ　阿見営業所【特定福祉用具販売】茨城県稲敷郡阿見町よしわら6丁目23-1", "url": "https://www.kaigokensaku.mhlw.go.jp/08/index.php?action_kouhyou_detail_004_kani=true&JigyosyoCd=0873801518-00&ServiceCd=410&Type=search", "url2": "https://www.longlife.co.jp/" }, "geometry": { "type": "Point", "coordinates": [ 140.2324108, 35.9830209 ] } },
{ "type": "Feature", "properties": { "内容": "株式会社　樹里【特定福祉用具販売】茨城県稲敷郡阿見町若栗1766-3", "url": "https://www.kaigokensaku.mhlw.go.jp/08/index.php?action_kouhyou_detail_004_kani=true&JigyosyoCd=0873800502-00&ServiceCd=410&Type=search", "url2": "http://www.juri.co.jp" }, "geometry": { "type": "Point", "coordinates": [ 140.220279799999958, 36.0199716 ] } },
{ "type": "Feature", "properties": { "内容": "たけの調剤薬局介護用品センター【特定福祉用具販売】茨城県結城郡八千代町高崎1076-2", "url": "https://www.kaigokensaku.mhlw.go.jp/08/index.php?action_kouhyou_detail_004_kani=true&JigyosyoCd=0874200215-00&ServiceCd=410&Type=search", "url2": "http://takenop.sakura.ne.jp/homepage/" }, "geometry": { "type": "Point", "coordinates": [ 139.914421400000037, 36.2179232 ] } },
{ "type": "Feature", "properties": { "内容": "株式会社　ロングライフ　五霞営業所【特定福祉用具販売】茨城県猿島郡五霞町4-27-4", "url": "https://www.kaigokensaku.mhlw.go.jp/08/index.php?action_kouhyou_detail_004_kani=true&JigyosyoCd=0874301203-00&ServiceCd=410&Type=search", "url2": "www.longlife.co.jp" }, "geometry": { "type": "Point", "coordinates": [ 139.736572499999966, 36.0955677 ] } },
{ "type": "Feature", "properties": { "内容": "株式会社　ゆたか家【特定福祉用具販売】茨城県北相馬郡利根町布川９７６", "url": "https://www.kaigokensaku.mhlw.go.jp/08/index.php?action_kouhyou_detail_004_kani=true&JigyosyoCd=0874400476-00&ServiceCd=410&Type=search", "url2": "http://www.ashikogi-kurumaisu.com" }, "geometry": { "type": "Point", "coordinates": [ 140.14801270000001, 35.8610542 ] } }
]
}
