{
"type": "FeatureCollection",
"name": "geo_08_高校",
"crs": { "type": "name", "properties": { "name": "urn:ogc:def:crs:EPSG::6668" } },
"features": [
{ "type": "Feature", "properties": { "P29_001": "08201", "P29_002": "D108220100015", "P29_003": "16004", "P29_004": "茨城県立水戸第一高等学校", "P29_005": "茨城県水戸市三の丸3-10-1", "P29_006": "2", "P29_007": "0", "P29_008": "00", "P29_009": null }, "geometry": { "type": "Point", "coordinates": [ 140.483303477807198, 36.372069777520352 ] } },
{ "type": "Feature", "properties": { "P29_001": "08201", "P29_002": "D108220100024", "P29_003": "16004", "P29_004": "茨城県立水戸第二高等学校", "P29_005": "茨城県水戸市大町2-2-14", "P29_006": "2", "P29_007": "0", "P29_008": "00", "P29_009": null }, "geometry": { "type": "Point", "coordinates": [ 140.47225759434707, 36.378142810866692 ] } },
{ "type": "Feature", "properties": { "P29_001": "08201", "P29_002": "D108220100033", "P29_003": "16004", "P29_004": "茨城県立水戸第三高等学校", "P29_005": "茨城県水戸市三の丸2-7-27", "P29_006": "2", "P29_007": "0", "P29_008": "00", "P29_009": null }, "geometry": { "type": "Point", "coordinates": [ 140.480964346206235, 36.373722416867281 ] } },
{ "type": "Feature", "properties": { "P29_001": "08201", "P29_002": "D108220100042", "P29_003": "16004", "P29_004": "茨城県立緑岡高等学校", "P29_005": "茨城県水戸市笠原町1284", "P29_006": "2", "P29_007": "0", "P29_008": "00", "P29_009": null }, "geometry": { "type": "Point", "coordinates": [ 140.449865465440553, 36.351475836170032 ] } },
{ "type": "Feature", "properties": { "P29_001": "08201", "P29_002": "D108220100051", "P29_003": "16004", "P29_004": "茨城県立水戸工業高等学校", "P29_005": "茨城県水戸市元吉田町1101", "P29_006": "2", "P29_007": "0", "P29_008": "00", "P29_009": null }, "geometry": { "type": "Point", "coordinates": [ 140.468231094143619, 36.34796649975592 ] } },
{ "type": "Feature", "properties": { "P29_001": "08201", "P29_002": "D108220100060", "P29_003": "16004", "P29_004": "茨城県立水戸商業高等学校", "P29_005": "茨城県水戸市新荘3-7-2", "P29_006": "2", "P29_007": "0", "P29_008": "00", "P29_009": null }, "geometry": { "type": "Point", "coordinates": [ 140.45365080373054, 36.387469392901686 ] } },
{ "type": "Feature", "properties": { "P29_001": "08201", "P29_002": "D108220100079", "P29_003": "16004", "P29_004": "茨城県立水戸南高等学校", "P29_005": "茨城県水戸市白梅2-10-10", "P29_006": "2", "P29_007": "0", "P29_008": "00", "P29_009": null }, "geometry": { "type": "Point", "coordinates": [ 140.478480291084679, 36.361889508119162 ] } },
{ "type": "Feature", "properties": { "P29_001": "08201", "P29_002": "D108220100088", "P29_003": "16004", "P29_004": "茨城県立水戸桜ノ牧高等学校", "P29_005": "茨城県水戸市小吹町2070", "P29_006": "2", "P29_007": "0", "P29_008": "00", "P29_009": null }, "geometry": { "type": "Point", "coordinates": [ 140.424591877341811, 36.352624410600924 ] } },
{ "type": "Feature", "properties": { "P29_001": "08202", "P29_002": "D108220200014", "P29_003": "16004", "P29_004": "茨城県立日立第一高等学校", "P29_005": "茨城県日立市若葉町3-15-1", "P29_006": "2", "P29_007": "0", "P29_008": "00", "P29_009": null }, "geometry": { "type": "Point", "coordinates": [ 140.65859961971168, 36.599581406705987 ] } },
{ "type": "Feature", "properties": { "P29_001": "08202", "P29_002": "D108220200023", "P29_003": "16004", "P29_004": "茨城県立日立第二高等学校", "P29_005": "茨城県日立市鹿島町3-2-1", "P29_006": "2", "P29_007": "0", "P29_008": "00", "P29_009": null }, "geometry": { "type": "Point", "coordinates": [ 140.647678790542585, 36.590120238028554 ] } },
{ "type": "Feature", "properties": { "P29_001": "08202", "P29_002": "D108220200032", "P29_003": "16004", "P29_004": "茨城県立日立工業高等学校", "P29_005": "茨城県日立市城南町2-12-1", "P29_006": "2", "P29_007": "0", "P29_008": "00", "P29_009": null }, "geometry": { "type": "Point", "coordinates": [ 140.640931302341841, 36.588724709921429 ] } },
{ "type": "Feature", "properties": { "P29_001": "08202", "P29_002": "D108220200041", "P29_003": "16004", "P29_004": "茨城県立多賀高等学校", "P29_005": "茨城県日立市鮎川町3-9-1", "P29_006": "2", "P29_007": "0", "P29_008": "00", "P29_009": null }, "geometry": { "type": "Point", "coordinates": [ 140.641682000792969, 36.567623004377076 ] } },
{ "type": "Feature", "properties": { "P29_001": "08202", "P29_002": "D108220200050", "P29_003": "16004", "P29_004": "茨城県立日立商業高等学校", "P29_005": "茨城県日立市久慈町6-20-1", "P29_006": "2", "P29_007": "0", "P29_008": "00", "P29_009": null }, "geometry": { "type": "Point", "coordinates": [ 140.611259589977465, 36.504057780810967 ] } },
{ "type": "Feature", "properties": { "P29_001": "08202", "P29_002": "D108220200069", "P29_003": "16004", "P29_004": "茨城県立日立北高等学校", "P29_005": "茨城県日立市川尻町6-11-1", "P29_006": "2", "P29_007": "0", "P29_008": "00", "P29_009": null }, "geometry": { "type": "Point", "coordinates": [ 140.684884753826339, 36.663324537248016 ] } },
{ "type": "Feature", "properties": { "P29_001": "08203", "P29_002": "D108220300013", "P29_003": "16004", "P29_004": "茨城県立土浦第一高等学校", "P29_005": "茨城県土浦市真鍋4-4-2", "P29_006": "2", "P29_007": "0", "P29_008": "00", "P29_009": null }, "geometry": { "type": "Point", "coordinates": [ 140.202858937626075, 36.097900676110612 ] } },
{ "type": "Feature", "properties": { "P29_001": "08203", "P29_002": "D108220300022", "P29_003": "16004", "P29_004": "茨城県立土浦第二高等学校", "P29_005": "茨城県土浦市立田9-6", "P29_006": "2", "P29_007": "0", "P29_008": "00", "P29_009": null }, "geometry": { "type": "Point", "coordinates": [ 140.194813001872319, 36.088167002139393 ] } },
{ "type": "Feature", "properties": { "P29_001": "08203", "P29_002": "D108220300031", "P29_003": "16004", "P29_004": "茨城県立土浦第三高等学校", "P29_005": "茨城県土浦市大岩田1599", "P29_006": "2", "P29_007": "0", "P29_008": "00", "P29_009": null }, "geometry": { "type": "Point", "coordinates": [ 140.213285036355785, 36.055494376817222 ] } },
{ "type": "Feature", "properties": { "P29_001": "08203", "P29_002": "D108220300040", "P29_003": "16004", "P29_004": "茨城県立土浦工業高等学校", "P29_005": "茨城県土浦市真鍋6-11-20", "P29_006": "2", "P29_007": "0", "P29_008": "00", "P29_009": null }, "geometry": { "type": "Point", "coordinates": [ 140.196379999426995, 36.103693001925429 ] } },
{ "type": "Feature", "properties": { "P29_001": "08203", "P29_002": "D108220300059", "P29_003": "16004", "P29_004": "茨城県立土浦湖北高等学校", "P29_005": "茨城県土浦市菅谷町1525-1", "P29_006": "2", "P29_007": "0", "P29_008": "00", "P29_009": null }, "geometry": { "type": "Point", "coordinates": [ 140.264990328602579, 36.104902193214386 ] } },
{ "type": "Feature", "properties": { "P29_001": "08204", "P29_002": "D108220400012", "P29_003": "16004", "P29_004": "茨城県立古河第一高等学校", "P29_005": "茨城県古河市旭町2-4-5", "P29_006": "2", "P29_007": "0", "P29_008": "00", "P29_009": null }, "geometry": { "type": "Point", "coordinates": [ 139.725358398438118, 36.195730684823104 ] } },
{ "type": "Feature", "properties": { "P29_001": "08204", "P29_002": "D108220400021", "P29_003": "16004", "P29_004": "茨城県立古河第二高等学校", "P29_005": "茨城県古河市幸町19-18", "P29_006": "2", "P29_007": "0", "P29_008": "00", "P29_009": null }, "geometry": { "type": "Point", "coordinates": [ 139.71000624796352, 36.184253389481306 ] } },
{ "type": "Feature", "properties": { "P29_001": "08204", "P29_002": "D108220400030", "P29_003": "16004", "P29_004": "茨城県立古河第三高等学校", "P29_005": "茨城県古河市中田新田12-1", "P29_006": "2", "P29_007": "0", "P29_008": "00", "P29_009": null }, "geometry": { "type": "Point", "coordinates": [ 139.710891014526908, 36.160672089916709 ] } },
{ "type": "Feature", "properties": { "P29_001": "08204", "P29_002": "D108220400049", "P29_003": "16004", "P29_004": "茨城県立総和工業高等学校", "P29_005": "茨城県古河市葛生1004-1", "P29_006": "2", "P29_007": "0", "P29_008": "00", "P29_009": null }, "geometry": { "type": "Point", "coordinates": [ 139.792983570095004, 36.156299744385585 ] } },
{ "type": "Feature", "properties": { "P29_001": "08204", "P29_002": "D108220400058", "P29_003": "16004", "P29_004": "茨城県立三和高等学校", "P29_005": "茨城県古河市五部54-1", "P29_006": "2", "P29_007": "0", "P29_008": "00", "P29_009": null }, "geometry": { "type": "Point", "coordinates": [ 139.819379998374188, 36.207979002361022 ] } },
{ "type": "Feature", "properties": { "P29_001": "08205", "P29_002": "D108220500011", "P29_003": "16004", "P29_004": "茨城県立石岡第一高等学校", "P29_005": "茨城県石岡市石岡1-9", "P29_006": "2", "P29_007": "0", "P29_008": "00", "P29_009": null }, "geometry": { "type": "Point", "coordinates": [ 140.283297165004456, 36.190619595996012 ] } },
{ "type": "Feature", "properties": { "P29_001": "08205", "P29_002": "D108220500020", "P29_003": "16004", "P29_004": "茨城県立石岡第二高等学校", "P29_005": "茨城県石岡市府中5-14-14", "P29_006": "2", "P29_007": "0", "P29_008": "00", "P29_009": null }, "geometry": { "type": "Point", "coordinates": [ 140.273209425409618, 36.199818264674299 ] } },
{ "type": "Feature", "properties": { "P29_001": "08205", "P29_002": "D108220500039", "P29_003": "16004", "P29_004": "茨城県立石岡商業高等学校", "P29_005": "茨城県石岡市東光台3-4-1", "P29_006": "2", "P29_007": "0", "P29_008": "00", "P29_009": null }, "geometry": { "type": "Point", "coordinates": [ 140.302334469537442, 36.184065022949838 ] } },
{ "type": "Feature", "properties": { "P29_001": "08207", "P29_002": "D108220700019", "P29_003": "16004", "P29_004": "茨城県立結城第一高等学校", "P29_005": "茨城県結城市結城1076", "P29_006": "2", "P29_007": "0", "P29_008": "00", "P29_009": null }, "geometry": { "type": "Point", "coordinates": [ 139.882259402673924, 36.304264459984367 ] } },
{ "type": "Feature", "properties": { "P29_001": "08207", "P29_002": "D108220700028", "P29_003": "16004", "P29_004": "茨城県立結城第二高等学校", "P29_005": "茨城県結城市結城7355", "P29_006": "2", "P29_007": "0", "P29_008": "00", "P29_009": null }, "geometry": { "type": "Point", "coordinates": [ 139.875730887902506, 36.295072482550246 ] } },
{ "type": "Feature", "properties": { "P29_001": "08207", "P29_002": "D108220700037", "P29_003": "16004", "P29_004": "茨城県立鬼怒商業高等学校", "P29_005": "茨城県結城市小森1513-2", "P29_006": "2", "P29_007": "0", "P29_008": "00", "P29_009": null }, "geometry": { "type": "Point", "coordinates": [ 139.900116979970704, 36.29087785750432 ] } },
{ "type": "Feature", "properties": { "P29_001": "08208", "P29_002": "D108220800018", "P29_003": "16004", "P29_004": "茨城県立竜ヶ崎第一高等学校", "P29_005": "茨城県龍ケ崎市平畑248", "P29_006": "2", "P29_007": "0", "P29_008": "00", "P29_009": null }, "geometry": { "type": "Point", "coordinates": [ 140.187187968283325, 35.915014746170179 ] } },
{ "type": "Feature", "properties": { "P29_001": "08208", "P29_002": "D108220800027", "P29_003": "16004", "P29_004": "茨城県立竜ヶ崎第二高等学校", "P29_005": "茨城県龍ケ崎市3087", "P29_006": "2", "P29_007": "0", "P29_008": "00", "P29_009": null }, "geometry": { "type": "Point", "coordinates": [ 140.191802996581231, 35.908176996816763 ] } },
{ "type": "Feature", "properties": { "P29_001": "08208", "P29_002": "D108220800036", "P29_003": "16004", "P29_004": "茨城県立竜ヶ崎南高等学校", "P29_005": "茨城県龍ケ崎市北方町120", "P29_006": "2", "P29_007": "0", "P29_008": "00", "P29_009": null }, "geometry": { "type": "Point", "coordinates": [ 140.160794654279016, 35.881210128521502 ] } },
{ "type": "Feature", "properties": { "P29_001": "08210", "P29_002": "D108221000014", "P29_003": "16004", "P29_004": "茨城県立下妻第一高等学校", "P29_005": "茨城県下妻市下妻乙226-1", "P29_006": "2", "P29_007": "0", "P29_008": "00", "P29_009": null }, "geometry": { "type": "Point", "coordinates": [ 139.96183671326321, 36.183052855053141 ] } },
{ "type": "Feature", "properties": { "P29_001": "08210", "P29_002": "D108221000023", "P29_003": "16004", "P29_004": "茨城県立下妻第二高等学校", "P29_005": "茨城県下妻市下妻乙347-8", "P29_006": "2", "P29_007": "0", "P29_008": "00", "P29_009": null }, "geometry": { "type": "Point", "coordinates": [ 139.961643433560027, 36.179248267710101 ] } },
{ "type": "Feature", "properties": { "P29_001": "08211", "P29_002": "D108221100013", "P29_003": "16004", "P29_004": "茨城県立石下紫峰高等学校", "P29_005": "茨城県常総市新石下1192-3", "P29_006": "2", "P29_007": "0", "P29_008": "00", "P29_009": null }, "geometry": { "type": "Point", "coordinates": [ 139.982037000134596, 36.107938997750765 ] } },
{ "type": "Feature", "properties": { "P29_001": "08211", "P29_002": "D108221100022", "P29_003": "16004", "P29_004": "茨城県立水海道第一高等学校", "P29_005": "茨城県常総市水海道亀岡町2543", "P29_006": "2", "P29_007": "0", "P29_008": "00", "P29_009": null }, "geometry": { "type": "Point", "coordinates": [ 139.985780896337218, 36.018531122758951 ] } },
{ "type": "Feature", "properties": { "P29_001": "08211", "P29_002": "D108221100031", "P29_003": "16004", "P29_004": "茨城県立水海道第二高等学校", "P29_005": "茨城県常総市水海道橋本町3549-4", "P29_006": "2", "P29_007": "0", "P29_008": "00", "P29_009": null }, "geometry": { "type": "Point", "coordinates": [ 139.990264913211377, 36.028026575860451 ] } },
{ "type": "Feature", "properties": { "P29_001": "08212", "P29_002": "D108221200012", "P29_003": "16004", "P29_004": "茨城県立太田第一高等学校", "P29_005": "茨城県常陸太田市栄町58", "P29_006": "2", "P29_007": "0", "P29_008": "00", "P29_009": null }, "geometry": { "type": "Point", "coordinates": [ 140.521511752084194, 36.548744550728216 ] } },
{ "type": "Feature", "properties": { "P29_001": "08212", "P29_002": "D108221200049", "P29_003": "16004", "P29_004": "茨城県立太田西山高等学校", "P29_005": "茨城県常陸太田市新宿町210", "P29_006": "2", "P29_007": "0", "P29_008": "00", "P29_009": null }, "geometry": { "type": "Point", "coordinates": [ 140.51721474443903, 36.540051849319902 ] } },
{ "type": "Feature", "properties": { "P29_001": "08214", "P29_002": "D108221400010", "P29_003": "16004", "P29_004": "茨城県立高萩高等学校", "P29_005": "茨城県高萩市大字高萩1111", "P29_006": "2", "P29_007": "0", "P29_008": "00", "P29_009": null }, "geometry": { "type": "Point", "coordinates": [ 140.706359975449374, 36.717287729156936 ] } },
{ "type": "Feature", "properties": { "P29_001": "08214", "P29_002": "D108221400029", "P29_003": "16004", "P29_004": "茨城県立高萩清松高等学校", "P29_005": "茨城県高萩市赤浜1864", "P29_006": "2", "P29_007": "0", "P29_008": "00", "P29_009": null }, "geometry": { "type": "Point", "coordinates": [ 140.71648907709303, 36.736773194537662 ] } },
{ "type": "Feature", "properties": { "P29_001": "08215", "P29_002": "D108221500019", "P29_003": "16004", "P29_004": "茨城県立磯原郷英高等学校", "P29_005": "茨城県北茨城市磯原町磯原912", "P29_006": "2", "P29_007": "0", "P29_008": "00", "P29_009": null }, "geometry": { "type": "Point", "coordinates": [ 140.74268707729334, 36.795418638833773 ] } },
{ "type": "Feature", "properties": { "P29_001": "08216", "P29_002": "D108221600018", "P29_003": "16004", "P29_004": "茨城県立笠間高等学校", "P29_005": "茨城県笠間市笠間1668", "P29_006": "2", "P29_007": "0", "P29_008": "00", "P29_009": null }, "geometry": { "type": "Point", "coordinates": [ 140.247345330097744, 36.380385437961365 ] } },
{ "type": "Feature", "properties": { "P29_001": "08216", "P29_002": "D108221600027", "P29_003": "16004", "P29_004": "茨城県立友部高等学校", "P29_005": "茨城県笠間市大田町352-15", "P29_006": "2", "P29_007": "0", "P29_008": "00", "P29_009": null }, "geometry": { "type": "Point", "coordinates": [ 140.288187102303567, 36.350695456196007 ] } },
{ "type": "Feature", "properties": { "P29_001": "08216", "P29_002": "D108221600036", "P29_003": "16004", "P29_004": "茨城県立ＩＴ未来高等学校", "P29_005": "茨城県笠間市大田町352-15", "P29_006": "2", "P29_007": "0", "P29_008": "00", "P29_009": null }, "geometry": { "type": "Point", "coordinates": [ 140.288054625060369, 36.350695456196007 ] } },
{ "type": "Feature", "properties": { "P29_001": "08217", "P29_002": "D108221700017", "P29_003": "16004", "P29_004": "茨城県立取手第一高等学校", "P29_005": "茨城県取手市台宿2-4-1", "P29_006": "2", "P29_007": "0", "P29_008": "00", "P29_009": null }, "geometry": { "type": "Point", "coordinates": [ 140.065707113036495, 35.897543893705254 ] } },
{ "type": "Feature", "properties": { "P29_001": "08217", "P29_002": "D108221700026", "P29_003": "16004", "P29_004": "茨城県立取手第二高等学校", "P29_005": "茨城県取手市東2-5-1", "P29_006": "2", "P29_007": "0", "P29_008": "00", "P29_009": null }, "geometry": { "type": "Point", "coordinates": [ 140.068659848501625, 35.891541282726209 ] } },
{ "type": "Feature", "properties": { "P29_001": "08217", "P29_002": "D108221700035", "P29_003": "16004", "P29_004": "茨城県立取手松陽高等学校", "P29_005": "茨城県取手市小文間4770", "P29_006": "2", "P29_007": "0", "P29_008": "00", "P29_009": null }, "geometry": { "type": "Point", "coordinates": [ 140.122489949843612, 35.879408330545999 ] } },
{ "type": "Feature", "properties": { "P29_001": "08217", "P29_002": "D108221700044", "P29_003": "16004", "P29_004": "茨城県立藤代高等学校", "P29_005": "茨城県取手市毛有640", "P29_006": "2", "P29_007": "0", "P29_008": "00", "P29_009": null }, "geometry": { "type": "Point", "coordinates": [ 140.08570240448455, 35.911099001241929 ] } },
{ "type": "Feature", "properties": { "P29_001": "08217", "P29_002": "D108221700053", "P29_003": "16004", "P29_004": "茨城県立藤代紫水高等学校", "P29_005": "茨城県取手市紫水1-660", "P29_006": "2", "P29_007": "0", "P29_008": "00", "P29_009": null }, "geometry": { "type": "Point", "coordinates": [ 140.093447003891356, 35.938475995214048 ] } },
{ "type": "Feature", "properties": { "P29_001": "08219", "P29_002": "D108221900015", "P29_003": "16004", "P29_004": "茨城県立牛久高等学校", "P29_005": "茨城県牛久市岡見町2081-1", "P29_006": "2", "P29_007": "0", "P29_008": "00", "P29_009": null }, "geometry": { "type": "Point", "coordinates": [ 140.168488979326838, 35.984923059777465 ] } },
{ "type": "Feature", "properties": { "P29_001": "08219", "P29_002": "D108221900024", "P29_003": "16004", "P29_004": "茨城県立牛久栄進高等学校", "P29_005": "茨城県牛久市東猯穴町876", "P29_006": "2", "P29_007": "0", "P29_008": "00", "P29_009": null }, "geometry": { "type": "Point", "coordinates": [ 140.144464183365073, 36.019561378380011 ] } },
{ "type": "Feature", "properties": { "P29_001": "08220", "P29_002": "D108222000012", "P29_003": "16004", "P29_004": "茨城県立筑波高等学校", "P29_005": "茨城県つくば市北条4387", "P29_006": "2", "P29_007": "0", "P29_008": "00", "P29_009": null }, "geometry": { "type": "Point", "coordinates": [ 140.090202340400111, 36.174926077832289 ] } },
{ "type": "Feature", "properties": { "P29_001": "08220", "P29_002": "D108222000021", "P29_003": "16004", "P29_004": "茨城県立竹園高等学校", "P29_005": "茨城県つくば市竹園3-9-1", "P29_006": "2", "P29_007": "0", "P29_008": "00", "P29_009": null }, "geometry": { "type": "Point", "coordinates": [ 140.12559203681252, 36.083049046053233 ] } },
{ "type": "Feature", "properties": { "P29_001": "08220", "P29_002": "D108222000030", "P29_003": "16004", "P29_004": "茨城県立つくば工科高等学校", "P29_005": "茨城県つくば市谷田部1818", "P29_006": "2", "P29_007": "0", "P29_008": "00", "P29_009": null }, "geometry": { "type": "Point", "coordinates": [ 140.074893211865003, 36.024852431731041 ] } },
{ "type": "Feature", "properties": { "P29_001": "08220", "P29_002": "D108222000049", "P29_003": "16004", "P29_004": "茨城県立茎崎高等学校", "P29_005": "茨城県つくば市茎崎447-8", "P29_006": "2", "P29_007": "0", "P29_008": "00", "P29_009": null }, "geometry": { "type": "Point", "coordinates": [ 140.098592502013645, 35.991827890677463 ] } },
{ "type": "Feature", "properties": { "P29_001": "08220", "P29_002": "D108222000058", "P29_003": "16004", "P29_004": "茨城県立つくばサイエンス高等学校", "P29_005": "茨城県つくば市谷田部1818", "P29_006": "2", "P29_007": "0", "P29_008": "00", "P29_009": null }, "geometry": { "type": "Point", "coordinates": [ 140.074945399869904, 36.024878409461138 ] } },
{ "type": "Feature", "properties": { "P29_001": "08221", "P29_002": "D108222100011", "P29_003": "16004", "P29_004": "茨城県立勝田高等学校", "P29_005": "茨城県ひたちなか市足崎1458", "P29_006": "2", "P29_007": "0", "P29_008": "00", "P29_009": null }, "geometry": { "type": "Point", "coordinates": [ 140.554758434441936, 36.405858424582014 ] } },
{ "type": "Feature", "properties": { "P29_001": "08221", "P29_002": "D108222100020", "P29_003": "16004", "P29_004": "茨城県立勝田工業高等学校", "P29_005": "茨城県ひたちなか市松戸町3-10-1", "P29_006": "2", "P29_007": "0", "P29_008": "00", "P29_009": null }, "geometry": { "type": "Point", "coordinates": [ 140.546915481546421, 36.390773972183695 ] } },
{ "type": "Feature", "properties": { "P29_001": "08221", "P29_002": "D108222100039", "P29_003": "16004", "P29_004": "茨城県立佐和高等学校", "P29_005": "茨城県ひたちなか市稲田636-1", "P29_006": "2", "P29_007": "0", "P29_008": "00", "P29_009": null }, "geometry": { "type": "Point", "coordinates": [ 140.536220219157059, 36.440870110666346 ] } },
{ "type": "Feature", "properties": { "P29_001": "08221", "P29_002": "D108222100048", "P29_003": "16004", "P29_004": "茨城県立那珂湊高等学校", "P29_005": "茨城県ひたちなか市山ノ上町4-6", "P29_006": "2", "P29_007": "0", "P29_008": "00", "P29_009": null }, "geometry": { "type": "Point", "coordinates": [ 140.584570002102197, 36.342934001374346 ] } },
{ "type": "Feature", "properties": { "P29_001": "08221", "P29_002": "D108222100057", "P29_003": "16004", "P29_004": "茨城県立海洋高等学校", "P29_005": "茨城県ひたちなか市和田町3-1-26", "P29_006": "2", "P29_007": "0", "P29_008": "00", "P29_009": null }, "geometry": { "type": "Point", "coordinates": [ 140.599419115825725, 36.342392961615154 ] } },
{ "type": "Feature", "properties": { "P29_001": "08222", "P29_002": "D108222200010", "P29_003": "16004", "P29_004": "茨城県立鹿島高等学校", "P29_005": "茨城県鹿嶋市城山2-2-19", "P29_006": "2", "P29_007": "0", "P29_008": "00", "P29_009": null }, "geometry": { "type": "Point", "coordinates": [ 140.623793305693454, 35.96535755370779 ] } },
{ "type": "Feature", "properties": { "P29_001": "08222", "P29_002": "D108222200029", "P29_003": "16004", "P29_004": "茨城県立鹿島灘高等学校", "P29_005": "茨城県鹿嶋市志崎121", "P29_006": "2", "P29_007": "0", "P29_008": "00", "P29_009": null }, "geometry": { "type": "Point", "coordinates": [ 140.592632443055663, 36.075649807235187 ] } },
{ "type": "Feature", "properties": { "P29_001": "08223", "P29_002": "D108222300019", "P29_003": "16004", "P29_004": "茨城県立潮来高等学校", "P29_005": "茨城県潮来市須賀3025", "P29_006": "2", "P29_007": "0", "P29_008": "00", "P29_009": null }, "geometry": { "type": "Point", "coordinates": [ 140.567732668815779, 35.953509299181135 ] } },
{ "type": "Feature", "properties": { "P29_001": "08224", "P29_002": "D108222400018", "P29_003": "16004", "P29_004": "茨城県立守谷高等学校", "P29_005": "茨城県守谷市大木70", "P29_006": "2", "P29_007": "0", "P29_008": "00", "P29_009": null }, "geometry": { "type": "Point", "coordinates": [ 139.957334697988472, 35.963968106950368 ] } },
{ "type": "Feature", "properties": { "P29_001": "08225", "P29_002": "D108222500017", "P29_003": "16004", "P29_004": "茨城県立小瀬高等学校", "P29_005": "茨城県常陸大宮市上小瀬1881", "P29_006": "2", "P29_007": "0", "P29_008": "00", "P29_009": null }, "geometry": { "type": "Point", "coordinates": [ 140.324819995136266, 36.608859997936662 ] } },
{ "type": "Feature", "properties": { "P29_001": "08225", "P29_002": "D108222500026", "P29_003": "16004", "P29_004": "茨城県立常陸大宮高等学校", "P29_005": "茨城県常陸大宮市野中町3257-2", "P29_006": "2", "P29_007": "0", "P29_008": "00", "P29_009": null }, "geometry": { "type": "Point", "coordinates": [ 140.3975091316467, 36.557387983888127 ] } },
{ "type": "Feature", "properties": { "P29_001": "08226", "P29_002": "D108222600016", "P29_003": "16004", "P29_004": "茨城県立水戸農業高等学校", "P29_005": "茨城県那珂市東木倉983", "P29_006": "2", "P29_007": "0", "P29_008": "00", "P29_009": null }, "geometry": { "type": "Point", "coordinates": [ 140.471410192739881, 36.425670001935998 ] } },
{ "type": "Feature", "properties": { "P29_001": "08226", "P29_002": "D108222600025", "P29_003": "16004", "P29_004": "茨城県立那珂高等学校", "P29_005": "茨城県那珂市後台1710-1", "P29_006": "2", "P29_007": "0", "P29_008": "00", "P29_009": null }, "geometry": { "type": "Point", "coordinates": [ 140.479265732617364, 36.425279231178656 ] } },
{ "type": "Feature", "properties": { "P29_001": "08227", "P29_002": "D108222700015", "P29_003": "16004", "P29_004": "茨城県立下館第一高等学校", "P29_005": "茨城県筑西市下中山590", "P29_006": "2", "P29_007": "0", "P29_008": "00", "P29_009": null }, "geometry": { "type": "Point", "coordinates": [ 139.987610998675109, 36.309583004459107 ] } },
{ "type": "Feature", "properties": { "P29_001": "08227", "P29_002": "D108222700024", "P29_003": "16004", "P29_004": "茨城県立下館第二高等学校", "P29_005": "茨城県筑西市岡芹1-37", "P29_006": "2", "P29_007": "0", "P29_008": "00", "P29_009": null }, "geometry": { "type": "Point", "coordinates": [ 139.974649112299318, 36.321586911575899 ] } },
{ "type": "Feature", "properties": { "P29_001": "08227", "P29_002": "D108222700033", "P29_003": "16004", "P29_004": "茨城県立下館工業高等学校", "P29_005": "茨城県筑西市玉戸1336-111", "P29_006": "2", "P29_007": "0", "P29_008": "00", "P29_009": null }, "geometry": { "type": "Point", "coordinates": [ 139.954317018332034, 36.28290827062667 ] } },
{ "type": "Feature", "properties": { "P29_001": "08227", "P29_002": "D108222700042", "P29_003": "16004", "P29_004": "茨城県立明野高等学校", "P29_005": "茨城県筑西市倉持1176-1", "P29_006": "2", "P29_007": "0", "P29_008": "00", "P29_009": null }, "geometry": { "type": "Point", "coordinates": [ 140.027983150120889, 36.242082689474813 ] } },
{ "type": "Feature", "properties": { "P29_001": "08228", "P29_002": "D108222800032", "P29_003": "16004", "P29_004": "茨城県立坂東清風高等学校", "P29_005": "茨城県坂東市岩井4319-1", "P29_006": "2", "P29_007": "0", "P29_008": "00", "P29_009": null }, "geometry": { "type": "Point", "coordinates": [ 139.891089542452619, 36.048247944267771 ] } },
{ "type": "Feature", "properties": { "P29_001": "08229", "P29_002": "D108222900013", "P29_003": "16004", "P29_004": "茨城県立江戸崎総合高等学校", "P29_005": "茨城県稲敷市江戸崎甲476-2", "P29_006": "2", "P29_007": "0", "P29_008": "00", "P29_009": null }, "geometry": { "type": "Point", "coordinates": [ 140.323944066766757, 35.968829272255022 ] } },
{ "type": "Feature", "properties": { "P29_001": "08231", "P29_002": "D108223100019", "P29_003": "16004", "P29_004": "茨城県立岩瀬高等学校", "P29_005": "茨城県桜川市岩瀬1511-1", "P29_006": "2", "P29_007": "0", "P29_008": "00", "P29_009": null }, "geometry": { "type": "Point", "coordinates": [ 140.116042017231621, 36.368272611557572 ] } },
{ "type": "Feature", "properties": { "P29_001": "08231", "P29_002": "D108223100028", "P29_003": "16004", "P29_004": "茨城県立真壁高等学校", "P29_005": "茨城県桜川市真壁町飯塚210", "P29_006": "2", "P29_007": "0", "P29_008": "00", "P29_009": null }, "geometry": { "type": "Point", "coordinates": [ 140.094571368149474, 36.279518852425461 ] } },
{ "type": "Feature", "properties": { "P29_001": "08232", "P29_002": "D108223200018", "P29_003": "16004", "P29_004": "茨城県立神栖高等学校", "P29_005": "茨城県神栖市高浜1468", "P29_006": "2", "P29_007": "0", "P29_008": "00", "P29_009": null }, "geometry": { "type": "Point", "coordinates": [ 140.644074417344598, 35.874500839942087 ] } },
{ "type": "Feature", "properties": { "P29_001": "08232", "P29_002": "D108223200027", "P29_003": "16004", "P29_004": "茨城県立波崎高等学校", "P29_005": "茨城県神栖市土合本町2-9928-1", "P29_006": "2", "P29_007": "0", "P29_008": "00", "P29_009": null }, "geometry": { "type": "Point", "coordinates": [ 140.779367620896693, 35.790087607091024 ] } },
{ "type": "Feature", "properties": { "P29_001": "08232", "P29_002": "D108223200036", "P29_003": "16004", "P29_004": "茨城県立波崎柳川高等学校", "P29_005": "茨城県神栖市柳川1603-1", "P29_006": "2", "P29_007": "0", "P29_008": "00", "P29_009": null }, "geometry": { "type": "Point", "coordinates": [ 140.73746165307432, 35.865094230991581 ] } },
{ "type": "Feature", "properties": { "P29_001": "08233", "P29_002": "D108223300017", "P29_003": "16004", "P29_004": "茨城県立玉造工業高等学校", "P29_005": "茨城県行方市芹沢1552", "P29_006": "2", "P29_007": "0", "P29_008": "00", "P29_009": null }, "geometry": { "type": "Point", "coordinates": [ 140.441198317459225, 36.12763118929459 ] } },
{ "type": "Feature", "properties": { "P29_001": "08233", "P29_002": "D108223300026", "P29_003": "16004", "P29_004": "茨城県立麻生高等学校", "P29_005": "茨城県行方市麻生1806", "P29_006": "2", "P29_007": "0", "P29_008": "00", "P29_009": null }, "geometry": { "type": "Point", "coordinates": [ 140.489024908959209, 35.994487733199961 ] } },
{ "type": "Feature", "properties": { "P29_001": "08234", "P29_002": "D108223400016", "P29_003": "16004", "P29_004": "茨城県立鉾田第一高等学校", "P29_005": "茨城県鉾田市鉾田1090-2", "P29_006": "2", "P29_007": "0", "P29_008": "00", "P29_009": null }, "geometry": { "type": "Point", "coordinates": [ 140.517255314874262, 36.155270054689865 ] } },
{ "type": "Feature", "properties": { "P29_001": "08234", "P29_002": "D108223400025", "P29_003": "16004", "P29_004": "茨城県立鉾田第二高等学校", "P29_005": "茨城県鉾田市鉾田1158", "P29_006": "2", "P29_007": "0", "P29_008": "00", "P29_009": null }, "geometry": { "type": "Point", "coordinates": [ 140.514675275485274, 36.155603282441554 ] } },
{ "type": "Feature", "properties": { "P29_001": "08235", "P29_002": "D108223500015", "P29_003": "16004", "P29_004": "茨城県立伊奈高等学校", "P29_005": "茨城県つくばみらい市福田711", "P29_006": "2", "P29_007": "0", "P29_008": "00", "P29_009": null }, "geometry": { "type": "Point", "coordinates": [ 140.040706112481445, 35.961696504951476 ] } },
{ "type": "Feature", "properties": { "P29_001": "08236", "P29_002": "D108223600014", "P29_003": "16004", "P29_004": "茨城県立中央高等学校", "P29_005": "茨城県小美玉市張星500", "P29_006": "2", "P29_007": "0", "P29_008": "00", "P29_009": null }, "geometry": { "type": "Point", "coordinates": [ 140.309908467982495, 36.24593302292481 ] } },
{ "type": "Feature", "properties": { "P29_001": "08302", "P29_002": "D108230200013", "P29_003": "16004", "P29_004": "茨城県立茨城東高等学校", "P29_005": "茨城県東茨城郡茨城町小幡2524", "P29_006": "2", "P29_007": "0", "P29_008": "00", "P29_009": null }, "geometry": { "type": "Point", "coordinates": [ 140.399021982194739, 36.271283799134004 ] } },
{ "type": "Feature", "properties": { "P29_001": "08309", "P29_002": "D108230900016", "P29_003": "16004", "P29_004": "茨城県立大洗高等学校", "P29_005": "茨城県東茨城郡大洗町大貫町2908", "P29_006": "2", "P29_007": "0", "P29_008": "00", "P29_009": null }, "geometry": { "type": "Point", "coordinates": [ 140.551255912121519, 36.308139495555224 ] } },
{ "type": "Feature", "properties": { "P29_001": "08310", "P29_002": "D108231000013", "P29_003": "16004", "P29_004": "茨城県立水戸桜ノ牧高等学校常北校", "P29_005": "茨城県東茨城郡城里町春園1634", "P29_006": "2", "P29_007": "0", "P29_008": "00", "P29_009": null }, "geometry": { "type": "Point", "coordinates": [ 140.360925230638912, 36.479161334399414 ] } },
{ "type": "Feature", "properties": { "P29_001": "08341", "P29_002": "D108234100016", "P29_003": "16004", "P29_004": "茨城県立東海高等学校", "P29_005": "茨城県那珂郡東海村大字村松771-1", "P29_006": "2", "P29_007": "0", "P29_008": "00", "P29_009": null }, "geometry": { "type": "Point", "coordinates": [ 140.563121754929114, 36.457903452262428 ] } },
{ "type": "Feature", "properties": { "P29_001": "08364", "P29_002": "D108236400018", "P29_003": "16004", "P29_004": "茨城県立大子清流高等学校", "P29_005": "茨城県久慈郡大子町大子224", "P29_006": "2", "P29_007": "0", "P29_008": "00", "P29_009": null }, "geometry": { "type": "Point", "coordinates": [ 140.347231133787204, 36.776772678113517 ] } },
{ "type": "Feature", "properties": { "P29_001": "08521", "P29_002": "D108252100018", "P29_003": "16004", "P29_004": "茨城県立八千代高等学校", "P29_005": "茨城県結城郡八千代町平塚4824-2", "P29_006": "2", "P29_007": "0", "P29_008": "00", "P29_009": null }, "geometry": { "type": "Point", "coordinates": [ 139.862111263134778, 36.185523199226125 ] } },
{ "type": "Feature", "properties": { "P29_001": "08546", "P29_002": "D108254600019", "P29_003": "16004", "P29_004": "茨城県立境高等学校", "P29_005": "茨城県猿島郡境町175", "P29_006": "2", "P29_007": "0", "P29_008": "00", "P29_009": null }, "geometry": { "type": "Point", "coordinates": [ 139.801995572631853, 36.11444619104482 ] } },
{ "type": "Feature", "properties": { "P29_001": "08201", "P29_002": "D108320100013", "P29_003": "16004", "P29_004": "茨城高等学校", "P29_005": "茨城県水戸市八幡町16-1", "P29_006": "4", "P29_007": "0", "P29_008": "00", "P29_009": null }, "geometry": { "type": "Point", "coordinates": [ 140.457729515898308, 36.389350249970221 ] } },
{ "type": "Feature", "properties": { "P29_001": "08201", "P29_002": "D108320100022", "P29_003": "16004", "P29_004": "常磐大学高等学校", "P29_005": "茨城県水戸市新荘3-2-28", "P29_006": "4", "P29_007": "0", "P29_008": "00", "P29_009": null }, "geometry": { "type": "Point", "coordinates": [ 140.456435235754611, 36.384962892978123 ] } },
{ "type": "Feature", "properties": { "P29_001": "08201", "P29_002": "D108320100031", "P29_003": "16004", "P29_004": "大成女子高等学校", "P29_005": "茨城県水戸市五軒町3-2-61", "P29_006": "4", "P29_007": "0", "P29_008": "00", "P29_009": null }, "geometry": { "type": "Point", "coordinates": [ 140.461373279641066, 36.382513188826863 ] } },
{ "type": "Feature", "properties": { "P29_001": "08201", "P29_002": "D108320100040", "P29_003": "16004", "P29_004": "水戸女子高等学校", "P29_005": "茨城県水戸市上水戸1-2-1", "P29_006": "4", "P29_007": "0", "P29_008": "00", "P29_009": null }, "geometry": { "type": "Point", "coordinates": [ 140.452543763597447, 36.388404617009428 ] } },
{ "type": "Feature", "properties": { "P29_001": "08201", "P29_002": "D108320100059", "P29_003": "16004", "P29_004": "水戸啓明高等学校", "P29_005": "茨城県水戸市千波町464-10", "P29_006": "4", "P29_007": "0", "P29_008": "00", "P29_009": null }, "geometry": { "type": "Point", "coordinates": [ 140.452176779463144, 36.363754501860107 ] } },
{ "type": "Feature", "properties": { "P29_001": "08201", "P29_002": "D108320100068", "P29_003": "16004", "P29_004": "水城高等学校", "P29_005": "茨城県水戸市白梅2-1-45", "P29_006": "4", "P29_007": "0", "P29_008": "00", "P29_009": null }, "geometry": { "type": "Point", "coordinates": [ 140.475460393029721, 36.364160624511875 ] } },
{ "type": "Feature", "properties": { "P29_001": "08201", "P29_002": "D108320100077", "P29_003": "16004", "P29_004": "学校法人田中学園水戸葵陵高等学校", "P29_005": "茨城県水戸市千波町中山2369-3", "P29_006": "4", "P29_007": "0", "P29_008": "00", "P29_009": null }, "geometry": { "type": "Point", "coordinates": [ 140.447627698709823, 36.360316655914311 ] } },
{ "type": "Feature", "properties": { "P29_001": "08201", "P29_002": "D108320100086", "P29_003": "16004", "P29_004": "水戸平成学園高等学校", "P29_005": "茨城県水戸市根本2-545", "P29_006": "4", "P29_007": "0", "P29_008": "00", "P29_009": null }, "geometry": { "type": "Point", "coordinates": [ 140.468738995976338, 36.383956999240795 ] } },
{ "type": "Feature", "properties": { "P29_001": "08201", "P29_002": "D108320100095", "P29_003": "16004", "P29_004": "EIKOデジタル・クリエイティブ高等学校", "P29_005": "茨城県水戸市見川町2582-9", "P29_006": "4", "P29_007": "0", "P29_008": "00", "P29_009": null }, "geometry": { "type": "Point", "coordinates": [ 140.446491691730699, 36.361417107451366 ] } },
{ "type": "Feature", "properties": { "P29_001": "08202", "P29_002": "D108320200012", "P29_003": "16004", "P29_004": "明秀学園日立高等学校", "P29_005": "茨城県日立市神峰町3-2-26", "P29_006": "4", "P29_007": "0", "P29_008": "00", "P29_009": null }, "geometry": { "type": "Point", "coordinates": [ 140.656044864267471, 36.602616122908117 ] } },
{ "type": "Feature", "properties": { "P29_001": "08202", "P29_002": "D108320200021", "P29_003": "16004", "P29_004": "茨城キリスト教学園高等学校", "P29_005": "茨城県日立市大みか町6-11-1", "P29_006": "4", "P29_007": "0", "P29_008": "00", "P29_009": null }, "geometry": { "type": "Point", "coordinates": [ 140.6163154617347, 36.513006273468712 ] } },
{ "type": "Feature", "properties": { "P29_001": "08202", "P29_002": "D108320200030", "P29_003": "16004", "P29_004": "翔洋学園高等学校", "P29_005": "茨城県日立市大みか町4-1-3", "P29_006": "4", "P29_007": "0", "P29_008": "00", "P29_009": null }, "geometry": { "type": "Point", "coordinates": [ 140.630103002834034, 36.511268000098873 ] } },
{ "type": "Feature", "properties": { "P29_001": "08203", "P29_002": "D108320300011", "P29_003": "16004", "P29_004": "学校法人土浦日本大学学園土浦日本大学高等学校", "P29_005": "茨城県土浦市小松ヶ丘町4-46", "P29_006": "4", "P29_007": "0", "P29_008": "00", "P29_009": null }, "geometry": { "type": "Point", "coordinates": [ 140.19610075141793, 36.064712143916822 ] } },
{ "type": "Feature", "properties": { "P29_001": "08203", "P29_002": "D108320300020", "P29_003": "16004", "P29_004": "つくば国際大学高等学校", "P29_005": "茨城県土浦市真鍋1-3-5", "P29_006": "4", "P29_007": "0", "P29_008": "00", "P29_009": null }, "geometry": { "type": "Point", "coordinates": [ 140.202494829515643, 36.088466724873989 ] } },
{ "type": "Feature", "properties": { "P29_001": "08203", "P29_002": "D108320300039", "P29_003": "16004", "P29_004": "常総学院高等学校", "P29_005": "茨城県土浦市中村西根1010", "P29_006": "4", "P29_007": "0", "P29_008": "00", "P29_009": null }, "geometry": { "type": "Point", "coordinates": [ 140.16363151879608, 36.057102877771229 ] } },
{ "type": "Feature", "properties": { "P29_001": "08204", "P29_002": "D108320400010", "P29_003": "16004", "P29_004": "晃陽学園高等学校", "P29_005": "茨城県古河市東1-5-26", "P29_006": "4", "P29_007": "0", "P29_008": "00", "P29_009": null }, "geometry": { "type": "Point", "coordinates": [ 139.711550760047544, 36.196913957481648 ] } },
{ "type": "Feature", "properties": { "P29_001": "08205", "P29_002": "D108320500019", "P29_003": "16004", "P29_004": "青丘学院つくば高等学校", "P29_005": "茨城県石岡市柿岡字寺田1604-1", "P29_006": "4", "P29_007": "0", "P29_008": "00", "P29_009": null }, "geometry": { "type": "Point", "coordinates": [ 140.183547004548529, 36.246253004567862 ] } },
{ "type": "Feature", "properties": { "P29_001": "08208", "P29_002": "D108320800016", "P29_003": "16004", "P29_004": "愛国学園大学附属龍ケ崎高等学校", "P29_005": "茨城県龍ケ崎市若柴町2747", "P29_006": "4", "P29_007": "0", "P29_008": "00", "P29_009": null }, "geometry": { "type": "Point", "coordinates": [ 140.156658091575594, 35.927826810646273 ] } },
{ "type": "Feature", "properties": { "P29_001": "08214", "P29_002": "D108321400018", "P29_003": "16004", "P29_004": "第一学院高等学校高萩校", "P29_005": "茨城県高萩市赤浜2086-1", "P29_006": "4", "P29_007": "0", "P29_008": "00", "P29_009": null }, "geometry": { "type": "Point", "coordinates": [ 140.706940944702382, 36.748037978130426 ] } },
{ "type": "Feature", "properties": { "P29_001": "08216", "P29_002": "D108321600016", "P29_003": "16004", "P29_004": "日本ウェルネス高等学校", "P29_005": "茨城県笠間市吉原1188", "P29_006": "4", "P29_007": "0", "P29_008": "00", "P29_009": null }, "geometry": { "type": "Point", "coordinates": [ 140.245514443567657, 36.359358869197671 ] } },
{ "type": "Feature", "properties": { "P29_001": "08217", "P29_002": "D108321700015", "P29_003": "16004", "P29_004": "江戸川学園取手高等学校", "P29_005": "茨城県取手市西1-37-1", "P29_006": "4", "P29_007": "0", "P29_008": "00", "P29_009": null }, "geometry": { "type": "Point", "coordinates": [ 140.041793537805262, 35.903088198371641 ] } },
{ "type": "Feature", "properties": { "P29_001": "08217", "P29_002": "D108321700024", "P29_003": "16004", "P29_004": "聖徳大学附属取手聖徳女子高等学校", "P29_005": "茨城県取手市山王1000", "P29_006": "4", "P29_007": "0", "P29_008": "00", "P29_009": null }, "geometry": { "type": "Point", "coordinates": [ 140.075387469592016, 35.929652650889189 ] } },
{ "type": "Feature", "properties": { "P29_001": "08219", "P29_002": "D108321900013", "P29_003": "16004", "P29_004": "学校法人東洋大学東洋大学附属牛久高等学校", "P29_005": "茨城県牛久市柏田町1360-2", "P29_006": "4", "P29_007": "0", "P29_008": "00", "P29_009": null }, "geometry": { "type": "Point", "coordinates": [ 140.160871843752062, 35.979166364203969 ] } },
{ "type": "Feature", "properties": { "P29_001": "08219", "P29_002": "D108321900022", "P29_003": "16004", "P29_004": "つくば開成高等学校", "P29_005": "茨城県牛久市柏田町字新田3315-10", "P29_006": "4", "P29_007": "0", "P29_008": "00", "P29_009": null }, "geometry": { "type": "Point", "coordinates": [ 140.152517308926548, 35.978451586686447 ] } },
{ "type": "Feature", "properties": { "P29_001": "08220", "P29_002": "D108322000010", "P29_003": "16004", "P29_004": "学校法人茗溪学園茗溪学園高等学校", "P29_005": "茨城県つくば市稲荷前1-1", "P29_006": "4", "P29_007": "0", "P29_008": "00", "P29_009": null }, "geometry": { "type": "Point", "coordinates": [ 140.12828264947899, 36.051445474836015 ] } },
{ "type": "Feature", "properties": { "P29_001": "08220", "P29_002": "D108322000029", "P29_003": "16004", "P29_004": "学校法人温習塾つくば秀英高等学校", "P29_005": "茨城県つくば市島名151", "P29_006": "4", "P29_007": "0", "P29_008": "00", "P29_009": null }, "geometry": { "type": "Point", "coordinates": [ 140.060051231341191, 36.077663947967089 ] } },
{ "type": "Feature", "properties": { "P29_001": "08220", "P29_002": "D108322000038", "P29_003": "16004", "P29_004": "Ｓ高等学校", "P29_005": "茨城県つくば市作谷578-2", "P29_006": "4", "P29_007": "0", "P29_008": "00", "P29_009": null }, "geometry": { "type": "Point", "coordinates": [ 140.050062006101086, 36.189233001870427 ] } },
{ "type": "Feature", "properties": { "P29_001": "08222", "P29_002": "D108322200018", "P29_003": "16004", "P29_004": "学校法人清真学園清真学園高等学校", "P29_005": "茨城県鹿嶋市宮中伏見4448-5", "P29_006": "4", "P29_007": "0", "P29_008": "00", "P29_009": null }, "geometry": { "type": "Point", "coordinates": [ 140.634702004489185, 35.976969997073702 ] } },
{ "type": "Feature", "properties": { "P29_001": "08222", "P29_002": "D108322200027", "P29_003": "16004", "P29_004": "鹿島学園高等学校", "P29_005": "茨城県鹿嶋市田野辺141-9", "P29_006": "4", "P29_007": "0", "P29_008": "00", "P29_009": null }, "geometry": { "type": "Point", "coordinates": [ 140.618722464945478, 36.002919565345081 ] } },
{ "type": "Feature", "properties": { "P29_001": "08230", "P29_002": "D108323000018", "P29_003": "16004", "P29_004": "つくば国際大学東風高等学校", "P29_005": "茨城県かすみがうら市上土田690-1", "P29_006": "4", "P29_007": "0", "P29_008": "00", "P29_009": null }, "geometry": { "type": "Point", "coordinates": [ 140.229052037129264, 36.157761180585219 ] } },
{ "type": "Feature", "properties": { "P29_001": "08231", "P29_002": "D108323100017", "P29_003": "16004", "P29_004": "岩瀬日本大学高等学校", "P29_005": "茨城県桜川市友部1739", "P29_006": "4", "P29_007": "0", "P29_008": "00", "P29_009": null }, "geometry": { "type": "Point", "coordinates": [ 140.143388789879111, 36.349526657867948 ] } },
{ "type": "Feature", "properties": { "P29_001": "08364", "P29_002": "D108336400016", "P29_003": "16004", "P29_004": "ルネサンス高等学校", "P29_005": "茨城県久慈郡大子町大字町付1543", "P29_006": "4", "P29_007": "0", "P29_008": "00", "P29_009": null }, "geometry": { "type": "Point", "coordinates": [ 140.352519402987781, 36.842172227457418 ] } },
{ "type": "Feature", "properties": { "P29_001": "08443", "P29_002": "D108344300011", "P29_003": "16004", "P29_004": "霞ケ浦高等学校", "P29_005": "茨城県稲敷郡阿見町青宿50", "P29_006": "4", "P29_007": "0", "P29_008": "00", "P29_009": null }, "geometry": { "type": "Point", "coordinates": [ 140.217573999341312, 36.051951003893819 ] } }
]
}
