{
"type": "FeatureCollection",
"name": "geo_08_訪問リハビリテーション",
"crs": { "type": "name", "properties": { "name": "urn:ogc:def:crs:OGC:1.3:CRS84" } },
"features": [
{ "type": "Feature", "properties": { "内容": "訪問リハビリテーション　くるみ館【訪問リハビリテーション】茨城県水戸市河和田町３３３５－１", "url": "https://www.kaigokensaku.mhlw.go.jp/08/index.php?action_kouhyou_detail_004_kani=true&JigyosyoCd=0850180019-00&ServiceCd=140&Type=search", "url2": "http://www.hokusuikai.or.jp" }, "geometry": { "type": "Point", "coordinates": [ 140.402246699999978, 36.3672261 ] } },
{ "type": "Feature", "properties": { "内容": "介護老人保健施設　はなみずき【訪問リハビリテーション】茨城県水戸市東原3-2-8", "url": "https://www.kaigokensaku.mhlw.go.jp/08/index.php?action_kouhyou_detail_004_kani=true&JigyosyoCd=0870105053-00&ServiceCd=140&Type=search", "url2": "http//www.hokuyoukai.jp/" }, "geometry": { "type": "Point", "coordinates": [ 140.446761599999945, 36.3862421 ] } },
{ "type": "Feature", "properties": { "内容": "丹野病院　訪問リハビリテーション【訪問リハビリテーション】茨城県水戸市酒門町4887番地", "url": "https://www.kaigokensaku.mhlw.go.jp/08/index.php?action_kouhyou_detail_004_kani=true&JigyosyoCd=0810112045-00&ServiceCd=140&Type=search", "url2": "https://www.tanno-h.com/index.php" }, "geometry": { "type": "Point", "coordinates": [ 140.495194, 36.3596735 ] } },
{ "type": "Feature", "properties": { "内容": "訪問リハビリテーションみがわ【訪問リハビリテーション】茨城県　水戸市　見川町　2131－105", "url": "https://www.kaigokensaku.mhlw.go.jp/08/index.php?action_kouhyou_detail_004_kani=true&JigyosyoCd=0870102225-00&ServiceCd=140&Type=search", "url2": "https://www.ohhashikai.or.jp/migawa" }, "geometry": { "type": "Point", "coordinates": [ 140.425706, 36.358442 ] } },
{ "type": "Feature", "properties": { "内容": "介護老人保健施設　ひまわり水戸【訪問リハビリテーション】茨城県水戸市百合が丘町814-477介護老人保健施設ひまわり水戸", "url": "https://www.kaigokensaku.mhlw.go.jp/08/index.php?action_kouhyou_detail_004_kani=true&JigyosyoCd=0850180100-00&ServiceCd=140&Type=search", "url2": "https://www.mitochuo-hsp.or.jp/kanren_himawari.php" }, "geometry": { "type": "Point", "coordinates": [ 140.507333199999948, 36.3505823 ] } },
{ "type": "Feature", "properties": { "内容": "かたくり訪問リハビリテーション【訪問リハビリテーション】河和田町4516-1", "url": "https://www.kaigokensaku.mhlw.go.jp/08/index.php?action_kouhyou_detail_004_kani=true&JigyosyoCd=0870104775-00&ServiceCd=140&Type=search", "url2": "http://www.suisei.or.jp" }, "geometry": { "type": "Point", "coordinates": [ 140.392487, 36.3485814 ] } },
{ "type": "Feature", "properties": { "内容": "医療法人社団　協栄会　大久保病院【訪問リハビリテーション】茨城県水戸市石川4-4040-32", "url": "https://www.kaigokensaku.mhlw.go.jp/08/index.php?action_kouhyou_detail_004_kani=true&JigyosyoCd=0810111237-00&ServiceCd=140&Type=search", "url2": "https://www.okubo-hsp.or.jp/" }, "geometry": { "type": "Point", "coordinates": [ 140.4249393, 36.3916655 ] } },
{ "type": "Feature", "properties": { "内容": "フロイデ水戸メディカルプラザ　フロイデクリニック水戸【訪問リハビリテーション】茨城県水戸市堀町967‐1", "url": "https://www.kaigokensaku.mhlw.go.jp/08/index.php?action_kouhyou_detail_004_kani=true&JigyosyoCd=0810115477-00&ServiceCd=140&Type=search", "url2": "https://www.hakujinkai.com/satellite" }, "geometry": { "type": "Point", "coordinates": [ 140.433643499999988, 36.4029795 ] } },
{ "type": "Feature", "properties": { "内容": "訪問リハビリテーション　さくら日立【訪問リハビリテーション】日立市城南町1－1－11", "url": "https://www.kaigokensaku.mhlw.go.jp/08/index.php?action_kouhyou_detail_004_kani=true&JigyosyoCd=0870202264-00&ServiceCd=140&Type=search", "url2": "http://www.syujinkai-kh.or.jp/sakurahitachi/" }, "geometry": { "type": "Point", "coordinates": [ 140.647667599999977, 36.5863109 ] } },
{ "type": "Feature", "properties": { "内容": "介護老人保健施設　田尻ヶ丘ヘルシーケア【訪問リハビリテーション】茨城県日立市田尻町2-8-11", "url": "https://www.kaigokensaku.mhlw.go.jp/08/index.php?action_kouhyou_detail_004_kani=true&JigyosyoCd=0850280017-00&ServiceCd=140&Type=search", "url2": "https://healthy-care.org" }, "geometry": { "type": "Point", "coordinates": [ 140.666397299999971, 36.6333947 ] } },
{ "type": "Feature", "properties": { "内容": "介護老人保健施設　しおさい【訪問リハビリテーション】茨城県日立市国分町3-6-1", "url": "https://www.kaigokensaku.mhlw.go.jp/08/index.php?action_kouhyou_detail_004_kani=true&JigyosyoCd=0850280074-00&ServiceCd=140&Type=search", "url2": "http://rouken-shiosai.com" }, "geometry": { "type": "Point", "coordinates": [ 140.648081600000012, 36.5652295 ] } },
{ "type": "Feature", "properties": { "内容": "神立病院【訪問リハビリテーション】茨城県土浦市神立中央５丁目４－２０", "url": "https://www.kaigokensaku.mhlw.go.jp/08/index.php?action_kouhyou_detail_004_kani=true&JigyosyoCd=0810310599-00&ServiceCd=140&Type=search", "url2": "http://www.seisyuukai.com./" }, "geometry": { "type": "Point", "coordinates": [ 140.230269899999939, 36.1205732 ] } },
{ "type": "Feature", "properties": { "内容": "医療法人社団　三輪会　山手医院【訪問リハビリテーション】土浦市国分町7-6", "url": "https://www.kaigokensaku.mhlw.go.jp/08/index.php?action_kouhyou_detail_004_kani=true&JigyosyoCd=0810311704-00&ServiceCd=140&Type=search", "url2": "http//www.yamanote-clinic.com/" }, "geometry": { "type": "Point", "coordinates": [ 140.188541, 36.0662512 ] } },
{ "type": "Feature", "properties": { "内容": "介護老人保健施設　セントラル土浦【訪問リハビリテーション】茨城県土浦市真鍋新町12番10号", "url": "https://www.kaigokensaku.mhlw.go.jp/08/index.php?action_kouhyou_detail_004_kani=true&JigyosyoCd=0850380080-00&ServiceCd=140&Type=search", "url2": "http://www.central.or.jp" }, "geometry": { "type": "Point", "coordinates": [ 140.209355, 36.0905817 ] } },
{ "type": "Feature", "properties": { "内容": "医療法人財団　県南病院【訪問リハビリテーション】中１０８７番地", "url": "https://www.kaigokensaku.mhlw.go.jp/08/index.php?action_kouhyou_detail_004_kani=true&JigyosyoCd=0810310110-00&ServiceCd=140&Type=search", "url2": "http://www.kennan-hospital.com/" }, "geometry": { "type": "Point", "coordinates": [ 140.169208799999979, 36.0480887 ] } },
{ "type": "Feature", "properties": { "内容": "医療法人社団　尽徳会　県西在宅クリニック【訪問リハビリテーション】関戸1635", "url": "https://www.kaigokensaku.mhlw.go.jp/08/index.php?action_kouhyou_detail_004_kani=true&JigyosyoCd=0810411645-00&ServiceCd=140&Type=search", "url2": null }, "geometry": { "type": "Point", "coordinates": [ 139.4491425, 35.6522364 ] } },
{ "type": "Feature", "properties": { "内容": "医療法人　慈政会　介護老人保健施設　平成園【訪問リハビリテーション】茨城県古河市旭町１－１７－３９", "url": "https://www.kaigokensaku.mhlw.go.jp/08/index.php?action_kouhyou_detail_004_kani=true&JigyosyoCd=0850480013-00&ServiceCd=140&Type=search", "url2": "http://www.heiseien.jp" }, "geometry": { "type": "Point", "coordinates": [ 139.72212574484405, 36.197518748859885 ] } },
{ "type": "Feature", "properties": { "内容": "介護老人保健施設けやきの舎【訪問リハビリテーション】茨城県古河市仁連601", "url": "https://www.kaigokensaku.mhlw.go.jp/08/index.php?action_kouhyou_detail_004_kani=true&JigyosyoCd=0870400785-00&ServiceCd=140&Type=search", "url2": "http://www.nogihosp.or.jp" }, "geometry": { "type": "Point", "coordinates": [ 139.8060194, 36.1830133 ] } },
{ "type": "Feature", "properties": { "内容": "訪問リハビリテーション　緋衣草【訪問リハビリテーション】茨城県古河市駒羽根825-1", "url": "https://www.kaigokensaku.mhlw.go.jp/08/index.php?action_kouhyou_detail_004_kani=true&JigyosyoCd=0810410894-00&ServiceCd=140&Type=search", "url2": "https://www.sowa-chuo.com" }, "geometry": { "type": "Point", "coordinates": [ 139.760168599999986, 36.1641344 ] } },
{ "type": "Feature", "properties": { "内容": "医療法人明風会　久保田病院【訪問リハビリテーション】茨城県石岡市行里川26-3", "url": "https://www.kaigokensaku.mhlw.go.jp/08/index.php?action_kouhyou_detail_004_kani=true&JigyosyoCd=0810510644-00&ServiceCd=140&Type=search", "url2": "https://kubota.meds.co.jp/" }, "geometry": { "type": "Point", "coordinates": [ 140.289457, 36.20627 ] } },
{ "type": "Feature", "properties": { "内容": "牛尾病院【訪問リハビリテーション】茨城県龍ケ崎市馴柴町１－15－１", "url": "https://www.kaigokensaku.mhlw.go.jp/08/index.php?action_kouhyou_detail_004_kani=true&JigyosyoCd=0810810564-00&ServiceCd=140&Type=search", "url2": "http://www.ryujinkai.or.jp/" }, "geometry": { "type": "Point", "coordinates": [ 140.147580599999969, 35.928925 ] } },
{ "type": "Feature", "properties": { "内容": "介護老人保健施設しろかね【訪問リハビリテーション】下栗1217", "url": "https://www.kaigokensaku.mhlw.go.jp/08/index.php?action_kouhyou_detail_004_kani=true&JigyosyoCd=0854280013-00&ServiceCd=140&Type=search", "url2": "https://www.rouken-shirokane.com" }, "geometry": { "type": "Point", "coordinates": [ 139.901457599999986, 36.5374697 ] } },
{ "type": "Feature", "properties": { "内容": "医療法人　光潤会　介護老人保健施設　ルーエしもつま【訪問リハビリテーション】茨城県下妻市江1832", "url": "https://www.kaigokensaku.mhlw.go.jp/08/index.php?action_kouhyou_detail_004_kani=true&JigyosyoCd=0851080010-00&ServiceCd=140&Type=search", "url2": "https://ruhe-s.jp/" }, "geometry": { "type": "Point", "coordinates": [ 139.934527300000013, 36.2283602 ] } },
{ "type": "Feature", "properties": { "内容": "医療法人寛正会　水海道さくら病院【訪問リハビリテーション】茨城県常総市水海道森下町４４４７", "url": "https://www.kaigokensaku.mhlw.go.jp/08/index.php?action_kouhyou_detail_004_kani=true&JigyosyoCd=0811110352-00&ServiceCd=140&Type=search", "url2": "http://www.msakura-hsp.com" }, "geometry": { "type": "Point", "coordinates": [ 139.990338900000012, 36.0336718 ] } },
{ "type": "Feature", "properties": { "内容": "けんちの苑　訪問リハビリテーション【訪問リハビリテーション】茨城県常総市豊岡町丙3264番地", "url": "https://www.kaigokensaku.mhlw.go.jp/08/index.php?action_kouhyou_detail_004_kani=true&JigyosyoCd=0871100707-00&ServiceCd=140&Type=search", "url2": "https://www.kenchi.jp/" }, "geometry": { "type": "Point", "coordinates": [ 139.973173731985526, 36.02993670891864 ] } },
{ "type": "Feature", "properties": { "内容": "脳神経外科ブレインピア南太田【訪問リハビリテーション】茨城県常陸太田市谷河原町１１８３－１", "url": "https://www.kaigokensaku.mhlw.go.jp/08/index.php?action_kouhyou_detail_004_kani=true&JigyosyoCd=0811210244-00&ServiceCd=140&Type=search", "url2": "http://www.brainpier.com" }, "geometry": { "type": "Point", "coordinates": [ 140.525192299999958, 36.5154269 ] } },
{ "type": "Feature", "properties": { "内容": "医療法人それいゆ会　高萩それいゆ病院訪問リハビリテーション【訪問リハビリテーション】茨城県高萩市上手綱268番地", "url": "https://www.kaigokensaku.mhlw.go.jp/08/index.php?action_kouhyou_detail_004_kani=true&JigyosyoCd=0811410224-00&ServiceCd=140&Type=search", "url2": "http://www.takahagi-soleil-hospital.jp/" }, "geometry": { "type": "Point", "coordinates": [ 140.696070140948905, 36.729368917271742 ] } },
{ "type": "Feature", "properties": { "内容": "医療法人　愛正会　やすらぎの丘温泉病院【訪問リハビリテーション】茨城県高萩市下手綱1951-6", "url": "https://www.kaigokensaku.mhlw.go.jp/08/index.php?action_kouhyou_detail_004_kani=true&JigyosyoCd=0811410026-00&ServiceCd=140&Type=search", "url2": "http://www.onsenbyoin.com" }, "geometry": { "type": "Point", "coordinates": [ 140.691911399999981, 36.7290229 ] } },
{ "type": "Feature", "properties": { "内容": "介護老人保健施設　博純苑【訪問リハビリテーション】茨城県高萩市秋山625", "url": "https://www.kaigokensaku.mhlw.go.jp/08/index.php?action_kouhyou_detail_004_kani=true&JigyosyoCd=0851480012-00&ServiceCd=140&Type=search", "url2": "https://hakujun.jimdofree.com" }, "geometry": { "type": "Point", "coordinates": [ 140.684970300000032, 36.7152799 ] } },
{ "type": "Feature", "properties": { "内容": "医療法人芳医会　瀧病院（訪問リハ）【訪問リハビリテーション】茨城県北茨城市磯原町磯原２丁目３０５番地", "url": "https://www.kaigokensaku.mhlw.go.jp/08/index.php?action_kouhyou_detail_004_kani=true&JigyosyoCd=0811510163-00&ServiceCd=140&Type=search", "url2": "http://www.takiｈ.jp・" }, "geometry": { "type": "Point", "coordinates": [ 140.739796699999943, 36.7910925 ] } },
{ "type": "Feature", "properties": { "内容": "医療法人芳医会瀧病院【訪問リハビリテーション】北茨城市磯原町磯原2-305", "url": "https://www.kaigokensaku.mhlw.go.jp/08/index.php?action_kouhyou_detail_004_kani=true&JigyosyoCd=08B1500014-00&ServiceCd=140&Type=search", "url2": "https://www.taki-hosp.net/" }, "geometry": { "type": "Point", "coordinates": [ 140.7398042, 36.7911522 ] } },
{ "type": "Feature", "properties": { "内容": "訪問リハビリテーション　おはよう館【訪問リハビリテーション】茨城県北茨城市磯原町磯原1919-4", "url": "https://www.kaigokensaku.mhlw.go.jp/08/index.php?action_kouhyou_detail_004_kani=true&JigyosyoCd=0871500740-00&ServiceCd=140&Type=search", "url2": "http://www.syujinkai-kh.or.jp/ohayoukan/" }, "geometry": { "type": "Point", "coordinates": [ 140.747579200000047, 36.8080688 ] } },
{ "type": "Feature", "properties": { "内容": "介護老人保健施設すみれ【訪問リハビリテーション】茨城県笠間市石井2045", "url": "https://www.kaigokensaku.mhlw.go.jp/08/index.php?action_kouhyou_detail_004_kani=true&JigyosyoCd=0851689117-00&ServiceCd=140&Type=search", "url2": "http://www.seihoukai.jp/" }, "geometry": { "type": "Point", "coordinates": [ 140.2479875, 36.3851369 ] } },
{ "type": "Feature", "properties": { "内容": "訪問リハビリテーションはあとぴあ【訪問リハビリテーション】茨城県取手市井野253", "url": "https://www.kaigokensaku.mhlw.go.jp/08/index.php?action_kouhyou_detail_004_kani=true&JigyosyoCd=0871701579-00&ServiceCd=140&Type=search", "url2": "http://www.haatopia.or.jp" }, "geometry": { "type": "Point", "coordinates": [ 140.0864173, 35.9024497 ] } },
{ "type": "Feature", "properties": { "内容": "つくばセントラル病院【訪問リハビリテーション】茨城県牛久市柏田町1589-3", "url": "https://www.kaigokensaku.mhlw.go.jp/08/index.php?action_kouhyou_detail_004_kani=true&JigyosyoCd=0811910231-00&ServiceCd=140&Type=search", "url2": "www.central.or.jp" }, "geometry": { "type": "Point", "coordinates": [ 140.158539300000029, 35.9822304 ] } },
{ "type": "Feature", "properties": { "内容": "医療法人社団　常仁会　牛久愛和総合病院【訪問リハビリテーション】茨城県牛久市猪子町896", "url": "https://www.kaigokensaku.mhlw.go.jp/08/index.php?action_kouhyou_detail_004_kani=true&JigyosyoCd=0811910025-00&ServiceCd=140&Type=search", "url2": "http://www.jojinkai.com" }, "geometry": { "type": "Point", "coordinates": [ 140.142079100000046, 35.9989861 ] } },
{ "type": "Feature", "properties": { "内容": "いちはら病院【訪問リハビリテーション】茨城県つくば市大曽根3681", "url": "https://www.kaigokensaku.mhlw.go.jp/08/index.php?action_kouhyou_detail_004_kani=true&JigyosyoCd=0812011211-00&ServiceCd=140&Type=search", "url2": "http://www.ichihara-hospital.or.jp" }, "geometry": { "type": "Point", "coordinates": [ 140.0798534, 36.138759 ] } },
{ "type": "Feature", "properties": { "内容": "筑波学園病院訪問リハビリテーション【訪問リハビリテーション】茨城県つくば市上横場2573-1", "url": "https://www.kaigokensaku.mhlw.go.jp/08/index.php?action_kouhyou_detail_004_kani=true&JigyosyoCd=0872001706-00&ServiceCd=140&Type=search", "url2": "http://www.gakuen-hospital.or.jp" }, "geometry": { "type": "Point", "coordinates": [ 140.098784200000011, 36.0391802 ] } },
{ "type": "Feature", "properties": { "内容": "つくばケアセンター　訪問リハビリテーション【訪問リハビリテーション】茨城県つくば市要76", "url": "https://www.kaigokensaku.mhlw.go.jp/08/index.php?action_kouhyou_detail_004_kani=true&JigyosyoCd=0872001268-00&ServiceCd=140&Type=search", "url2": "http://www.tsukuba-kinen.or.jp/" }, "geometry": { "type": "Point", "coordinates": [ 140.080319499999973, 36.1085856 ] } },
{ "type": "Feature", "properties": { "内容": "介護老人保健施設そよかぜ【訪問リハビリテーション】茨城県つくば市上横場2573番地1", "url": "https://www.kaigokensaku.mhlw.go.jp/08/index.php?action_kouhyou_detail_004_kani=true&JigyosyoCd=0852080027-00&ServiceCd=140&Type=search", "url2": "https://www/gakuen-hospital.or.jp" }, "geometry": { "type": "Point", "coordinates": [ 140.098777399999989, 36.0391148 ] } },
{ "type": "Feature", "properties": { "内容": "介護老人保健施設　勝田【訪問リハビリテーション】茨城県ひたちなか市中根5125-2", "url": "https://www.kaigokensaku.mhlw.go.jp/08/index.php?action_kouhyou_detail_004_kani=true&JigyosyoCd=0852180082-00&ServiceCd=140&Type=search", "url2": "https://katsuta-aiyukai.jp/roukenkatsuta/" }, "geometry": { "type": "Point", "coordinates": [ 140.544858799999986, 36.3849732 ] } },
{ "type": "Feature", "properties": { "内容": "みんなの内科外科クリニック　訪問リハビリテーションセンター【訪問リハビリテーション】茨城県ひたちなか市足崎１４７４－８", "url": "https://www.kaigokensaku.mhlw.go.jp/08/index.php?action_kouhyou_detail_004_kani=true&JigyosyoCd=0812111888-00&ServiceCd=140&Type=search", "url2": null }, "geometry": { "type": "Point", "coordinates": [ 140.5526755, 36.4037835 ] } },
{ "type": "Feature", "properties": { "内容": "医療法人社団克仁会　介護老人保健施設サンライズ湊【訪問リハビリテーション】茨城県ひたちなか市阿字ヶ浦字原１４０６－１", "url": "https://www.kaigokensaku.mhlw.go.jp/08/index.php?action_kouhyou_detail_004_kani=true&JigyosyoCd=0852180017-00&ServiceCd=140&Type=search", "url2": "http://www.ktsujinkai.or.jp/sunrise2/index.html" }, "geometry": { "type": "Point", "coordinates": [ 140.616827199999989, 36.3856133 ] } },
{ "type": "Feature", "properties": { "内容": "医療法人鹿神会　大野診療所　リハビリテーション室【訪問リハビリテーション】茨城県鹿嶋市和824-1", "url": "https://www.kaigokensaku.mhlw.go.jp/08/index.php?action_kouhyou_detail_004_kani=true&JigyosyoCd=0812210342-00&ServiceCd=140&Type=search", "url2": "http://kashimashi.info/oonoshinryojyo/" }, "geometry": { "type": "Point", "coordinates": [ 140.6117195, 36.0399731 ] } },
{ "type": "Feature", "properties": { "内容": "守谷慶友病院【訪問リハビリテーション】茨城県守谷市立沢９８０番地１号", "url": "https://www.kaigokensaku.mhlw.go.jp/08/index.php?action_kouhyou_detail_004_kani=true&JigyosyoCd=0812410132-00&ServiceCd=140&Type=search", "url2": "http://www.keiyu.or.jp" }, "geometry": { "type": "Point", "coordinates": [ 139.9788148, 35.953289600000019 ] } },
{ "type": "Feature", "properties": { "内容": "茨城リハビリテーション病院　訪問リハビリテーション【訪問リハビリテーション】同地字仲山360", "url": "https://www.kaigokensaku.mhlw.go.jp/08/index.php?action_kouhyou_detail_004_kani=true&JigyosyoCd=0812410793-00&ServiceCd=140&Type=search", "url2": "https://ymg-irh.jp/" }, "geometry": { "type": "Point", "coordinates": [ 140.01411, 35.952286 ] } },
{ "type": "Feature", "properties": { "内容": "かねこ整形外科クリニック【訪問リハビリテーション】茨城県守谷市立沢982-1", "url": "https://www.kaigokensaku.mhlw.go.jp/08/index.php?action_kouhyou_detail_004_kani=true&JigyosyoCd=0812410710-00&ServiceCd=140&Type=search", "url2": "https://kaneko-reha.wixsite.com/thanks" }, "geometry": { "type": "Point", "coordinates": [ 139.978900900000014, 35.9539049 ] } },
{ "type": "Feature", "properties": { "内容": "大宮フロイデハイム　訪問リハビリテーションセンター【訪問リハビリテーション】茨城県常陸大宮市上町318-1", "url": "https://www.kaigokensaku.mhlw.go.jp/08/index.php?action_kouhyou_detail_004_kani=true&JigyosyoCd=0872500541-00&ServiceCd=140&Type=search", "url2": "https://www.hakujinkai.com/" }, "geometry": { "type": "Point", "coordinates": [ 140.4130131, 36.5490761 ] } },
{ "type": "Feature", "properties": { "内容": "志村大宮病院訪問リハビリテーションセンター【訪問リハビリテーション】茨城県常陸大宮市上町313", "url": "https://www.kaigokensaku.mhlw.go.jp/08/index.php?action_kouhyou_detail_004_kani=true&JigyosyoCd=0812510063-00&ServiceCd=140&Type=search", "url2": "http;//www.hakujinkai.com/" }, "geometry": { "type": "Point", "coordinates": [ 140.413896599999987, 36.5493778 ] } },
{ "type": "Feature", "properties": { "内容": "医療法人芳栄会　介護老人保健施設プラタナスの丘【訪問リハビリテーション】茨城県常陸大宮市宇留野3109", "url": "https://www.kaigokensaku.mhlw.go.jp/08/index.php?action_kouhyou_detail_004_kani=true&JigyosyoCd=0852580026-00&ServiceCd=140&Type=search", "url2": "https://www.platanus.or.jp/" }, "geometry": { "type": "Point", "coordinates": [ 140.4182791, 36.543901 ] } },
{ "type": "Feature", "properties": { "内容": "介護老人保健施設　ごぎょうの里【訪問リハビリテーション】茨城県筑西市小林467-1", "url": "https://www.kaigokensaku.mhlw.go.jp/08/index.php?action_kouhyou_detail_004_kani=true&JigyosyoCd=0850680018-00&ServiceCd=140&Type=search", "url2": "http://gogyo.hs.plala.or.jp/index.html" }, "geometry": { "type": "Point", "coordinates": [ 139.980203800000027, 36.319962 ] } },
{ "type": "Feature", "properties": { "内容": "社会医療法人恒貴会　協和ヘルシーセンター【訪問リハビリテーション】茨城県筑西市門井1669番地2", "url": "https://www.kaigokensaku.mhlw.go.jp/08/index.php?action_kouhyou_detail_004_kani=true&JigyosyoCd=0854180015-00&ServiceCd=140&Type=search", "url2": "http://www.kyowachuo.jp/healthycenter/" }, "geometry": { "type": "Point", "coordinates": [ 140.014880299999959, 36.3290897 ] } },
{ "type": "Feature", "properties": { "内容": "介護老人保健施設いなしきの郷訪問リハビリテーション【訪問リハビリテーション】佐原組新田1378-1", "url": "https://www.kaigokensaku.mhlw.go.jp/08/index.php?action_kouhyou_detail_004_kani=true&JigyosyoCd=0852780014-00&ServiceCd=140&Type=search", "url2": "http://www.koubun.or.jp" }, "geometry": { "type": "Point", "coordinates": [ 140.4092809, 35.9318537 ] } },
{ "type": "Feature", "properties": { "内容": "医療法人聖和会　介護老人保健施設　ホワイトハウス千代田【訪問リハビリテーション】茨城県かすみがうら市東野寺495-2", "url": "https://www.kaigokensaku.mhlw.go.jp/08/index.php?action_kouhyou_detail_004_kani=true&JigyosyoCd=0853080018-00&ServiceCd=140&Type=search", "url2": "http://www.e-seiwakai.jp" }, "geometry": { "type": "Point", "coordinates": [ 140.2621483, 36.1642503 ] } },
{ "type": "Feature", "properties": { "内容": "渡辺病院訪問リハビリテーション事業所【訪問リハビリテーション】茨城県神栖市土合本町2丁目9809番地20", "url": "https://www.kaigokensaku.mhlw.go.jp/08/index.php?action_kouhyou_detail_004_kani=true&JigyosyoCd=0812910248-00&ServiceCd=140&Type=search", "url2": "http://www.doaikai.com" }, "geometry": { "type": "Point", "coordinates": [ 140.777692200000047, 35.7926524 ] } },
{ "type": "Feature", "properties": { "内容": "神栖済生会病院訪問リハビリテーション【訪問リハビリテーション】茨城県神栖市知手中央7-2-45", "url": "https://www.kaigokensaku.mhlw.go.jp/08/index.php?action_kouhyou_detail_004_kani=true&JigyosyoCd=0875200925-00&ServiceCd=140&Type=search", "url2": "https://www.kamisusaisei.jp/" }, "geometry": { "type": "Point", "coordinates": [ 140.709072099999986, 35.872629 ] } },
{ "type": "Feature", "properties": { "内容": "介護老人保健施設　リヒトハウス北浦【訪問リハビリテーション】繁昌１７１２－１", "url": "https://www.kaigokensaku.mhlw.go.jp/08/index.php?action_kouhyou_detail_004_kani=true&JigyosyoCd=0853780021-00&ServiceCd=140&Type=search", "url2": "https://care-net.biz/08/rihito/index.html" }, "geometry": { "type": "Point", "coordinates": [ 140.52132180000001, 36.061228 ] } },
{ "type": "Feature", "properties": { "内容": "介護老人保健施設コミュニティケアセンター樅山　訪問リハビリテーション事業所【訪問リハビリテーション】茨城県鉾田市樅山497", "url": "https://www.kaigokensaku.mhlw.go.jp/08/index.php?action_kouhyou_detail_004_kani=true&JigyosyoCd=0873600530-00&ServiceCd=140&Type=search", "url2": "http://www.momiyama-kai.org/" }, "geometry": { "type": "Point", "coordinates": [ 140.554110400000013, 36.198373 ] } },
{ "type": "Feature", "properties": { "内容": "介護老人保健施設　フロンティア鉾田　春の場所【訪問リハビリテーション】茨城県鉾田市柏熊９８５－１", "url": "https://www.kaigokensaku.mhlw.go.jp/08/index.php?action_kouhyou_detail_004_kani=true&JigyosyoCd=0853680031-00&ServiceCd=140&Type=search", "url2": "http://www15.ocn.ne.jp/~toukokai/index.htm" }, "geometry": { "type": "Point", "coordinates": [ 140.542067800000012, 36.1783637 ] } },
{ "type": "Feature", "properties": { "内容": "小川南病院指定訪問リハビリテーション事業所【訪問リハビリテーション】茨城県小美玉市小川７３３", "url": "https://www.kaigokensaku.mhlw.go.jp/08/index.php?action_kouhyou_detail_004_kani=true&JigyosyoCd=0817410012-00&ServiceCd=140&Type=search", "url2": "http://o-minami.jp" }, "geometry": { "type": "Point", "coordinates": [ 140.357750500000094, 36.1641741 ] } },
{ "type": "Feature", "properties": { "内容": "訪問リハビリテーション事業所　小美玉敬愛の杜【訪問リハビリテーション】茨城県小美玉市中台148", "url": "https://www.kaigokensaku.mhlw.go.jp/08/index.php?action_kouhyou_detail_004_kani=true&JigyosyoCd=0875600462-00&ServiceCd=140&Type=search", "url2": "http://www.heart-pia.com/link/index.html" }, "geometry": { "type": "Point", "coordinates": [ 140.3161599, 36.2248259 ] } },
{ "type": "Feature", "properties": { "内容": "訪問リハビリテーション事業所　小川敬愛の杜【訪問リハビリテーション】茨城県小美玉市野田576-3", "url": "https://www.kaigokensaku.mhlw.go.jp/08/index.php?action_kouhyou_detail_004_kani=true&JigyosyoCd=0875600470-00&ServiceCd=140&Type=search", "url2": "http://www.heart-pia.com" }, "geometry": { "type": "Point", "coordinates": [ 140.369866173587724, 36.192976742506637 ] } },
{ "type": "Feature", "properties": { "内容": "訪問リハビリテーション事業所　桜の郷敬愛の杜【訪問リハビリテーション】茨城県東茨城郡茨城町桜の郷1000番地2", "url": "https://www.kaigokensaku.mhlw.go.jp/08/index.php?action_kouhyou_detail_004_kani=true&JigyosyoCd=0873101810-00&ServiceCd=140&Type=search", "url2": "http//wwwheart-pia.com/meguminokai/" }, "geometry": { "type": "Point", "coordinates": [ 140.414501699999988, 36.3225416 ] } },
{ "type": "Feature", "properties": { "内容": "介護老人保健施設エバーグリーン【訪問リハビリテーション】茨城県東茨城郡茨城町若宮字向ヒ393-1", "url": "https://www.kaigokensaku.mhlw.go.jp/08/index.php?action_kouhyou_detail_004_kani=true&JigyosyoCd=0853180024-00&ServiceCd=140&Type=search", "url2": "https://rouken-evergreen.jp/" }, "geometry": { "type": "Point", "coordinates": [ 140.494430065155029, 36.309109587267891 ] } },
{ "type": "Feature", "properties": { "内容": "ほうもんりはしろさと【訪問リハビリテーション】茨城県東茨城郡城里町阿波山原６０２", "url": "https://www.kaigokensaku.mhlw.go.jp/08/index.php?action_kouhyou_detail_004_kani=true&JigyosyoCd=0873101711-00&ServiceCd=140&Type=search", "url2": null }, "geometry": { "type": "Point", "coordinates": [ 140.375388, 36.4795744 ] } },
{ "type": "Feature", "properties": { "内容": "介護老人保健施設セントラルわかたけ阿見【訪問リハビリテーション】茨城県稲敷郡阿見町阿見5050番12", "url": "https://www.kaigokensaku.mhlw.go.jp/08/index.php?action_kouhyou_detail_004_kani=true&JigyosyoCd=0853880052-00&ServiceCd=140&Type=search", "url2": "https://central.or.jp/facilities/ami_wakatake.php" }, "geometry": { "type": "Point", "coordinates": [ 140.1999625, 36.0305846 ] } },
{ "type": "Feature", "properties": { "内容": "介護老人保健施設夢彩の舎【訪問リハビリテーション】茨城県猿島郡境町若林2269-1", "url": "https://www.kaigokensaku.mhlw.go.jp/08/index.php?action_kouhyou_detail_004_kani=true&JigyosyoCd=0854380045-00&ServiceCd=140&Type=search", "url2": "https://www.nogihosp.or.jp/" }, "geometry": { "type": "Point", "coordinates": [ 139.832414299999982, 36.0778132 ] } },
{ "type": "Feature", "properties": { "内容": "訪問リハビリテーションもえぎ野【訪問リハビリテーション】茨城県北相馬郡利根町もえぎ野台１－１－８", "url": "https://www.kaigokensaku.mhlw.go.jp/08/index.php?action_kouhyou_detail_004_kani=true&JigyosyoCd=0874400534-00&ServiceCd=140&Type=search", "url2": "https://kawachikoseikai.com/" }, "geometry": { "type": "Point", "coordinates": [ 140.1579189, 35.8781915 ] } }
]
}
