{
"type": "FeatureCollection",
"name": "geo_08_看護小規模多機能型居宅介護（複合型サービス）",
"crs": { "type": "name", "properties": { "name": "urn:ogc:def:crs:OGC:1.3:CRS84" } },
"features": [
{ "type": "Feature", "properties": { "内容": "フレアス看護小規模多機能水戸【看護小規模多機能型居宅介護（複合型サービス）】茨城県水戸市堀町1810-1", "url": "https://www.kaigokensaku.mhlw.go.jp/08/index.php?action_kouhyou_detail_004_kani=true&JigyosyoCd=0890100621-00&ServiceCd=&Type=search", "url2": null }, "geometry": { "type": "Point", "coordinates": [ 140.421306, 36.400206 ] } },
{ "type": "Feature", "properties": { "内容": "みと南部ケアセンター【看護小規模多機能型居宅介護（複合型サービス）】茨城県水戸市平須町2－72", "url": "https://www.kaigokensaku.mhlw.go.jp/08/index.php?action_kouhyou_detail_004_kani=true&JigyosyoCd=0890100555-00&ServiceCd=&Type=search", "url2": "https://www.swc-jinshinkai.com/" }, "geometry": { "type": "Point", "coordinates": [ 140.432774099999989, 36.3186896 ] } },
{ "type": "Feature", "properties": { "内容": "セントケア看護小規模水戸千波【看護小規模多機能型居宅介護（複合型サービス）】茨城県水戸市元吉田町236-18", "url": "https://www.kaigokensaku.mhlw.go.jp/08/index.php?action_kouhyou_detail_004_kani=true&JigyosyoCd=0890100449-00&ServiceCd=&Type=search", "url2": "http://care-net.biz/08/saintcare-i/" }, "geometry": { "type": "Point", "coordinates": [ 140.470424900000012, 36.3533956 ] } },
{ "type": "Feature", "properties": { "内容": "フロイデ看護小規模多機能ホーム水戸堀町【看護小規模多機能型居宅介護（複合型サービス）】茨城県水戸市堀町967-1", "url": "https://www.kaigokensaku.mhlw.go.jp/08/index.php?action_kouhyou_detail_004_kani=true&JigyosyoCd=0890100571-00&ServiceCd=&Type=search", "url2": "https://www.hakujinkai.com" }, "geometry": { "type": "Point", "coordinates": [ 140.433643499999988, 36.4029795 ] } },
{ "type": "Feature", "properties": { "内容": "看護小規模多機能型居宅介護事業所絆【看護小規模多機能型居宅介護（複合型サービス）】水戸市緑町3-5-40", "url": "https://www.kaigokensaku.mhlw.go.jp/08/index.php?action_kouhyou_detail_004_kani=true&JigyosyoCd=0890100134-00&ServiceCd=&Type=search", "url2": "http://www.ina-kizuna.com" }, "geometry": { "type": "Point", "coordinates": [ 140.446986700000053, 36.381962 ] } },
{ "type": "Feature", "properties": { "内容": "コミュニティヘルスケアせいらん【看護小規模多機能型居宅介護（複合型サービス）】酒門町268-2", "url": "https://www.kaigokensaku.mhlw.go.jp/08/index.php?action_kouhyou_detail_004_kani=true&JigyosyoCd=0890100670-00&ServiceCd=&Type=search", "url2": "https://www.seirankai-jp.org/oobanaika" }, "geometry": { "type": "Point", "coordinates": [ 140.492514, 36.3527399 ] } },
{ "type": "Feature", "properties": { "内容": "看護小規模多機能型居宅介護らいおんハート満天【看護小規模多機能型居宅介護（複合型サービス）】茨城県日立市川尻町1-35-17", "url": "https://www.kaigokensaku.mhlw.go.jp/08/index.php?action_kouhyou_detail_004_kani=true&JigyosyoCd=0890200223-00&ServiceCd=&Type=search", "url2": "https://lion-heart.co/shops/multifunction_manten/" }, "geometry": { "type": "Point", "coordinates": [ 140.697763066270483, 36.654720392950793 ] } },
{ "type": "Feature", "properties": { "内容": "看護小規模多機能型居宅介護「山手」【看護小規模多機能型居宅介護（複合型サービス）】国分町　7-6", "url": "https://www.kaigokensaku.mhlw.go.jp/08/index.php?action_kouhyou_detail_004_kani=true&JigyosyoCd=0890300247-00&ServiceCd=&Type=search", "url2": "http://www.yamanote-clinic.com" }, "geometry": { "type": "Point", "coordinates": [ 140.1884794, 36.0662078 ] } },
{ "type": "Feature", "properties": { "内容": "看護小規模多機能ケアポプリ【看護小規模多機能型居宅介護（複合型サービス）】茨城県古河市駒ケ崎14－1", "url": "https://www.kaigokensaku.mhlw.go.jp/08/index.php?action_kouhyou_detail_004_kani=true&JigyosyoCd=0890400146-00&ServiceCd=&Type=search", "url2": "http://www.kogahosp.jp" }, "geometry": { "type": "Point", "coordinates": [ 139.7052675, 36.1711324 ] } },
{ "type": "Feature", "properties": { "内容": "セントケア看護小規模石岡【看護小規模多機能型居宅介護（複合型サービス）】鹿の子1-14-12", "url": "https://www.kaigokensaku.mhlw.go.jp/08/index.php?action_kouhyou_detail_004_kani=true&JigyosyoCd=0890500218-00&ServiceCd=&Type=search", "url2": null }, "geometry": { "type": "Point", "coordinates": [ 140.2604255, 36.2029192 ] } },
{ "type": "Feature", "properties": { "内容": "看多機かえりえ結城【看護小規模多機能型居宅介護（複合型サービス）】結城9804⁻1", "url": "https://www.kaigokensaku.mhlw.go.jp/08/index.php?action_kouhyou_detail_004_kani=true&JigyosyoCd=0890700131-00&ServiceCd=&Type=search", "url2": "https://search.yasashiite.com/detail/kantaki_yuki/" }, "geometry": { "type": "Point", "coordinates": [ 139.8602065, 36.2906453 ] } },
{ "type": "Feature", "properties": { "内容": "看護小規模多機能ホーム友部【看護小規模多機能型居宅介護（複合型サービス）】茨城県笠間市鯉渕6526-19", "url": "https://www.kaigokensaku.mhlw.go.jp/08/index.php?action_kouhyou_detail_004_kani=true&JigyosyoCd=0891600173-00&ServiceCd=&Type=search", "url2": "http://hakuyukai-sfg.com" }, "geometry": { "type": "Point", "coordinates": [ 140.321426400000064, 36.3490917 ] } },
{ "type": "Feature", "properties": { "内容": "セントケア看護小規模友部【看護小規模多機能型居宅介護（複合型サービス）】茨城県笠間市南友部1955-4", "url": "https://www.kaigokensaku.mhlw.go.jp/08/index.php?action_kouhyou_detail_004_kani=true&JigyosyoCd=0891600223-00&ServiceCd=&Type=search", "url2": "https://care-net.biz/08/saintcare-i/" }, "geometry": { "type": "Point", "coordinates": [ 140.308342180711293, 36.355823745728472 ] } },
{ "type": "Feature", "properties": { "内容": "看護小規模多機能型　なかよし【看護小規模多機能型居宅介護（複合型サービス）】茨城県つくば市北条4326-2", "url": "https://www.kaigokensaku.mhlw.go.jp/08/index.php?action_kouhyou_detail_004_kani=true&JigyosyoCd=0892000175-00&ServiceCd=&Type=search", "url2": "http://www.iimura-iin.serio.jp" }, "geometry": { "type": "Point", "coordinates": [ 140.089936099999932, 36.1759613 ] } },
{ "type": "Feature", "properties": { "内容": "フロイデ看護小規模多機能ホームひたちなか【看護小規模多機能型居宅介護（複合型サービス）】茨城県ひたちなか市足崎1474番地8", "url": "https://www.kaigokensaku.mhlw.go.jp/08/index.php?action_kouhyou_detail_004_kani=true&JigyosyoCd=0892100405-00&ServiceCd=&Type=search", "url2": "https://www.hakujinkai.com" }, "geometry": { "type": "Point", "coordinates": [ 140.5526755, 36.4037835 ] } },
{ "type": "Feature", "properties": { "内容": "看護小規模多機能型居宅介護もりや【看護小規模多機能型居宅介護（複合型サービス）】茨城県守谷市板戸井字中ノ台2841-1", "url": "https://www.kaigokensaku.mhlw.go.jp/08/index.php?action_kouhyou_detail_004_kani=true&JigyosyoCd=0892400110-00&ServiceCd=&Type=search", "url2": "http://www.yushoukai.jp/kantaki/moriya/" }, "geometry": { "type": "Point", "coordinates": [ 139.944379700000013, 35.970665 ] } },
{ "type": "Feature", "properties": { "内容": "看護小規模多機能型居宅介護支援事業所Ｌｕｃｋｙ【看護小規模多機能型居宅介護（複合型サービス）】茨城県神栖市高浜２４９４－１２", "url": "https://www.kaigokensaku.mhlw.go.jp/08/index.php?action_kouhyou_detail_004_kani=true&JigyosyoCd=0895200053-00&ServiceCd=&Type=search", "url2": null }, "geometry": { "type": "Point", "coordinates": [ 140.638532199999986, 35.8712456 ] } },
{ "type": "Feature", "properties": { "内容": "医療法人　三尚会　複合型サービス事業所にこにこ【看護小規模多機能型居宅介護（複合型サービス）】茨城県鉾田市鉾田2570にこにこステーション", "url": "https://www.kaigokensaku.mhlw.go.jp/08/index.php?action_kouhyou_detail_004_kani=true&JigyosyoCd=0895400042-00&ServiceCd=&Type=search", "url2": "www.takasu-hospital.com/nikoniko/" }, "geometry": { "type": "Point", "coordinates": [ 140.509677112828086, 36.153358984036245 ] } },
{ "type": "Feature", "properties": { "内容": "看護小規模多機能型居宅介護事業所さくらす【看護小規模多機能型居宅介護（複合型サービス）】茨城県稲敷郡阿見町荒川本郷1854-21看護小規模多機能型居宅介護事業所さくらす", "url": "https://www.kaigokensaku.mhlw.go.jp/08/index.php?action_kouhyou_detail_004_kani=true&JigyosyoCd=0893800060-00&ServiceCd=&Type=search", "url2": "https://www.comedico.jp/" }, "geometry": { "type": "Point", "coordinates": [ 140.183443, 36.01668 ] } }
]
}
