{
"type": "FeatureCollection",
"name": "geo_08_幼稚園",
"crs": { "type": "name", "properties": { "name": "urn:ogc:def:crs:EPSG::6668" } },
"features": [
{ "type": "Feature", "properties": { "P29_001": "08201", "P29_002": "A108110000015", "P29_003": "16011", "P29_004": "茨城大学教育学部附属幼稚園", "P29_005": "茨城県水戸市三の丸2-6-8", "P29_006": "1", "P29_007": "0", "P29_008": "00", "P29_009": null }, "geometry": { "type": "Point", "coordinates": [ 140.479565000831087, 36.37455800088955 ] } },
{ "type": "Feature", "properties": { "P29_001": "08201", "P29_002": "A108220100011", "P29_003": "16011", "P29_004": "水戸市立常磐認定こども園", "P29_005": "茨城県水戸市西原1-3-65", "P29_006": "3", "P29_007": "0", "P29_008": "00", "P29_009": null }, "geometry": { "type": "Point", "coordinates": [ 140.44417199866885, 36.388147000004892 ] } },
{ "type": "Feature", "properties": { "P29_001": "08201", "P29_002": "A108220100020", "P29_003": "16011", "P29_004": "水戸市立浜田認定こども園", "P29_005": "茨城県水戸市浜田1-1-2", "P29_006": "3", "P29_007": "0", "P29_008": "00", "P29_009": null }, "geometry": { "type": "Point", "coordinates": [ 140.494711868864812, 36.362942616208478 ] } },
{ "type": "Feature", "properties": { "P29_001": "08201", "P29_002": "A108220100048", "P29_003": "16011", "P29_004": "水戸市立緑岡幼稚園", "P29_005": "茨城県水戸市見川町2563", "P29_006": "3", "P29_007": "0", "P29_008": "00", "P29_009": null }, "geometry": { "type": "Point", "coordinates": [ 140.443700674466982, 36.355001782831977 ] } },
{ "type": "Feature", "properties": { "P29_001": "08201", "P29_002": "A108220100057", "P29_003": "16011", "P29_004": "水戸市立見川幼稚園", "P29_005": "茨城県水戸市見川2-96-18", "P29_006": "3", "P29_007": "0", "P29_008": "00", "P29_009": null }, "geometry": { "type": "Point", "coordinates": [ 140.438537639258612, 36.372084204182904 ] } },
{ "type": "Feature", "properties": { "P29_001": "08201", "P29_002": "A108220100066", "P29_003": "16011", "P29_004": "水戸市立寿幼稚園", "P29_005": "茨城県水戸市平須町1761", "P29_006": "3", "P29_007": "0", "P29_008": "00", "P29_009": null }, "geometry": { "type": "Point", "coordinates": [ 140.429556998095819, 36.328037003865795 ] } },
{ "type": "Feature", "properties": { "P29_001": "08201", "P29_002": "A108220100075", "P29_003": "16011", "P29_004": "水戸市立石川幼稚園", "P29_005": "茨城県水戸市石川4-4037-6", "P29_006": "3", "P29_007": "0", "P29_008": "00", "P29_009": null }, "geometry": { "type": "Point", "coordinates": [ 140.421779997987812, 36.390637002968631 ] } },
{ "type": "Feature", "properties": { "P29_001": "08201", "P29_002": "A108220100093", "P29_003": "16011", "P29_004": "水戸市立国田幼稚園", "P29_005": "茨城県水戸市下国井町2595-1", "P29_006": "3", "P29_007": "0", "P29_008": "00", "P29_009": null }, "geometry": { "type": "Point", "coordinates": [ 140.433458582789825, 36.427092319530992 ] } },
{ "type": "Feature", "properties": { "P29_001": "08201", "P29_002": "A108220100100", "P29_003": "16011", "P29_004": "水戸市立酒門幼稚園", "P29_005": "茨城県水戸市酒門町1245-3", "P29_006": "3", "P29_007": "0", "P29_008": "00", "P29_009": null }, "geometry": { "type": "Point", "coordinates": [ 140.491295000925078, 36.345647002244007 ] } },
{ "type": "Feature", "properties": { "P29_001": "08201", "P29_002": "A108220100137", "P29_003": "16011", "P29_004": "水戸市立吉田が丘幼稚園", "P29_005": "茨城県水戸市元吉田町1736-9", "P29_006": "3", "P29_007": "0", "P29_008": "00", "P29_009": null }, "geometry": { "type": "Point", "coordinates": [ 140.476420352214944, 36.345987150461944 ] } },
{ "type": "Feature", "properties": { "P29_001": "08201", "P29_002": "A108220100146", "P29_003": "16011", "P29_004": "水戸市立笠原幼稚園", "P29_005": "茨城県水戸市笠原町92-1", "P29_006": "3", "P29_007": "0", "P29_008": "00", "P29_009": null }, "geometry": { "type": "Point", "coordinates": [ 140.457764745158755, 36.342195011785343 ] } },
{ "type": "Feature", "properties": { "P29_001": "08202", "P29_002": "A108220200065", "P29_003": "16011", "P29_004": "日立市立大沼幼稚園", "P29_005": "茨城県日立市東金沢町5-6-6", "P29_006": "3", "P29_007": "0", "P29_008": "00", "P29_009": null }, "geometry": { "type": "Point", "coordinates": [ 140.62471899471376, 36.538129996467546 ] } },
{ "type": "Feature", "properties": { "P29_001": "08202", "P29_002": "A108220200083", "P29_003": "16011", "P29_004": "日立市立田尻幼稚園", "P29_005": "茨城県日立市田尻町4-39-2", "P29_006": "3", "P29_007": "0", "P29_008": "00", "P29_009": null }, "geometry": { "type": "Point", "coordinates": [ 140.677532531031687, 36.624871191476437 ] } },
{ "type": "Feature", "properties": { "P29_001": "08202", "P29_002": "A108220200109", "P29_003": "16011", "P29_004": "日立市立櫛形幼稚園", "P29_005": "茨城県日立市十王町伊師本郷506", "P29_006": "3", "P29_007": "0", "P29_008": "00", "P29_009": null }, "geometry": { "type": "Point", "coordinates": [ 140.689261996718301, 36.676540003697433 ] } },
{ "type": "Feature", "properties": { "P29_001": "08210", "P29_002": "A108221000029", "P29_003": "16011", "P29_004": "下妻市立上妻幼稚園", "P29_005": "茨城県下妻市半谷426", "P29_006": "3", "P29_007": "0", "P29_008": "00", "P29_009": null }, "geometry": { "type": "Point", "coordinates": [ 139.935165911249214, 36.218572259960546 ] } },
{ "type": "Feature", "properties": { "P29_001": "08210", "P29_002": "A108221000065", "P29_003": "16011", "P29_004": "下妻市立ちよかわ幼稚園", "P29_005": "茨城県下妻市宗道2095", "P29_006": "3", "P29_007": "0", "P29_008": "00", "P29_009": null }, "geometry": { "type": "Point", "coordinates": [ 139.974074534772512, 36.152301123890467 ] } },
{ "type": "Feature", "properties": { "P29_001": "08211", "P29_002": "A108221100064", "P29_003": "16011", "P29_004": "常総市立おひさま幼稚園", "P29_005": "茨城県常総市新石下4365", "P29_006": "3", "P29_007": "0", "P29_008": "00", "P29_009": null }, "geometry": { "type": "Point", "coordinates": [ 139.980872211391244, 36.113954644947071 ] } },
{ "type": "Feature", "properties": { "P29_001": "08211", "P29_002": "A108221100073", "P29_003": "16011", "P29_004": "常総市立にじいろ幼稚園", "P29_005": "茨城県常総市鴻野山157", "P29_006": "3", "P29_007": "0", "P29_008": "00", "P29_009": null }, "geometry": { "type": "Point", "coordinates": [ 139.926342004962095, 36.113919998329457 ] } },
{ "type": "Feature", "properties": { "P29_001": "08212", "P29_002": "A108221200018", "P29_003": "16011", "P29_004": "常陸太田市立太田進徳幼稚園", "P29_005": "茨城県常陸太田市内堀町256", "P29_006": "3", "P29_007": "0", "P29_008": "00", "P29_009": null }, "geometry": { "type": "Point", "coordinates": [ 140.520107616840534, 36.544211546527414 ] } },
{ "type": "Feature", "properties": { "P29_001": "08212", "P29_002": "A108221200027", "P29_003": "16011", "P29_004": "常陸太田市立幸久幼稚園", "P29_005": "茨城県常陸太田市上河合町1287-2", "P29_006": "3", "P29_007": "0", "P29_008": "00", "P29_009": null }, "geometry": { "type": "Point", "coordinates": [ 140.513909538469761, 36.506629967574931 ] } },
{ "type": "Feature", "properties": { "P29_001": "08214", "P29_002": "A108221400043", "P29_003": "16011", "P29_004": "高萩市立秋山幼稚園", "P29_005": "茨城県高萩市大字島名2230", "P29_006": "3", "P29_007": "0", "P29_008": "00", "P29_009": null }, "geometry": { "type": "Point", "coordinates": [ 140.687292004778641, 36.719373996963739 ] } },
{ "type": "Feature", "properties": { "P29_001": "08217", "P29_002": "A108221700013", "P29_003": "16011", "P29_004": "取手市立藤代幼稚園", "P29_005": "茨城県取手市藤代53", "P29_006": "3", "P29_007": "0", "P29_008": "00", "P29_009": null }, "geometry": { "type": "Point", "coordinates": [ 140.109021003594535, 35.927816000450917 ] } },
{ "type": "Feature", "properties": { "P29_001": "08219", "P29_002": "A108221900011", "P29_003": "16011", "P29_004": "牛久市立第一幼稚園", "P29_005": "茨城県牛久市東猯穴町1341-6", "P29_006": "3", "P29_007": "0", "P29_008": "00", "P29_009": null }, "geometry": { "type": "Point", "coordinates": [ 140.154483231084811, 36.014677029343495 ] } },
{ "type": "Feature", "properties": { "P29_001": "08219", "P29_002": "A108221900020", "P29_003": "16011", "P29_004": "牛久市立第二幼稚園", "P29_005": "茨城県牛久市牛久町2566-1", "P29_006": "3", "P29_007": "0", "P29_008": "00", "P29_009": null }, "geometry": { "type": "Point", "coordinates": [ 140.133094997803624, 35.964645075723681 ] } },
{ "type": "Feature", "properties": { "P29_001": "08220", "P29_002": "A108222000036", "P29_003": "16011", "P29_004": "つくば市立桜幼稚園", "P29_005": "茨城県つくば市栄296", "P29_006": "3", "P29_007": "0", "P29_008": "00", "P29_009": null }, "geometry": { "type": "Point", "coordinates": [ 140.141165001104213, 36.103659999178838 ] } },
{ "type": "Feature", "properties": { "P29_001": "08220", "P29_002": "A108222000045", "P29_003": "16011", "P29_004": "つくば市立竹園東幼稚園", "P29_005": "茨城県つくば市竹園3-12-1", "P29_006": "3", "P29_007": "0", "P29_008": "00", "P29_009": null }, "geometry": { "type": "Point", "coordinates": [ 140.12457200337343, 36.081894003301258 ] } },
{ "type": "Feature", "properties": { "P29_001": "08220", "P29_002": "A108222000054", "P29_003": "16011", "P29_004": "つくば市立並木幼稚園", "P29_005": "茨城県つくば市並木2-10-2", "P29_006": "3", "P29_007": "0", "P29_008": "00", "P29_009": null }, "geometry": { "type": "Point", "coordinates": [ 140.142056387673421, 36.063373887672789 ] } },
{ "type": "Feature", "properties": { "P29_001": "08220", "P29_002": "A108222000063", "P29_003": "16011", "P29_004": "つくば市立吾妻幼稚園", "P29_005": "茨城県つくば市吾妻2-12", "P29_006": "3", "P29_007": "0", "P29_008": "00", "P29_009": null }, "geometry": { "type": "Point", "coordinates": [ 140.115205000133273, 36.085074997262673 ] } },
{ "type": "Feature", "properties": { "P29_001": "08220", "P29_002": "A108222000072", "P29_003": "16011", "P29_004": "つくば市立桜南幼稚園", "P29_005": "茨城県つくば市並木4-7-4", "P29_006": "3", "P29_007": "0", "P29_008": "00", "P29_009": null }, "geometry": { "type": "Point", "coordinates": [ 140.145506474557209, 36.061428223704119 ] } },
{ "type": "Feature", "properties": { "P29_001": "08220", "P29_002": "A108222000081", "P29_003": "16011", "P29_004": "つくば市立島名幼稚園", "P29_005": "茨城県つくば市島名537-1", "P29_006": "3", "P29_007": "0", "P29_008": "00", "P29_009": null }, "geometry": { "type": "Point", "coordinates": [ 140.047579999573799, 36.071873002336716 ] } },
{ "type": "Feature", "properties": { "P29_001": "08220", "P29_002": "A108222000090", "P29_003": "16011", "P29_004": "つくば市立谷田部幼稚園", "P29_005": "茨城県つくば市境田191-1", "P29_006": "3", "P29_007": "0", "P29_008": "00", "P29_009": null }, "geometry": { "type": "Point", "coordinates": [ 140.079716692391315, 36.010518035624699 ] } },
{ "type": "Feature", "properties": { "P29_001": "08220", "P29_002": "A108222000107", "P29_003": "16011", "P29_004": "つくば市立手代木南幼稚園", "P29_005": "茨城県つくば市松代4-16-2", "P29_006": "3", "P29_007": "0", "P29_008": "00", "P29_009": null }, "geometry": { "type": "Point", "coordinates": [ 140.1034825350105, 36.062686539192249 ] } },
{ "type": "Feature", "properties": { "P29_001": "08220", "P29_002": "A108222000116", "P29_003": "16011", "P29_004": "つくば市立松代幼稚園", "P29_005": "茨城県つくば市松代2-18", "P29_006": "3", "P29_007": "0", "P29_008": "00", "P29_009": null }, "geometry": { "type": "Point", "coordinates": [ 140.099707845157297, 36.07037488279277 ] } },
{ "type": "Feature", "properties": { "P29_001": "08220", "P29_002": "A108222000125", "P29_003": "16011", "P29_004": "つくば市立真瀬幼稚園", "P29_005": "茨城県つくば市真瀬2103", "P29_006": "3", "P29_007": "0", "P29_008": "00", "P29_009": null }, "geometry": { "type": "Point", "coordinates": [ 140.035508302245319, 36.05751433143687 ] } },
{ "type": "Feature", "properties": { "P29_001": "08220", "P29_002": "A108222000134", "P29_003": "16011", "P29_004": "つくば市立上郷幼稚園", "P29_005": "茨城県つくば市上郷2499", "P29_006": "3", "P29_007": "0", "P29_008": "00", "P29_009": null }, "geometry": { "type": "Point", "coordinates": [ 140.015744029444591, 36.09765191235153 ] } },
{ "type": "Feature", "properties": { "P29_001": "08220", "P29_002": "A108222000143", "P29_003": "16011", "P29_004": "つくば市立東幼稚園", "P29_005": "茨城県つくば市東2-27-1", "P29_006": "3", "P29_007": "0", "P29_008": "00", "P29_009": null }, "geometry": { "type": "Point", "coordinates": [ 140.131230997514024, 36.052342004221494 ] } },
{ "type": "Feature", "properties": { "P29_001": "08220", "P29_002": "A108222000152", "P29_003": "16011", "P29_004": "つくば市立筑波幼稚園", "P29_005": "茨城県つくば市平沢80", "P29_006": "3", "P29_007": "0", "P29_008": "00", "P29_009": null }, "geometry": { "type": "Point", "coordinates": [ 140.099844324559115, 36.183126723676779 ] } },
{ "type": "Feature", "properties": { "P29_001": "08220", "P29_002": "A108222000161", "P29_003": "16011", "P29_004": "つくば市立大穂幼稚園", "P29_005": "茨城県つくば市篠崎557-1", "P29_006": "3", "P29_007": "0", "P29_008": "00", "P29_009": null }, "geometry": { "type": "Point", "coordinates": [ 140.060275004156722, 36.136625998166799 ] } },
{ "type": "Feature", "properties": { "P29_001": "08220", "P29_002": "A108222000170", "P29_003": "16011", "P29_004": "つくば市立二の宮幼稚園", "P29_005": "茨城県つくば市二の宮4-9-3", "P29_006": "3", "P29_007": "0", "P29_008": "00", "P29_009": null }, "geometry": { "type": "Point", "coordinates": [ 140.117816997606639, 36.060697002002286 ] } },
{ "type": "Feature", "properties": { "P29_001": "08220", "P29_002": "A108222000189", "P29_003": "16011", "P29_004": "つくば市立竹園西幼稚園", "P29_005": "茨城県つくば市竹園1-15-2", "P29_006": "3", "P29_007": "0", "P29_008": "00", "P29_009": null }, "geometry": { "type": "Point", "coordinates": [ 140.118269999834695, 36.08085299884273 ] } },
{ "type": "Feature", "properties": { "P29_001": "08220", "P29_002": "A108222000198", "P29_003": "16011", "P29_004": "つくば市立茎崎幼稚園", "P29_005": "茨城県つくば市小茎798-1", "P29_006": "3", "P29_007": "0", "P29_008": "00", "P29_009": null }, "geometry": { "type": "Point", "coordinates": [ 140.109771608983294, 35.994767916618407 ] } },
{ "type": "Feature", "properties": { "P29_001": "08221", "P29_002": "A108222100017", "P29_003": "16011", "P29_004": "ひたちなか市立那珂湊第一幼稚園", "P29_005": "茨城県ひたちなか市山ノ上町1-1", "P29_006": "3", "P29_007": "0", "P29_008": "00", "P29_009": null }, "geometry": { "type": "Point", "coordinates": [ 140.585499221572775, 36.340595113689531 ] } },
{ "type": "Feature", "properties": { "P29_001": "08221", "P29_002": "A108222100035", "P29_003": "16011", "P29_004": "ひたちなか市立那珂湊第三幼稚園", "P29_005": "茨城県ひたちなか市西十三奉行13251-1", "P29_006": "3", "P29_007": "0", "P29_008": "00", "P29_009": null }, "geometry": { "type": "Point", "coordinates": [ 140.592612998391786, 36.360162004932562 ] } },
{ "type": "Feature", "properties": { "P29_001": "08221", "P29_002": "A108222100044", "P29_003": "16011", "P29_004": "ひたちなか市立佐野幼稚園", "P29_005": "茨城県ひたちなか市稲田25", "P29_006": "3", "P29_007": "0", "P29_008": "00", "P29_009": null }, "geometry": { "type": "Point", "coordinates": [ 140.532369004604476, 36.433611003830066 ] } },
{ "type": "Feature", "properties": { "P29_001": "08221", "P29_002": "A108222100053", "P29_003": "16011", "P29_004": "ひたちなか市立東石川幼稚園", "P29_005": "茨城県ひたちなか市東石川1-1-3", "P29_006": "3", "P29_007": "0", "P29_008": "00", "P29_009": null }, "geometry": { "type": "Point", "coordinates": [ 140.529248998866763, 36.395794995668041 ] } },
{ "type": "Feature", "properties": { "P29_001": "08222", "P29_002": "A108222200016", "P29_003": "16011", "P29_004": "鹿嶋市立はまなす幼稚園", "P29_005": "茨城県鹿嶋市中595", "P29_006": "3", "P29_007": "0", "P29_008": "00", "P29_009": null }, "geometry": { "type": "Point", "coordinates": [ 140.588975776192456, 36.01152845452571 ] } },
{ "type": "Feature", "properties": { "P29_001": "08222", "P29_002": "A108222200025", "P29_003": "16011", "P29_004": "鹿嶋市立三笠幼稚園", "P29_005": "茨城県鹿嶋市平井1184-4", "P29_006": "3", "P29_007": "0", "P29_008": "00", "P29_009": null }, "geometry": { "type": "Point", "coordinates": [ 140.647132001282159, 35.97092400284788 ] } },
{ "type": "Feature", "properties": { "P29_001": "08222", "P29_002": "A108222200034", "P29_003": "16011", "P29_004": "鹿嶋市立高松幼稚園", "P29_005": "茨城県鹿嶋市粟生301", "P29_006": "3", "P29_007": "0", "P29_008": "00", "P29_009": null }, "geometry": { "type": "Point", "coordinates": [ 140.650494062540275, 35.941968094449841 ] } },
{ "type": "Feature", "properties": { "P29_001": "08222", "P29_002": "A108222200043", "P29_003": "16011", "P29_004": "鹿嶋市立波野幼稚園", "P29_005": "茨城県鹿嶋市神向寺126", "P29_006": "3", "P29_007": "0", "P29_008": "00", "P29_009": null }, "geometry": { "type": "Point", "coordinates": [ 140.642684616998849, 35.988594754959529 ] } },
{ "type": "Feature", "properties": { "P29_001": "08225", "P29_002": "A108222500013", "P29_003": "16011", "P29_004": "常陸大宮市立大宮幼稚園", "P29_005": "茨城県常陸大宮市姥賀町607-7", "P29_006": "3", "P29_007": "0", "P29_008": "00", "P29_009": null }, "geometry": { "type": "Point", "coordinates": [ 140.405317995939129, 36.561407001728107 ] } },
{ "type": "Feature", "properties": { "P29_001": "08226", "P29_002": "A108222600012", "P29_003": "16011", "P29_004": "那珂市立ひまわり幼稚園", "P29_005": "茨城県那珂市菅谷174-1", "P29_006": "3", "P29_007": "0", "P29_008": "00", "P29_009": null }, "geometry": { "type": "Point", "coordinates": [ 140.487825500843655, 36.460513220131311 ] } },
{ "type": "Feature", "properties": { "P29_001": "08227", "P29_002": "A108222700011", "P29_003": "16011", "P29_004": "筑西市立明野幼稚園", "P29_005": "茨城県筑西市成井622", "P29_006": "3", "P29_007": "0", "P29_008": "00", "P29_009": null }, "geometry": { "type": "Point", "coordinates": [ 140.022917245850607, 36.245774176561653 ] } },
{ "type": "Feature", "properties": { "P29_001": "08228", "P29_002": "A108222800010", "P29_003": "16011", "P29_004": "坂東市立猿島幼稚園", "P29_005": "茨城県坂東市沓掛6083-3", "P29_006": "3", "P29_007": "0", "P29_008": "00", "P29_009": null }, "geometry": { "type": "Point", "coordinates": [ 139.909087996060919, 36.100782002054935 ] } },
{ "type": "Feature", "properties": { "P29_001": "08229", "P29_002": "A108222900019", "P29_003": "16011", "P29_004": "稲敷市立新利根幼稚園", "P29_005": "茨城県稲敷市上根本3301", "P29_006": "3", "P29_007": "0", "P29_008": "00", "P29_009": null }, "geometry": { "type": "Point", "coordinates": [ 140.261761079097624, 35.919046894267389 ] } },
{ "type": "Feature", "properties": { "P29_001": "08229", "P29_002": "A108222900028", "P29_003": "16011", "P29_004": "稲敷市立ゆたか幼稚園", "P29_005": "茨城県稲敷市福田1169", "P29_006": "3", "P29_007": "0", "P29_008": "00", "P29_009": null }, "geometry": { "type": "Point", "coordinates": [ 140.369633002151915, 35.939007996439912 ] } },
{ "type": "Feature", "properties": { "P29_001": "08229", "P29_002": "A108222900037", "P29_003": "16011", "P29_004": "稲敷市立みのり幼稚園", "P29_005": "茨城県稲敷市結佐2534-8", "P29_006": "3", "P29_007": "0", "P29_008": "00", "P29_009": null }, "geometry": { "type": "Point", "coordinates": [ 140.456890684718047, 35.927216271721804 ] } },
{ "type": "Feature", "properties": { "P29_001": "08232", "P29_002": "A108223200014", "P29_003": "16011", "P29_004": "神栖市立うずも幼稚園", "P29_005": "茨城県神栖市知手中央5-9-7", "P29_006": "3", "P29_007": "0", "P29_008": "00", "P29_009": null }, "geometry": { "type": "Point", "coordinates": [ 140.710111997211584, 35.878053996403402 ] } },
{ "type": "Feature", "properties": { "P29_001": "08232", "P29_002": "A108223200023", "P29_003": "16011", "P29_004": "神栖市立石神幼稚園", "P29_005": "茨城県神栖市石神773-1", "P29_006": "3", "P29_007": "0", "P29_008": "00", "P29_009": null }, "geometry": { "type": "Point", "coordinates": [ 140.65117074707328, 35.869141046708641 ] } },
{ "type": "Feature", "properties": { "P29_001": "08232", "P29_002": "A108223200032", "P29_003": "16011", "P29_004": "神栖市立大野原幼稚園", "P29_005": "茨城県神栖市大野原中央2-1-22", "P29_006": "3", "P29_007": "0", "P29_008": "00", "P29_009": null }, "geometry": { "type": "Point", "coordinates": [ 140.642767997573458, 35.884030001967091 ] } },
{ "type": "Feature", "properties": { "P29_001": "08232", "P29_002": "A108223200041", "P29_003": "16011", "P29_004": "神栖市立須田幼稚園", "P29_005": "茨城県神栖市須田1301-1", "P29_006": "3", "P29_007": "0", "P29_008": "00", "P29_009": null }, "geometry": { "type": "Point", "coordinates": [ 140.752395932239921, 35.832290248011255 ] } },
{ "type": "Feature", "properties": { "P29_001": "08233", "P29_002": "A108223300013", "P29_003": "16011", "P29_004": "行方市立麻生幼稚園", "P29_005": "茨城県行方市麻生1147-1", "P29_006": "3", "P29_007": "0", "P29_008": "00", "P29_009": null }, "geometry": { "type": "Point", "coordinates": [ 140.485708995979337, 35.989508004247824 ] } },
{ "type": "Feature", "properties": { "P29_001": "08233", "P29_002": "A108223300022", "P29_003": "16011", "P29_004": "行方市立北浦幼稚園", "P29_005": "茨城県行方市繁盛212", "P29_006": "3", "P29_007": "0", "P29_008": "00", "P29_009": null }, "geometry": { "type": "Point", "coordinates": [ 140.524124001967493, 36.069029000520509 ] } },
{ "type": "Feature", "properties": { "P29_001": "08233", "P29_002": "A108223300031", "P29_003": "16011", "P29_004": "行方市立玉造幼稚園", "P29_005": "茨城県行方市甲4175", "P29_006": "3", "P29_007": "0", "P29_008": "00", "P29_009": null }, "geometry": { "type": "Point", "coordinates": [ 140.420009305241848, 36.106176929638352 ] } },
{ "type": "Feature", "properties": { "P29_001": "08234", "P29_002": "A108223400012", "P29_003": "16011", "P29_004": "鉾田市立旭幼稚園", "P29_005": "茨城県鉾田市玉田1047-21", "P29_006": "3", "P29_007": "0", "P29_008": "00", "P29_009": null }, "geometry": { "type": "Point", "coordinates": [ 140.536379869357432, 36.229106674134165 ] } },
{ "type": "Feature", "properties": { "P29_001": "08234", "P29_002": "A108223400021", "P29_003": "16011", "P29_004": "鉾田市立鉾田北幼稚園", "P29_005": "茨城県鉾田市舟木211-9", "P29_006": "3", "P29_007": "0", "P29_008": "00", "P29_009": null }, "geometry": { "type": "Point", "coordinates": [ 140.473841139994562, 36.207386663834356 ] } },
{ "type": "Feature", "properties": { "P29_001": "08234", "P29_002": "A108223400030", "P29_003": "16011", "P29_004": "鉾田市立鉾田幼稚園", "P29_005": "茨城県鉾田市鉾田1411-3", "P29_006": "3", "P29_007": "0", "P29_008": "00", "P29_009": null }, "geometry": { "type": "Point", "coordinates": [ 140.518841001903553, 36.158891999555074 ] } },
{ "type": "Feature", "properties": { "P29_001": "08234", "P29_002": "A108223400049", "P29_003": "16011", "P29_004": "鉾田市立つばさ幼稚園", "P29_005": "茨城県鉾田市上沢938-18", "P29_006": "3", "P29_007": "0", "P29_008": "00", "P29_009": null }, "geometry": { "type": "Point", "coordinates": [ 140.583061679153332, 36.097211659803108 ] } },
{ "type": "Feature", "properties": { "P29_001": "08235", "P29_002": "A108223500011", "P29_003": "16011", "P29_004": "つくばみらい市立わかくさ幼稚園", "P29_005": "茨城県つくばみらい市下島422", "P29_006": "3", "P29_007": "0", "P29_008": "00", "P29_009": null }, "geometry": { "type": "Point", "coordinates": [ 140.059864247099028, 35.954737949236069 ] } },
{ "type": "Feature", "properties": { "P29_001": "08235", "P29_002": "A108223500020", "P29_003": "16011", "P29_004": "つくばみらい市立すみれ幼稚園", "P29_005": "茨城県つくばみらい市足高1313", "P29_006": "3", "P29_007": "0", "P29_008": "00", "P29_009": null }, "geometry": { "type": "Point", "coordinates": [ 140.088036583660909, 35.951838980393823 ] } },
{ "type": "Feature", "properties": { "P29_001": "08235", "P29_002": "A108223500039", "P29_003": "16011", "P29_004": "つくばみらい市立谷和原幼稚園", "P29_005": "茨城県つくばみらい市上小目600", "P29_006": "3", "P29_007": "0", "P29_008": "00", "P29_009": null }, "geometry": { "type": "Point", "coordinates": [ 140.001154780052531, 35.992076642429453 ] } },
{ "type": "Feature", "properties": { "P29_001": "08236", "P29_002": "A108223600056", "P29_003": "16011", "P29_004": "小美玉市立元気っ子幼稚園", "P29_005": "茨城県小美玉市小川234-1", "P29_006": "3", "P29_007": "0", "P29_008": "00", "P29_009": null }, "geometry": { "type": "Point", "coordinates": [ 140.364330004015244, 36.176408999434784 ] } },
{ "type": "Feature", "properties": { "P29_001": "08236", "P29_002": "A108223600065", "P29_003": "16011", "P29_004": "小美玉市立玉里幼稚園", "P29_005": "茨城県小美玉市上玉里2956-3", "P29_006": "3", "P29_007": "0", "P29_008": "00", "P29_009": null }, "geometry": { "type": "Point", "coordinates": [ 140.34100856602754, 36.164879385397434 ] } },
{ "type": "Feature", "properties": { "P29_001": "08236", "P29_002": "A108223600074", "P29_003": "16011", "P29_004": "小美玉市立よつば幼稚園", "P29_005": "茨城県小美玉市竹原571", "P29_006": "3", "P29_007": "0", "P29_008": "00", "P29_009": null }, "geometry": { "type": "Point", "coordinates": [ 140.316283060139938, 36.212466482458389 ] } },
{ "type": "Feature", "properties": { "P29_001": "08302", "P29_002": "A108230200019", "P29_003": "16011", "P29_004": "茨城町立沼前幼稚園", "P29_005": "茨城県東茨城郡茨城町宮ヶ崎1443", "P29_006": "3", "P29_007": "0", "P29_008": "00", "P29_009": null }, "geometry": { "type": "Point", "coordinates": [ 140.459399755217589, 36.259485647414529 ] } },
{ "type": "Feature", "properties": { "P29_001": "08302", "P29_002": "A108230200028", "P29_003": "16011", "P29_004": "茨城町立長岡幼稚園", "P29_005": "茨城県東茨城郡茨城町長岡3168", "P29_006": "3", "P29_007": "0", "P29_008": "00", "P29_009": null }, "geometry": { "type": "Point", "coordinates": [ 140.435798601579393, 36.303190924461681 ] } },
{ "type": "Feature", "properties": { "P29_001": "08302", "P29_002": "A108230200037", "P29_003": "16011", "P29_004": "茨城町立大戸幼稚園", "P29_005": "茨城県東茨城郡茨城町大戸1893", "P29_006": "3", "P29_007": "0", "P29_008": "00", "P29_009": null }, "geometry": { "type": "Point", "coordinates": [ 140.416497550686643, 36.315926739032228 ] } },
{ "type": "Feature", "properties": { "P29_001": "08309", "P29_002": "A108230900012", "P29_003": "16011", "P29_004": "大洗町立夏海幼稚園", "P29_005": "茨城県東茨城郡大洗町成田町236", "P29_006": "3", "P29_007": "0", "P29_008": "00", "P29_009": null }, "geometry": { "type": "Point", "coordinates": [ 140.551272955085579, 36.286706771520123 ] } },
{ "type": "Feature", "properties": { "P29_001": "08309", "P29_002": "A108230900021", "P29_003": "16011", "P29_004": "大洗町立祝町幼稚園", "P29_005": "茨城県東茨城郡大洗町磯浜町8228-83", "P29_006": "3", "P29_007": "0", "P29_008": "00", "P29_009": null }, "geometry": { "type": "Point", "coordinates": [ 140.59000652347558, 36.330201119061051 ] } },
{ "type": "Feature", "properties": { "P29_001": "08309", "P29_002": "A108230900030", "P29_003": "16011", "P29_004": "大洗町立磯浜幼稚園", "P29_005": "茨城県東茨城郡大洗町磯浜町5316-1", "P29_006": "3", "P29_007": "0", "P29_008": "00", "P29_009": null }, "geometry": { "type": "Point", "coordinates": [ 140.576751004185098, 36.3170600006952 ] } },
{ "type": "Feature", "properties": { "P29_001": "08341", "P29_002": "A108234100012", "P29_003": "16011", "P29_004": "東海村立舟石川幼稚園", "P29_005": "茨城県那珂郡東海村舟石川453", "P29_006": "3", "P29_007": "0", "P29_008": "00", "P29_009": null }, "geometry": { "type": "Point", "coordinates": [ 140.555760109620195, 36.464334212109186 ] } },
{ "type": "Feature", "properties": { "P29_001": "08341", "P29_002": "A108234100021", "P29_003": "16011", "P29_004": "東海村立村松幼稚園", "P29_005": "茨城県那珂郡東海村村松北1-4-1", "P29_006": "3", "P29_007": "0", "P29_008": "00", "P29_009": null }, "geometry": { "type": "Point", "coordinates": [ 140.578670050439797, 36.467020294978632 ] } },
{ "type": "Feature", "properties": { "P29_001": "08341", "P29_002": "A108234100030", "P29_003": "16011", "P29_004": "東海村立石神幼稚園", "P29_005": "茨城県那珂郡東海村石神外宿945", "P29_006": "3", "P29_007": "0", "P29_008": "00", "P29_009": null }, "geometry": { "type": "Point", "coordinates": [ 140.573957533156261, 36.488819978266797 ] } },
{ "type": "Feature", "properties": { "P29_001": "08341", "P29_002": "A108234100049", "P29_003": "16011", "P29_004": "東海村立須和間幼稚園", "P29_005": "茨城県那珂郡東海村大字須和間440", "P29_006": "3", "P29_007": "0", "P29_008": "00", "P29_009": null }, "geometry": { "type": "Point", "coordinates": [ 140.561679995017101, 36.446959997211962 ] } },
{ "type": "Feature", "properties": { "P29_001": "08364", "P29_002": "A108236400014", "P29_003": "16011", "P29_004": "大子町立大子幼稚園", "P29_005": "茨城県久慈郡大子町大字大子442", "P29_006": "3", "P29_007": "0", "P29_008": "00", "P29_009": null }, "geometry": { "type": "Point", "coordinates": [ 140.35179600579005, 36.773006002281299 ] } },
{ "type": "Feature", "properties": { "P29_001": "08442", "P29_002": "A108244200010", "P29_003": "16011", "P29_004": "美浦村立美浦幼稚園", "P29_005": "茨城県稲敷郡美浦村大谷1059", "P29_006": "3", "P29_007": "0", "P29_008": "00", "P29_009": null }, "geometry": { "type": "Point", "coordinates": [ 140.31749899744878, 36.000732000708211 ] } },
{ "type": "Feature", "properties": { "P29_001": "08201", "P29_002": "A108320100019", "P29_003": "16011", "P29_004": "水戸幼稚園", "P29_005": "茨城県水戸市緑町3-9-36", "P29_006": "4", "P29_007": "0", "P29_008": "00", "P29_009": null }, "geometry": { "type": "Point", "coordinates": [ 140.443872003967613, 36.383113995712556 ] } },
{ "type": "Feature", "properties": { "P29_001": "08201", "P29_002": "A108320100028", "P29_003": "16011", "P29_004": "認定こども園聖母幼稚園", "P29_005": "茨城県水戸市五軒町2-4-32", "P29_006": "4", "P29_007": "0", "P29_008": "00", "P29_009": null }, "geometry": { "type": "Point", "coordinates": [ 140.462911998594649, 36.381631003787383 ] } },
{ "type": "Feature", "properties": { "P29_001": "08201", "P29_002": "A108320100037", "P29_003": "16011", "P29_004": "認定こども園愛恩幼稚園", "P29_005": "茨城県水戸市南町3-4-44", "P29_006": "4", "P29_007": "0", "P29_008": "00", "P29_009": null }, "geometry": { "type": "Point", "coordinates": [ 140.468091738077419, 36.378010483112831 ] } },
{ "type": "Feature", "properties": { "P29_001": "08201", "P29_002": "A108320100046", "P29_003": "16011", "P29_004": "認定こども園フレンド　少友幼稚園", "P29_005": "茨城県水戸市備前町5-36", "P29_006": "4", "P29_007": "0", "P29_008": "00", "P29_009": null }, "geometry": { "type": "Point", "coordinates": [ 140.464393666797662, 36.376999192756927 ] } },
{ "type": "Feature", "properties": { "P29_001": "08201", "P29_002": "A108320100055", "P29_003": "16011", "P29_004": "認定こども園あかつか　赤塚幼稚園", "P29_005": "茨城県水戸市赤塚1-1997", "P29_006": "4", "P29_007": "0", "P29_008": "00", "P29_009": null }, "geometry": { "type": "Point", "coordinates": [ 140.416935997253859, 36.384761997519533 ] } },
{ "type": "Feature", "properties": { "P29_001": "08201", "P29_002": "A108320100064", "P29_003": "16011", "P29_004": "認定こども園あたご　水戸英宏愛宕幼稚園", "P29_005": "茨城県水戸市愛宕町10-5", "P29_006": "4", "P29_007": "0", "P29_008": "00", "P29_009": null }, "geometry": { "type": "Point", "coordinates": [ 140.451726998787393, 36.395823997850243 ] } },
{ "type": "Feature", "properties": { "P29_001": "08201", "P29_002": "A108320100073", "P29_003": "16011", "P29_004": "認定こども園わたり　渡里幼稚園", "P29_005": "茨城県水戸市堀町958-4", "P29_006": "4", "P29_007": "0", "P29_008": "00", "P29_009": null }, "geometry": { "type": "Point", "coordinates": [ 140.431765003802781, 36.403153999600256 ] } },
{ "type": "Feature", "properties": { "P29_001": "08201", "P29_002": "A108320100082", "P29_003": "16011", "P29_004": "みどり幼稚園", "P29_005": "茨城県水戸市元吉田町2649-2", "P29_006": "4", "P29_007": "0", "P29_008": "00", "P29_009": null }, "geometry": { "type": "Point", "coordinates": [ 140.487164475945065, 36.352518845417954 ] } },
{ "type": "Feature", "properties": { "P29_001": "08201", "P29_002": "A108320100091", "P29_003": "16011", "P29_004": "認定こども園　大塚ひのまる幼稚園", "P29_005": "茨城県水戸市大塚町1583", "P29_006": "4", "P29_007": "0", "P29_008": "00", "P29_009": null }, "geometry": { "type": "Point", "coordinates": [ 140.395400430060704, 36.386958020247157 ] } },
{ "type": "Feature", "properties": { "P29_001": "08201", "P29_002": "A108320100108", "P29_003": "16011", "P29_004": "吉田幼稚園", "P29_005": "茨城県水戸市元吉田町一里塚東1977-34", "P29_006": "4", "P29_007": "0", "P29_008": "00", "P29_009": null }, "geometry": { "type": "Point", "coordinates": [ 140.479388212166668, 36.346697060878299 ] } },
{ "type": "Feature", "properties": { "P29_001": "08201", "P29_002": "A108320100117", "P29_003": "16011", "P29_004": "河和田幼稚園", "P29_005": "茨城県水戸市河和田町1183", "P29_006": "4", "P29_007": "0", "P29_008": "00", "P29_009": null }, "geometry": { "type": "Point", "coordinates": [ 140.418272061401666, 36.369741199447347 ] } },
{ "type": "Feature", "properties": { "P29_001": "08201", "P29_002": "A108320100126", "P29_003": "16011", "P29_004": "認定こども園常磐大学幼稚園", "P29_005": "茨城県水戸市見和1-425", "P29_006": "4", "P29_007": "0", "P29_008": "00", "P29_009": null }, "geometry": { "type": "Point", "coordinates": [ 140.441233139513258, 36.381741933939431 ] } },
{ "type": "Feature", "properties": { "P29_001": "08201", "P29_002": "A108320100135", "P29_003": "16011", "P29_004": "認定こども園あさひ幼稚園", "P29_005": "茨城県水戸市渋井町254", "P29_006": "4", "P29_007": "0", "P29_008": "00", "P29_009": null }, "geometry": { "type": "Point", "coordinates": [ 140.510585000700132, 36.359525996056306 ] } },
{ "type": "Feature", "properties": { "P29_001": "08201", "P29_002": "A108320100144", "P29_003": "16011", "P29_004": "認定こども園ひらす　水戸英宏平須幼稚園", "P29_005": "茨城県水戸市平須町字東皿久保1820-116", "P29_006": "4", "P29_007": "0", "P29_008": "00", "P29_009": null }, "geometry": { "type": "Point", "coordinates": [ 140.439008917243029, 36.330788505132411 ] } },
{ "type": "Feature", "properties": { "P29_001": "08202", "P29_002": "A108320200027", "P29_003": "16011", "P29_004": "日高幼稚園", "P29_005": "茨城県日立市日高町2-10-10", "P29_006": "4", "P29_007": "0", "P29_008": "00", "P29_009": null }, "geometry": { "type": "Point", "coordinates": [ 140.680842822492963, 36.639260767727848 ] } },
{ "type": "Feature", "properties": { "P29_001": "08202", "P29_002": "A108320200036", "P29_003": "16011", "P29_004": "池の川幼稚園", "P29_005": "茨城県日立市中成沢町2-8-29", "P29_006": "4", "P29_007": "0", "P29_008": "00", "P29_009": null }, "geometry": { "type": "Point", "coordinates": [ 140.640195995261905, 36.580399996368115 ] } },
{ "type": "Feature", "properties": { "P29_001": "08202", "P29_002": "A108320200045", "P29_003": "16011", "P29_004": "諏訪かおる幼稚園", "P29_005": "茨城県日立市多賀町5-8-4", "P29_006": "4", "P29_007": "0", "P29_008": "00", "P29_009": null }, "geometry": { "type": "Point", "coordinates": [ 140.635299994080867, 36.56130200398011 ] } },
{ "type": "Feature", "properties": { "P29_001": "08202", "P29_002": "A108320200054", "P29_003": "16011", "P29_004": "すけ川幼稚園", "P29_005": "茨城県日立市諏訪町1-14-6", "P29_006": "4", "P29_007": "0", "P29_008": "00", "P29_009": null }, "geometry": { "type": "Point", "coordinates": [ 140.6315920012226, 36.56533199710961 ] } },
{ "type": "Feature", "properties": { "P29_001": "08202", "P29_002": "A108320200063", "P29_003": "16011", "P29_004": "学校法人城南学園ひばり幼稚園", "P29_005": "茨城県日立市城南町2-7-22", "P29_006": "4", "P29_007": "0", "P29_008": "00", "P29_009": null }, "geometry": { "type": "Point", "coordinates": [ 140.642055999956824, 36.587883002585208 ] } },
{ "type": "Feature", "properties": { "P29_001": "08202", "P29_002": "A108320200072", "P29_003": "16011", "P29_004": "すぎの子幼稚園", "P29_005": "茨城県日立市東大沼町2-13-22", "P29_006": "4", "P29_007": "0", "P29_008": "00", "P29_009": null }, "geometry": { "type": "Point", "coordinates": [ 140.627881995220179, 36.534144003770379 ] } },
{ "type": "Feature", "properties": { "P29_001": "08202", "P29_002": "A108320200081", "P29_003": "16011", "P29_004": "学校法人根本学園三つ葉幼稚園", "P29_005": "茨城県日立市石名坂町1-10-3", "P29_006": "4", "P29_007": "0", "P29_008": "00", "P29_009": null }, "geometry": { "type": "Point", "coordinates": [ 140.600627889813268, 36.510751753412016 ] } },
{ "type": "Feature", "properties": { "P29_001": "08202", "P29_002": "A108320200090", "P29_003": "16011", "P29_004": "めぐみが丘幼稚園", "P29_005": "茨城県日立市森山町2-20-9", "P29_006": "4", "P29_007": "0", "P29_008": "00", "P29_009": null }, "geometry": { "type": "Point", "coordinates": [ 140.61961056630264, 36.523576501611998 ] } },
{ "type": "Feature", "properties": { "P29_001": "08202", "P29_002": "A108320200107", "P29_003": "16011", "P29_004": "もみや幼稚園", "P29_005": "茨城県日立市茂宮町188", "P29_006": "4", "P29_007": "0", "P29_008": "00", "P29_009": null }, "geometry": { "type": "Point", "coordinates": [ 140.589275995365369, 36.508473998807382 ] } },
{ "type": "Feature", "properties": { "P29_001": "08203", "P29_002": "A108320300017", "P29_003": "16011", "P29_004": "土浦聖母幼稚園", "P29_005": "茨城県土浦市大町9-6", "P29_006": "4", "P29_007": "0", "P29_008": "00", "P29_009": null }, "geometry": { "type": "Point", "coordinates": [ 140.193285522434309, 36.079623756869054 ] } },
{ "type": "Feature", "properties": { "P29_001": "08203", "P29_002": "A108320300026", "P29_003": "16011", "P29_004": "土浦日本大学高等学校附属幼稚園", "P29_005": "茨城県土浦市桜ヶ丘町17-45", "P29_006": "4", "P29_007": "0", "P29_008": "00", "P29_009": null }, "geometry": { "type": "Point", "coordinates": [ 140.195162999200875, 36.06162200196195 ] } },
{ "type": "Feature", "properties": { "P29_001": "08203", "P29_002": "A108320300035", "P29_003": "16011", "P29_004": "中村白百合幼稚園", "P29_005": "茨城県土浦市中村南5-31-1", "P29_006": "4", "P29_007": "0", "P29_008": "00", "P29_009": null }, "geometry": { "type": "Point", "coordinates": [ 140.157724254195017, 36.041828075047491 ] } },
{ "type": "Feature", "properties": { "P29_001": "08203", "P29_002": "A108320300044", "P29_003": "16011", "P29_004": "天川幼稚園", "P29_005": "茨城県土浦市天川1-4-19", "P29_006": "4", "P29_007": "0", "P29_008": "00", "P29_009": null }, "geometry": { "type": "Point", "coordinates": [ 140.176380004504892, 36.066305997627417 ] } },
{ "type": "Feature", "properties": { "P29_001": "08203", "P29_002": "A108320300053", "P29_003": "16011", "P29_004": "認定こども園中央幼稚園", "P29_005": "茨城県土浦市神立中央2-1-18", "P29_006": "4", "P29_007": "0", "P29_008": "00", "P29_009": null }, "geometry": { "type": "Point", "coordinates": [ 140.244770995093347, 36.12135699921923 ] } },
{ "type": "Feature", "properties": { "P29_001": "08203", "P29_002": "A108320300062", "P29_003": "16011", "P29_004": "白帆幼稚園", "P29_005": "茨城県土浦市蓮河原新町11-35", "P29_006": "4", "P29_007": "0", "P29_008": "00", "P29_009": null }, "geometry": { "type": "Point", "coordinates": [ 140.209240712762551, 36.070672650842681 ] } },
{ "type": "Feature", "properties": { "P29_001": "08203", "P29_002": "A108320300071", "P29_003": "16011", "P29_004": "土浦みどり幼稚園", "P29_005": "茨城県土浦市並木4-1-36", "P29_006": "4", "P29_007": "0", "P29_008": "00", "P29_009": null }, "geometry": { "type": "Point", "coordinates": [ 140.190089005667545, 36.113550999299733 ] } },
{ "type": "Feature", "properties": { "P29_001": "08203", "P29_002": "A108320300080", "P29_003": "16011", "P29_004": "あおば台幼稚園", "P29_005": "茨城県土浦市右籾2755", "P29_006": "4", "P29_007": "0", "P29_008": "00", "P29_009": null }, "geometry": { "type": "Point", "coordinates": [ 140.186783772190807, 36.044616829318628 ] } },
{ "type": "Feature", "properties": { "P29_001": "08203", "P29_002": "A108320300099", "P29_003": "16011", "P29_004": "ひたち学院幼稚園", "P29_005": "茨城県土浦市乙戸1029-1", "P29_006": "4", "P29_007": "0", "P29_008": "00", "P29_009": null }, "geometry": { "type": "Point", "coordinates": [ 140.154890247924158, 36.036478571104269 ] } },
{ "type": "Feature", "properties": { "P29_001": "08203", "P29_002": "A108320300106", "P29_003": "16011", "P29_004": "新学幼稚園", "P29_005": "茨城県土浦市手野町薬師4524", "P29_006": "4", "P29_007": "0", "P29_008": "00", "P29_009": null }, "geometry": { "type": "Point", "coordinates": [ 140.237222999750287, 36.100187003683132 ] } },
{ "type": "Feature", "properties": { "P29_001": "08203", "P29_002": "A108320300115", "P29_003": "16011", "P29_004": "つくば国際短期大学附属幼稚園", "P29_005": "茨城県土浦市真鍋6-6-9", "P29_006": "4", "P29_007": "0", "P29_008": "00", "P29_009": null }, "geometry": { "type": "Point", "coordinates": [ 140.199168994535029, 36.10251899933214 ] } },
{ "type": "Feature", "properties": { "P29_001": "08204", "P29_002": "A108320400016", "P29_003": "16011", "P29_004": "古河幼稚園", "P29_005": "茨城県古河市鴻巣946-5", "P29_006": "4", "P29_007": "0", "P29_008": "00", "P29_009": null }, "geometry": { "type": "Point", "coordinates": [ 139.705776273937033, 36.177059562142922 ] } },
{ "type": "Feature", "properties": { "P29_001": "08204", "P29_002": "A108320400025", "P29_003": "16011", "P29_004": "古河文化幼稚園", "P29_005": "茨城県古河市東4-5-14", "P29_006": "4", "P29_007": "0", "P29_008": "00", "P29_009": null }, "geometry": { "type": "Point", "coordinates": [ 139.718169995682956, 36.196318000413441 ] } },
{ "type": "Feature", "properties": { "P29_001": "08204", "P29_002": "A108320400034", "P29_003": "16011", "P29_004": "フレーベル幼稚園", "P29_005": "茨城県古河市松並2-3-13", "P29_006": "4", "P29_007": "0", "P29_008": "00", "P29_009": null }, "geometry": { "type": "Point", "coordinates": [ 139.710631998173369, 36.206662995361903 ] } },
{ "type": "Feature", "properties": { "P29_001": "08204", "P29_002": "A108320400043", "P29_003": "16011", "P29_004": "学校法人茂呂学園ひまわり幼稚園", "P29_005": "茨城県古河市雷電町5-7", "P29_006": "4", "P29_007": "0", "P29_008": "00", "P29_009": null }, "geometry": { "type": "Point", "coordinates": [ 139.713412000189464, 36.199826002188175 ] } },
{ "type": "Feature", "properties": { "P29_001": "08204", "P29_002": "A108320400052", "P29_003": "16011", "P29_004": "くくや台幼稚園", "P29_005": "茨城県古河市三和176-5", "P29_006": "4", "P29_007": "0", "P29_008": "00", "P29_009": null }, "geometry": { "type": "Point", "coordinates": [ 139.705121997859607, 36.162702999401297 ] } },
{ "type": "Feature", "properties": { "P29_001": "08204", "P29_002": "A108320400061", "P29_003": "16011", "P29_004": "総和文化幼稚園", "P29_005": "茨城県古河市下大野2759", "P29_006": "4", "P29_007": "0", "P29_008": "00", "P29_009": null }, "geometry": { "type": "Point", "coordinates": [ 139.756295000704569, 36.180268996860846 ] } },
{ "type": "Feature", "properties": { "P29_001": "08204", "P29_002": "A108320400089", "P29_003": "16011", "P29_004": "諸川めぐみ幼稚園", "P29_005": "茨城県古河市諸川1370", "P29_006": "4", "P29_007": "0", "P29_008": "00", "P29_009": null }, "geometry": { "type": "Point", "coordinates": [ 139.807363859487225, 36.200840350260442 ] } },
{ "type": "Feature", "properties": { "P29_001": "08205", "P29_002": "A108320500015", "P29_003": "16011", "P29_004": "石岡善隣幼稚園", "P29_005": "茨城県石岡市国府4-3-3", "P29_006": "4", "P29_007": "0", "P29_008": "00", "P29_009": null }, "geometry": { "type": "Point", "coordinates": [ 140.279120004036855, 36.187726002326997 ] } },
{ "type": "Feature", "properties": { "P29_001": "08205", "P29_002": "A108320500024", "P29_003": "16011", "P29_004": "石岡幼稚園", "P29_005": "茨城県石岡市東光台1-2-4", "P29_006": "4", "P29_007": "0", "P29_008": "00", "P29_009": null }, "geometry": { "type": "Point", "coordinates": [ 140.30059742536767, 36.188307685911802 ] } },
{ "type": "Feature", "properties": { "P29_001": "08205", "P29_002": "A108320500033", "P29_003": "16011", "P29_004": "国分寺幼稚園", "P29_005": "茨城県石岡市府中5-1-19", "P29_006": "4", "P29_007": "0", "P29_008": "00", "P29_009": null }, "geometry": { "type": "Point", "coordinates": [ 140.272690003038946, 36.19628899924956 ] } },
{ "type": "Feature", "properties": { "P29_001": "08205", "P29_002": "A108320500042", "P29_003": "16011", "P29_004": "府中幼稚園", "P29_005": "茨城県石岡市北府中1-12-20", "P29_006": "4", "P29_007": "0", "P29_008": "00", "P29_009": null }, "geometry": { "type": "Point", "coordinates": [ 140.277166077280413, 36.208519892573577 ] } },
{ "type": "Feature", "properties": { "P29_001": "08205", "P29_002": "A108320500051", "P29_003": "16011", "P29_004": "ばらき台幼稚園", "P29_005": "茨城県石岡市茨城3-4-13", "P29_006": "4", "P29_007": "0", "P29_008": "00", "P29_009": null }, "geometry": { "type": "Point", "coordinates": [ 140.285714209079771, 36.177806767264272 ] } },
{ "type": "Feature", "properties": { "P29_001": "08207", "P29_002": "A108320700013", "P29_003": "16011", "P29_004": "富士見幼稚園", "P29_005": "茨城県結城市大字結城10584", "P29_006": "4", "P29_007": "0", "P29_008": "00", "P29_009": null }, "geometry": { "type": "Point", "coordinates": [ 139.866674087956028, 36.302537280343117 ] } },
{ "type": "Feature", "properties": { "P29_001": "08207", "P29_002": "A108320700022", "P29_003": "16011", "P29_004": "学校法人みずがき学院結城ひかり幼稚園", "P29_005": "茨城県結城市江川新宿字中篠1973-15", "P29_006": "4", "P29_007": "0", "P29_008": "00", "P29_009": null }, "geometry": { "type": "Point", "coordinates": [ 139.828408001270503, 36.238644997418803 ] } },
{ "type": "Feature", "properties": { "P29_001": "08207", "P29_002": "A108320700031", "P29_003": "16011", "P29_004": "つくば幼稚園", "P29_005": "茨城県結城市新福寺2-8-7", "P29_006": "4", "P29_007": "0", "P29_008": "00", "P29_009": null }, "geometry": { "type": "Point", "coordinates": [ 139.868689005189879, 36.292667999277491 ] } },
{ "type": "Feature", "properties": { "P29_001": "08208", "P29_002": "A108320800012", "P29_003": "16011", "P29_004": "竜ヶ崎愛宕幼稚園", "P29_005": "茨城県龍ケ崎市馴馬町496", "P29_006": "4", "P29_007": "0", "P29_008": "00", "P29_009": null }, "geometry": { "type": "Point", "coordinates": [ 140.174155000748129, 35.908964996825624 ] } },
{ "type": "Feature", "properties": { "P29_001": "08208", "P29_002": "A108320800021", "P29_003": "16011", "P29_004": "めばえ幼稚園", "P29_005": "茨城県龍ケ崎市中谷原8362", "P29_006": "4", "P29_007": "0", "P29_008": "00", "P29_009": null }, "geometry": { "type": "Point", "coordinates": [ 140.173573998269859, 35.901646998975743 ] } },
{ "type": "Feature", "properties": { "P29_001": "08208", "P29_002": "A108320800030", "P29_003": "16011", "P29_004": "龍ケ崎文化幼稚園", "P29_005": "茨城県龍ケ崎市川原代町543-3", "P29_006": "4", "P29_007": "0", "P29_008": "00", "P29_009": null }, "geometry": { "type": "Point", "coordinates": [ 140.142940004728217, 35.918506003447376 ] } },
{ "type": "Feature", "properties": { "P29_001": "08208", "P29_002": "A108320800049", "P29_003": "16011", "P29_004": "富士見幼稚園", "P29_005": "茨城県龍ケ崎市奈戸岡2-98", "P29_006": "4", "P29_007": "0", "P29_008": "00", "P29_009": null }, "geometry": { "type": "Point", "coordinates": [ 140.178776000256619, 35.924648999419993 ] } },
{ "type": "Feature", "properties": { "P29_001": "08210", "P29_002": "A108321000018", "P29_003": "16011", "P29_004": "下妻小友幼稚園", "P29_005": "茨城県下妻市下妻乙269", "P29_006": "4", "P29_007": "0", "P29_008": "00", "P29_009": null }, "geometry": { "type": "Point", "coordinates": [ 139.960929331205563, 36.183629207078617 ] } },
{ "type": "Feature", "properties": { "P29_001": "08210", "P29_002": "A108321000027", "P29_003": "16011", "P29_004": "下妻いずみ幼稚園", "P29_005": "茨城県下妻市下妻丁342-1", "P29_006": "4", "P29_007": "0", "P29_008": "00", "P29_009": null }, "geometry": { "type": "Point", "coordinates": [ 139.955317001989556, 36.177621997818342 ] } },
{ "type": "Feature", "properties": { "P29_001": "08210", "P29_002": "A108321000036", "P29_003": "16011", "P29_004": "認定こども園ふたば文化幼稚園", "P29_005": "茨城県下妻市本城町1-54", "P29_006": "4", "P29_007": "0", "P29_008": "00", "P29_009": null }, "geometry": { "type": "Point", "coordinates": [ 139.9652829987009, 36.184812999142267 ] } },
{ "type": "Feature", "properties": { "P29_001": "08211", "P29_002": "A108321100017", "P29_003": "16011", "P29_004": "学校法人寿広学園石下幼稚園", "P29_005": "茨城県常総市新石下1034", "P29_006": "4", "P29_007": "0", "P29_008": "00", "P29_009": null }, "geometry": { "type": "Point", "coordinates": [ 139.974329126387318, 36.110036150635004 ] } },
{ "type": "Feature", "properties": { "P29_001": "08215", "P29_002": "A108321500013", "P29_003": "16011", "P29_004": "杉の子幼稚園", "P29_005": "茨城県北茨城市磯原町磯原826-4", "P29_006": "4", "P29_007": "0", "P29_008": "00", "P29_009": null }, "geometry": { "type": "Point", "coordinates": [ 140.746863856195517, 36.791636016222363 ] } },
{ "type": "Feature", "properties": { "P29_001": "08215", "P29_002": "A108321500022", "P29_003": "16011", "P29_004": "旭幼稚園", "P29_005": "茨城県北茨城市大津町北町1-7-3", "P29_006": "4", "P29_007": "0", "P29_008": "00", "P29_009": null }, "geometry": { "type": "Point", "coordinates": [ 140.780136001652068, 36.847417996775697 ] } },
{ "type": "Feature", "properties": { "P29_001": "08215", "P29_002": "A108321500031", "P29_003": "16011", "P29_004": "いそはら幼稚園", "P29_005": "茨城県北茨城市磯原町豊田字一本杉920", "P29_006": "4", "P29_007": "0", "P29_008": "00", "P29_009": null }, "geometry": { "type": "Point", "coordinates": [ 140.728835997960402, 36.79963199824369 ] } },
{ "type": "Feature", "properties": { "P29_001": "08215", "P29_002": "A108321500040", "P29_003": "16011", "P29_004": "誠之会幼稚園", "P29_005": "茨城県北茨城市関南町関本下974", "P29_006": "4", "P29_007": "0", "P29_008": "00", "P29_009": null }, "geometry": { "type": "Point", "coordinates": [ 140.77502600424458, 36.843743000403038 ] } },
{ "type": "Feature", "properties": { "P29_001": "08216", "P29_002": "A108321600012", "P29_003": "16011", "P29_004": "こじか幼稚園", "P29_005": "茨城県笠間市箱田6-4", "P29_006": "4", "P29_007": "0", "P29_008": "00", "P29_009": null }, "geometry": { "type": "Point", "coordinates": [ 140.236759695959194, 36.390226310153288 ] } },
{ "type": "Feature", "properties": { "P29_001": "08216", "P29_002": "A108321600021", "P29_003": "16011", "P29_004": "ともべ幼稚園", "P29_005": "茨城県笠間市東平2-11-7", "P29_006": "4", "P29_007": "0", "P29_008": "00", "P29_009": null }, "geometry": { "type": "Point", "coordinates": [ 140.310056004966128, 36.348500997686457 ] } },
{ "type": "Feature", "properties": { "P29_001": "08216", "P29_002": "A108321600030", "P29_003": "16011", "P29_004": "さくら学園さくら幼稚園", "P29_005": "茨城県笠間市平町字原1811-4", "P29_006": "4", "P29_007": "0", "P29_008": "00", "P29_009": null }, "geometry": { "type": "Point", "coordinates": [ 140.302180006023235, 36.336927998960562 ] } },
{ "type": "Feature", "properties": { "P29_001": "08216", "P29_002": "A108321600049", "P29_003": "16011", "P29_004": "岩間第一幼稚園", "P29_005": "茨城県笠間市吉岡156-26", "P29_006": "4", "P29_007": "0", "P29_008": "00", "P29_009": null }, "geometry": { "type": "Point", "coordinates": [ 140.291879997870552, 36.298349000426825 ] } },
{ "type": "Feature", "properties": { "P29_001": "08216", "P29_002": "A108321600058", "P29_003": "16011", "P29_004": "学校法人嶋田学園ドレミ幼稚園", "P29_005": "茨城県笠間市市野谷1542-12", "P29_006": "4", "P29_007": "0", "P29_008": "00", "P29_009": null }, "geometry": { "type": "Point", "coordinates": [ 140.285647156153942, 36.28502087434503 ] } },
{ "type": "Feature", "properties": { "P29_001": "08217", "P29_002": "A108321700011", "P29_003": "16011", "P29_004": "チューリップ幼稚園", "P29_005": "茨城県取手市取手3-6-27", "P29_006": "4", "P29_007": "0", "P29_008": "00", "P29_009": null }, "geometry": { "type": "Point", "coordinates": [ 140.06615899407646, 35.893925003160078 ] } },
{ "type": "Feature", "properties": { "P29_001": "08217", "P29_002": "A108321700020", "P29_003": "16011", "P29_004": "白山幼稚園", "P29_005": "茨城県取手市白山2-9-7", "P29_006": "4", "P29_007": "0", "P29_008": "00", "P29_009": null }, "geometry": { "type": "Point", "coordinates": [ 140.060662002400903, 35.90205900481179 ] } },
{ "type": "Feature", "properties": { "P29_001": "08217", "P29_002": "A108321700039", "P29_003": "16011", "P29_004": "あづま幼稚園", "P29_005": "茨城県取手市ゆめみ野4-22-1", "P29_006": "4", "P29_007": "0", "P29_008": "00", "P29_009": null }, "geometry": { "type": "Point", "coordinates": [ 140.042594998152339, 35.92083199582688 ] } },
{ "type": "Feature", "properties": { "P29_001": "08217", "P29_002": "A108321700048", "P29_003": "16011", "P29_004": "チューリップ第二幼稚園", "P29_005": "茨城県取手市吉田13-1", "P29_006": "4", "P29_007": "0", "P29_008": "00", "P29_009": null }, "geometry": { "type": "Point", "coordinates": [ 140.080982124703212, 35.889770643186779 ] } },
{ "type": "Feature", "properties": { "P29_001": "08217", "P29_002": "A108321700057", "P29_003": "16011", "P29_004": "光風台幼稚園", "P29_005": "茨城県取手市光風台1-2-1", "P29_006": "4", "P29_007": "0", "P29_008": "00", "P29_009": null }, "geometry": { "type": "Point", "coordinates": [ 140.091928528892225, 35.90921119987911 ] } },
{ "type": "Feature", "properties": { "P29_001": "08219", "P29_002": "A108321900019", "P29_003": "16011", "P29_004": "認定こども園こばと幼稚園", "P29_005": "茨城県牛久市猪子町828-33", "P29_006": "4", "P29_007": "0", "P29_008": "00", "P29_009": null }, "geometry": { "type": "Point", "coordinates": [ 140.144569068646604, 35.992882593633716 ] } },
{ "type": "Feature", "properties": { "P29_001": "08219", "P29_002": "A108321900028", "P29_003": "16011", "P29_004": "牛久幼稚園", "P29_005": "茨城県牛久市上柏田3-8-3", "P29_006": "4", "P29_007": "0", "P29_008": "00", "P29_009": null }, "geometry": { "type": "Point", "coordinates": [ 140.161579885063844, 35.991949663015568 ] } },
{ "type": "Feature", "properties": { "P29_001": "08219", "P29_002": "A108321900037", "P29_003": "16011", "P29_004": "ひたち野牛久幼稚園", "P29_005": "茨城県牛久市東猯穴町新地山827-2", "P29_006": "4", "P29_007": "0", "P29_008": "00", "P29_009": null }, "geometry": { "type": "Point", "coordinates": [ 140.144602281848336, 36.018175988601193 ] } },
{ "type": "Feature", "properties": { "P29_001": "08220", "P29_002": "A108322000016", "P29_003": "16011", "P29_004": "認定こども園成蹊幼稚園", "P29_005": "茨城県つくば市天宝喜663", "P29_006": "4", "P29_007": "0", "P29_008": "00", "P29_009": null }, "geometry": { "type": "Point", "coordinates": [ 140.130585894322735, 35.984380245632991 ] } },
{ "type": "Feature", "properties": { "P29_001": "08220", "P29_002": "A108322000025", "P29_003": "16011", "P29_004": "認定こども園栄幼稚園", "P29_005": "茨城県つくば市松塚667", "P29_006": "4", "P29_007": "0", "P29_008": "00", "P29_009": null }, "geometry": { "type": "Point", "coordinates": [ 140.147518027535057, 36.105783073523256 ] } },
{ "type": "Feature", "properties": { "P29_001": "08220", "P29_002": "A108322000034", "P29_003": "16011", "P29_004": "あおば台第二幼稚園", "P29_005": "茨城県つくば市上の室前坪305-3", "P29_006": "4", "P29_007": "0", "P29_008": "00", "P29_009": null }, "geometry": { "type": "Point", "coordinates": [ 140.141369248148266, 36.073675142832485 ] } },
{ "type": "Feature", "properties": { "P29_001": "08220", "P29_002": "A108322000043", "P29_003": "16011", "P29_004": "学校法人東京音楽学院いなほ幼稚園", "P29_005": "茨城県つくば市前野1860-1", "P29_006": "4", "P29_007": "0", "P29_008": "00", "P29_009": null }, "geometry": { "type": "Point", "coordinates": [ 140.068952774828091, 36.14354543515126 ] } },
{ "type": "Feature", "properties": { "P29_001": "08220", "P29_002": "A108322000052", "P29_003": "16011", "P29_004": "アカデミア幼稚園", "P29_005": "茨城県つくば市下横場425", "P29_006": "4", "P29_007": "0", "P29_008": "00", "P29_009": null }, "geometry": { "type": "Point", "coordinates": [ 140.127418227600145, 36.026478000381751 ] } },
{ "type": "Feature", "properties": { "P29_001": "08220", "P29_002": "A108322000061", "P29_003": "16011", "P29_004": "吉沼幼稚園", "P29_005": "茨城県つくば市吉沼4138", "P29_006": "4", "P29_007": "0", "P29_008": "00", "P29_009": null }, "geometry": { "type": "Point", "coordinates": [ 140.016277001795515, 36.142116002532021 ] } },
{ "type": "Feature", "properties": { "P29_001": "08220", "P29_002": "A108322000070", "P29_003": "16011", "P29_004": "つくば白帆幼稚園", "P29_005": "茨城県つくば市小野崎427-1", "P29_006": "4", "P29_007": "0", "P29_008": "00", "P29_009": null }, "geometry": { "type": "Point", "coordinates": [ 140.107466053544556, 36.075586856813452 ] } },
{ "type": "Feature", "properties": { "P29_001": "08221", "P29_002": "A108322100015", "P29_003": "16011", "P29_004": "勝田第一幼稚園", "P29_005": "茨城県ひたちなか市勝田本町13-2", "P29_006": "4", "P29_007": "0", "P29_008": "00", "P29_009": null }, "geometry": { "type": "Point", "coordinates": [ 140.5227012636918, 36.391010239879414 ] } },
{ "type": "Feature", "properties": { "P29_001": "08221", "P29_002": "A108322100024", "P29_003": "16011", "P29_004": "栄光幼稚園", "P29_005": "茨城県ひたちなか市松戸町1-16-10", "P29_006": "4", "P29_007": "0", "P29_008": "00", "P29_009": null }, "geometry": { "type": "Point", "coordinates": [ 140.545950005880684, 36.391787001013107 ] } },
{ "type": "Feature", "properties": { "P29_001": "08221", "P29_002": "A108322100033", "P29_003": "16011", "P29_004": "明成幼稚園", "P29_005": "茨城県ひたちなか市高場1135", "P29_006": "4", "P29_007": "0", "P29_008": "00", "P29_009": null }, "geometry": { "type": "Point", "coordinates": [ 140.539104003721121, 36.421019001980909 ] } },
{ "type": "Feature", "properties": { "P29_001": "08221", "P29_002": "A108322100042", "P29_003": "16011", "P29_004": "勝田第二幼稚園", "P29_005": "茨城県ひたちなか市津田片岡前1929", "P29_006": "4", "P29_007": "0", "P29_008": "00", "P29_009": null }, "geometry": { "type": "Point", "coordinates": [ 140.507026796109159, 36.412070895741508 ] } },
{ "type": "Feature", "properties": { "P29_001": "08221", "P29_002": "A108322100051", "P29_003": "16011", "P29_004": "明成田彦幼稚園", "P29_005": "茨城県ひたちなか市田彦1400-5", "P29_006": "4", "P29_007": "0", "P29_008": "00", "P29_009": null }, "geometry": { "type": "Point", "coordinates": [ 140.520259998300617, 36.412915001089644 ] } },
{ "type": "Feature", "properties": { "P29_001": "08221", "P29_002": "A108322100060", "P29_003": "16011", "P29_004": "はなのわ幼稚園", "P29_005": "茨城県ひたちなか市東石川新堀2759-2", "P29_006": "4", "P29_007": "0", "P29_008": "00", "P29_009": null }, "geometry": { "type": "Point", "coordinates": [ 140.532739003893482, 36.410476001106026 ] } },
{ "type": "Feature", "properties": { "P29_001": "08224", "P29_002": "A108322400012", "P29_003": "16011", "P29_004": "守谷ひかり幼稚園", "P29_005": "茨城県守谷市本町6017-4", "P29_006": "4", "P29_007": "0", "P29_008": "00", "P29_009": null }, "geometry": { "type": "Point", "coordinates": [ 140.006074482112183, 35.935822815956776 ] } },
{ "type": "Feature", "properties": { "P29_001": "08224", "P29_002": "A108322400021", "P29_003": "16011", "P29_004": "守谷ひばり幼稚園", "P29_005": "茨城県守谷市立沢142-4", "P29_006": "4", "P29_007": "0", "P29_008": "00", "P29_009": null }, "geometry": { "type": "Point", "coordinates": [ 139.970266435365005, 35.951210138923479 ] } },
{ "type": "Feature", "properties": { "P29_001": "08224", "P29_002": "A108322400030", "P29_003": "16011", "P29_004": "守谷二三ケ丘幼稚園", "P29_005": "茨城県守谷市立沢1596", "P29_006": "4", "P29_007": "0", "P29_008": "00", "P29_009": null }, "geometry": { "type": "Point", "coordinates": [ 139.973690004447548, 35.962541003636225 ] } },
{ "type": "Feature", "properties": { "P29_001": "08224", "P29_002": "A108322400049", "P29_003": "16011", "P29_004": "守谷わかば幼稚園", "P29_005": "茨城県守谷市大柏805", "P29_006": "4", "P29_007": "0", "P29_008": "00", "P29_009": null }, "geometry": { "type": "Point", "coordinates": [ 139.970455438877337, 35.94820265001615 ] } },
{ "type": "Feature", "properties": { "P29_001": "08224", "P29_002": "A108322400058", "P29_003": "16011", "P29_004": "みずき野幼稚園", "P29_005": "茨城県守谷市みずき野5-2-1", "P29_006": "4", "P29_007": "0", "P29_008": "00", "P29_009": null }, "geometry": { "type": "Point", "coordinates": [ 140.012725205246682, 35.936295321269988 ] } },
{ "type": "Feature", "properties": { "P29_001": "08226", "P29_002": "A108322600010", "P29_003": "16011", "P29_004": "さいせい幼稚園", "P29_005": "茨城県那珂市瓜連1085-15", "P29_006": "4", "P29_007": "0", "P29_008": "00", "P29_009": null }, "geometry": { "type": "Point", "coordinates": [ 140.454087234307337, 36.501841259991402 ] } },
{ "type": "Feature", "properties": { "P29_001": "08226", "P29_002": "A108322600029", "P29_003": "16011", "P29_004": "ナザレ幼稚園", "P29_005": "茨城県那珂市中里356-1", "P29_006": "4", "P29_007": "0", "P29_008": "00", "P29_009": null }, "geometry": { "type": "Point", "coordinates": [ 140.458915044691679, 36.484062598600296 ] } },
{ "type": "Feature", "properties": { "P29_001": "08227", "P29_002": "A108322700019", "P29_003": "16011", "P29_004": "下館幼稚園", "P29_005": "茨城県筑西市甲375", "P29_006": "4", "P29_007": "0", "P29_008": "00", "P29_009": null }, "geometry": { "type": "Point", "coordinates": [ 139.978506445161941, 36.313922216024544 ] } },
{ "type": "Feature", "properties": { "P29_001": "08227", "P29_002": "A108322700037", "P29_003": "16011", "P29_004": "英光幼稚園", "P29_005": "茨城県筑西市女方本田北241-1", "P29_006": "4", "P29_007": "0", "P29_008": "00", "P29_009": null }, "geometry": { "type": "Point", "coordinates": [ 139.91368399806268, 36.28791299579683 ] } },
{ "type": "Feature", "properties": { "P29_001": "08228", "P29_002": "A108322800018", "P29_003": "16011", "P29_004": "若草明徳幼稚園", "P29_005": "茨城県坂東市逆井3503-10", "P29_006": "4", "P29_007": "0", "P29_008": "00", "P29_009": null }, "geometry": { "type": "Point", "coordinates": [ 139.842033751790694, 36.141314334750888 ] } },
{ "type": "Feature", "properties": { "P29_001": "08230", "P29_002": "A108323000014", "P29_003": "16011", "P29_004": "くりのみ自然幼稚園", "P29_005": "茨城県かすみがうら市宍倉6204-13", "P29_006": "4", "P29_007": "0", "P29_008": "00", "P29_009": null }, "geometry": { "type": "Point", "coordinates": [ 140.260467586248581, 36.127156603022499 ] } },
{ "type": "Feature", "properties": { "P29_001": "08224", "P29_002": "A108323500019", "P29_003": "16011", "P29_004": "絹ふたば文化幼稚園", "P29_005": "茨城県つくばみらい市小絹1130", "P29_006": "4", "P29_007": "0", "P29_008": "00", "P29_009": null }, "geometry": { "type": "Point", "coordinates": [ 139.971338921227499, 35.977303054343331 ] } },
{ "type": "Feature", "properties": { "P29_001": "08236", "P29_002": "A108323600018", "P29_003": "16011", "P29_004": "ルンビニー学園幼稚園", "P29_005": "茨城県小美玉市上玉里1137-5", "P29_006": "4", "P29_007": "0", "P29_008": "00", "P29_009": null }, "geometry": { "type": "Point", "coordinates": [ 140.334795218005752, 36.161234402170592 ] } },
{ "type": "Feature", "properties": { "P29_001": "08302", "P29_002": "A108330200017", "P29_003": "16011", "P29_004": "正美幼稚園", "P29_005": "茨城県東茨城郡茨城町中石崎852", "P29_006": "4", "P29_007": "0", "P29_008": "00", "P29_009": null }, "geometry": { "type": "Point", "coordinates": [ 140.483899486507141, 36.291705800528078 ] } },
{ "type": "Feature", "properties": { "P29_001": "08341", "P29_002": "A108334100010", "P29_003": "16011", "P29_004": "学校法人諏訪学園みぎわ幼稚園", "P29_005": "茨城県那珂郡東海村須和間1296-4", "P29_006": "4", "P29_007": "0", "P29_008": "00", "P29_009": null }, "geometry": { "type": "Point", "coordinates": [ 140.557326222447585, 36.451565831284697 ] } },
{ "type": "Feature", "properties": { "P29_001": "08443", "P29_002": "A108344300017", "P29_003": "16011", "P29_004": "ふたば幼稚園", "P29_005": "茨城県稲敷郡阿見町岡崎3-2-1", "P29_006": "4", "P29_007": "0", "P29_008": "00", "P29_009": null }, "geometry": { "type": "Point", "coordinates": [ 140.218215999864327, 36.040884996260068 ] } },
{ "type": "Feature", "properties": { "P29_001": "08443", "P29_002": "A108344300026", "P29_003": "16011", "P29_004": "荒川沖幼稚園", "P29_005": "茨城県稲敷郡阿見町本郷3-27-1", "P29_006": "4", "P29_007": "0", "P29_008": "00", "P29_009": null }, "geometry": { "type": "Point", "coordinates": [ 140.173716465672385, 36.025129295185096 ] } },
{ "type": "Feature", "properties": { "P29_001": "08521", "P29_002": "A108352100012", "P29_003": "16011", "P29_004": "八千代ひかり幼稚園", "P29_005": "茨城県結城郡八千代町西大山628-15", "P29_006": "4", "P29_007": "0", "P29_008": "00", "P29_009": null }, "geometry": { "type": "Point", "coordinates": [ 139.859043009751758, 36.204002659328573 ] } },
{ "type": "Feature", "properties": { "P29_001": "08521", "P29_002": "A108352100021", "P29_003": "16011", "P29_004": "八千代中央幼稚園", "P29_005": "茨城県結城郡八千代町菅谷1137-2", "P29_006": "4", "P29_007": "0", "P29_008": "00", "P29_009": null }, "geometry": { "type": "Point", "coordinates": [ 139.891779537705617, 36.185995786456651 ] } },
{ "type": "Feature", "properties": { "P29_001": "08521", "P29_002": "A108352100030", "P29_003": "16011", "P29_004": "たちばな幼稚園", "P29_005": "茨城県結城郡八千代町高崎字釜内1068-4", "P29_006": "4", "P29_007": "0", "P29_008": "00", "P29_009": null }, "geometry": { "type": "Point", "coordinates": [ 139.914662301768118, 36.218964700754775 ] } },
{ "type": "Feature", "properties": { "P29_001": "08546", "P29_002": "A108354600013", "P29_003": "16011", "P29_004": "境杉の子幼稚園", "P29_005": "茨城県猿島郡境町山崎1340-2", "P29_006": "4", "P29_007": "0", "P29_008": "00", "P29_009": null }, "geometry": { "type": "Point", "coordinates": [ 139.832221511975717, 36.127897796058534 ] } },
{ "type": "Feature", "properties": { "P29_001": "08546", "P29_002": "A108354600022", "P29_003": "16011", "P29_004": "キリスト愛児園", "P29_005": "茨城県猿島郡境町伏木1383-37", "P29_006": "4", "P29_007": "0", "P29_008": "00", "P29_009": null }, "geometry": { "type": "Point", "coordinates": [ 139.822391999946348, 36.100439003958272 ] } },
{ "type": "Feature", "properties": { "P29_001": "08564", "P29_002": "A108356400010", "P29_003": "16011", "P29_004": "利根二葉幼稚園", "P29_005": "茨城県北相馬郡利根町羽根野850", "P29_006": "4", "P29_007": "0", "P29_008": "00", "P29_009": null }, "geometry": { "type": "Point", "coordinates": [ 140.138776844711259, 35.879111428899421 ] } },
{ "type": "Feature", "properties": { "P29_001": "08564", "P29_002": "A108356400029", "P29_003": "16011", "P29_004": "利根大和幼稚園", "P29_005": "茨城県北相馬郡利根町布川2070", "P29_006": "4", "P29_007": "0", "P29_008": "00", "P29_009": null }, "geometry": { "type": "Point", "coordinates": [ 140.152413001308304, 35.863782003035467 ] } }
]
}
