{
"type": "FeatureCollection",
"name": "geo_08_小規模多機能型居宅介護",
"crs": { "type": "name", "properties": { "name": "urn:ogc:def:crs:OGC:1.3:CRS84" } },
"features": [
{ "type": "Feature", "properties": { "内容": "小規模多機能型居宅介護　かさはら【小規模多機能型居宅介護】茨城県水戸市笠原町355番地5", "url2": "https://www.kaigokensaku.mhlw.go.jp/08/index.php?action_kouhyou_detail_004_kani=true&JigyosyoCd=0890100126-00&ServiceCd=730&Type=search" }, "geometry": { "type": "Point", "coordinates": [ 140.454726, 36.342575 ] } },
{ "type": "Feature", "properties": { "内容": "小規模多機能型居宅介護コンフォルト緑岡【小規模多機能型居宅介護】笠原町１３６１番地２", "url2": "https://www.kaigokensaku.mhlw.go.jp/08/index.php?action_kouhyou_detail_004_kani=true&JigyosyoCd=0890100647-00&ServiceCd=730&Type=search" }, "geometry": { "type": "Point", "coordinates": [ 140.4497579, 36.3521431 ] } },
{ "type": "Feature", "properties": { "内容": "フロイデ総合在宅サポートセンター水戸河和田【小規模多機能型居宅介護】茨城県水戸市河和田町２８９３", "url2": "https://www.kaigokensaku.mhlw.go.jp/08/index.php?action_kouhyou_detail_004_kani=true&JigyosyoCd=0890100084-00&ServiceCd=730&Type=search" }, "geometry": { "type": "Point", "coordinates": [ 140.419254142327873, 36.37087397917945 ] } },
{ "type": "Feature", "properties": { "内容": "フロイデ総合在宅サポートセンター水戸けやき台【小規模多機能型居宅介護】茨城県水戸市酒門町3283-1", "url2": "https://www.kaigokensaku.mhlw.go.jp/08/index.php?action_kouhyou_detail_004_kani=true&JigyosyoCd=0890100050-00&ServiceCd=730&Type=search" }, "geometry": { "type": "Point", "coordinates": [ 140.485188224377794, 36.33784552276007 ] } },
{ "type": "Feature", "properties": { "内容": "セントケア水戸千波【小規模多機能型居宅介護】茨城県水戸市元吉田町236-16", "url2": "https://www.kaigokensaku.mhlw.go.jp/08/index.php?action_kouhyou_detail_004_kani=true&JigyosyoCd=0890100183-00&ServiceCd=730&Type=search" }, "geometry": { "type": "Point", "coordinates": [ 140.470583263552584, 36.353251999532674 ] } },
{ "type": "Feature", "properties": { "内容": "ハピネス大安【小規模多機能型居宅介護】十王町伊師725-2", "url2": "https://www.kaigokensaku.mhlw.go.jp/08/index.php?action_kouhyou_detail_004_kani=true&JigyosyoCd=0890200132-00&ServiceCd=730&Type=search" }, "geometry": { "type": "Point", "coordinates": [ 140.712603477246148, 36.668486169373566 ] } },
{ "type": "Feature", "properties": { "内容": "小規模多機能型居宅介護　きさらぎ【小規模多機能型居宅介護】茨城県日立市十王町城の丘1-36", "url2": "https://www.kaigokensaku.mhlw.go.jp/08/index.php?action_kouhyou_detail_004_kani=true&JigyosyoCd=0890200165-00&ServiceCd=730&Type=search" }, "geometry": { "type": "Point", "coordinates": [ 140.679292300000043, 36.6675049 ] } },
{ "type": "Feature", "properties": { "内容": "らいふホーム諏訪【小規模多機能型居宅介護】茨城県日立市諏訪町2-7-2", "url2": "https://www.kaigokensaku.mhlw.go.jp/08/index.php?action_kouhyou_detail_004_kani=true&JigyosyoCd=0890200181-00&ServiceCd=730&Type=search" }, "geometry": { "type": "Point", "coordinates": [ 140.630164499999978, 36.570376200000013 ] } },
{ "type": "Feature", "properties": { "内容": "らいふホーム大沼【小規模多機能型居宅介護】茨城県日立市東金沢町5-20-30", "url2": "https://www.kaigokensaku.mhlw.go.jp/08/index.php?action_kouhyou_detail_004_kani=true&JigyosyoCd=0890200082-00&ServiceCd=730&Type=search" }, "geometry": { "type": "Point", "coordinates": [ 140.625326699999988, 36.5359766 ] } },
{ "type": "Feature", "properties": { "内容": "ひたちの里風神の湯【小規模多機能型居宅介護】石名坂町2-4-1", "url2": "https://www.kaigokensaku.mhlw.go.jp/08/index.php?action_kouhyou_detail_004_kani=true&JigyosyoCd=0890200033-00&ServiceCd=730&Type=search" }, "geometry": { "type": "Point", "coordinates": [ 140.604084300000011, 36.5139348 ] } },
{ "type": "Feature", "properties": { "内容": "らいふホーム高鈴【小規模多機能型居宅介護】茨城県日立市高鈴町1-16-45", "url2": "https://www.kaigokensaku.mhlw.go.jp/08/index.php?action_kouhyou_detail_004_kani=true&JigyosyoCd=0890200090-00&ServiceCd=730&Type=search" }, "geometry": { "type": "Point", "coordinates": [ 140.644227259306064, 36.599514471707685 ] } },
{ "type": "Feature", "properties": { "内容": "小規模多機能型居宅介護事業所銀砂台「本宮町クラブ」【小規模多機能型居宅介護】茨城県日立市本宮町5丁目5番31号", "url2": "https://www.kaigokensaku.mhlw.go.jp/08/index.php?action_kouhyou_detail_004_kani=true&JigyosyoCd=0890200272-00&ServiceCd=730&Type=search" }, "geometry": { "type": "Point", "coordinates": [ 140.670706500000051, 36.6044951 ] } },
{ "type": "Feature", "properties": { "内容": "小規模多機能型居宅介護事業所銀砂台「鹿島町クラブ」【小規模多機能型居宅介護】茨城県日立市鹿島町2-5-15", "url2": "https://www.kaigokensaku.mhlw.go.jp/08/index.php?action_kouhyou_detail_004_kani=true&JigyosyoCd=0890200041-00&ServiceCd=730&Type=search" }, "geometry": { "type": "Point", "coordinates": [ 140.649800300000038, 36.5938712 ] } },
{ "type": "Feature", "properties": { "内容": "まごころの里　多賀【小規模多機能型居宅介護】茨城県日立市金沢町４－２０－１３", "url2": "https://www.kaigokensaku.mhlw.go.jp/08/index.php?action_kouhyou_detail_004_kani=true&JigyosyoCd=0890200413-00&ServiceCd=730&Type=search" }, "geometry": { "type": "Point", "coordinates": [ 140.6182768, 36.5393526 ] } },
{ "type": "Feature", "properties": { "内容": "まごころの里　大みか【小規模多機能型居宅介護】茨城県日立市森山町３－１７－４０", "url2": "https://www.kaigokensaku.mhlw.go.jp/08/index.php?action_kouhyou_detail_004_kani=true&JigyosyoCd=0890200504-00&ServiceCd=730&Type=search" }, "geometry": { "type": "Point", "coordinates": [ 140.61445, 36.5221214 ] } },
{ "type": "Feature", "properties": { "内容": "神峰の森吉祥【小規模多機能型居宅介護】茨城県日立市本宮町1-2-13", "url2": "https://www.kaigokensaku.mhlw.go.jp/08/index.php?action_kouhyou_detail_004_kani=true&JigyosyoCd=0890200280-00&ServiceCd=730&Type=search" }, "geometry": { "type": "Point", "coordinates": [ 140.6597266, 36.6060754 ] } },
{ "type": "Feature", "properties": { "内容": "小規模多機能型居宅介護ひまわり【小規模多機能型居宅介護】茨城県日立市諏訪町1－20－7", "url2": "https://www.kaigokensaku.mhlw.go.jp/08/index.php?action_kouhyou_detail_004_kani=true&JigyosyoCd=0890200447-00&ServiceCd=730&Type=search" }, "geometry": { "type": "Point", "coordinates": [ 140.627834799999988, 36.5658615 ] } },
{ "type": "Feature", "properties": { "内容": "豊友館【小規模多機能型居宅介護】茨城県日立市折笠町560-2", "url2": "https://www.kaigokensaku.mhlw.go.jp/08/index.php?action_kouhyou_detail_004_kani=true&JigyosyoCd=0890200603-00&ServiceCd=730&Type=search" }, "geometry": { "type": "Point", "coordinates": [ 140.691744123278795, 36.654242990540766 ] } },
{ "type": "Feature", "properties": { "内容": "小規模多機能型居宅介護事業所　土浦の里【小規模多機能型居宅介護】中央２丁目６－２７", "url2": "https://www.kaigokensaku.mhlw.go.jp/08/index.php?action_kouhyou_detail_004_kani=true&JigyosyoCd=0890300056-00&ServiceCd=730&Type=search" }, "geometry": { "type": "Point", "coordinates": [ 130.396552, 33.5893408 ] } },
{ "type": "Feature", "properties": { "内容": "小多機ホームしょうわ家族【小規模多機能型居宅介護】茨城県土浦市荒川沖6-638", "url2": "https://www.kaigokensaku.mhlw.go.jp/08/index.php?action_kouhyou_detail_004_kani=true&JigyosyoCd=0890300312-00&ServiceCd=730&Type=search" }, "geometry": { "type": "Point", "coordinates": [ 140.154725276493082, 36.018567502690239 ] } },
{ "type": "Feature", "properties": { "内容": "小規模多機能型ケア施設蒼天の郷【小規模多機能型居宅介護】茨城県古河市仁連１９８７番１", "url2": "https://www.kaigokensaku.mhlw.go.jp/08/index.php?action_kouhyou_detail_004_kani=true&JigyosyoCd=0890400013-00&ServiceCd=730&Type=search" }, "geometry": { "type": "Point", "coordinates": [ 139.818847499999947, 36.1822906 ] } },
{ "type": "Feature", "properties": { "内容": "レーベンス古河　仁寿苑【小規模多機能型居宅介護】茨城県古河市駒羽根834", "url2": "https://www.kaigokensaku.mhlw.go.jp/08/index.php?action_kouhyou_detail_004_kani=true&JigyosyoCd=0890400039-00&ServiceCd=730&Type=search" }, "geometry": { "type": "Point", "coordinates": [ 139.759384899999986, 36.1634574 ] } },
{ "type": "Feature", "properties": { "内容": "小規模多機能型居宅介護事業所『柿岡あかね』【小規模多機能型居宅介護】石岡市柿岡１９３７－７", "url2": "https://www.kaigokensaku.mhlw.go.jp/08/index.php?action_kouhyou_detail_004_kani=true&JigyosyoCd=0890500051-00&ServiceCd=730&Type=search" }, "geometry": { "type": "Point", "coordinates": [ 140.192974, 36.242671 ] } },
{ "type": "Feature", "properties": { "内容": "医療法人幕内会　小規模多機能型居宅介護事業所たなごころ【小規模多機能型居宅介護】茨城県石岡市東石岡５－１－３１", "url2": "https://www.kaigokensaku.mhlw.go.jp/08/index.php?action_kouhyou_detail_004_kani=true&JigyosyoCd=0890500028-00&ServiceCd=730&Type=search" }, "geometry": { "type": "Point", "coordinates": [ 140.291136199999983, 36.1883596 ] } },
{ "type": "Feature", "properties": { "内容": "小規模多機能型居宅介護事業所　ＲＡＵＭ東ノ辻【小規模多機能型居宅介護】茨城県石岡市石岡２７４８－１", "url2": "https://www.kaigokensaku.mhlw.go.jp/08/index.php?action_kouhyou_detail_004_kani=true&JigyosyoCd=0890500085-00&ServiceCd=730&Type=search" }, "geometry": { "type": "Point", "coordinates": [ 140.294661491332249, 36.197639567221998 ] } },
{ "type": "Feature", "properties": { "内容": "小規模多機能型居宅介護事業所　国府　あおい【小規模多機能型居宅介護】茨城県石岡市国府1-5-6", "url2": "https://www.kaigokensaku.mhlw.go.jp/08/index.php?action_kouhyou_detail_004_kani=true&JigyosyoCd=0890500010-00&ServiceCd=730&Type=search" }, "geometry": { "type": "Point", "coordinates": [ 140.279204, 36.1896009 ] } },
{ "type": "Feature", "properties": { "内容": "小規模多機能型ホームあかり【小規模多機能型居宅介護】茨城県龍ケ崎藤ケ丘4-6-12", "url2": "https://www.kaigokensaku.mhlw.go.jp/08/index.php?action_kouhyou_detail_004_kani=true&JigyosyoCd=0890800089-00&ServiceCd=730&Type=search" }, "geometry": { "type": "Point", "coordinates": [ 140.196573828172291, 35.940034454456644 ] } },
{ "type": "Feature", "properties": { "内容": "医療法人社団白峰会小規模多機能型居宅介護ザ・クラブ【小規模多機能型居宅介護】茨城県下妻市下栗1226-1医療法人社団白峰会小規模多機能型居宅介護ザ・クラブ", "url2": "https://www.kaigokensaku.mhlw.go.jp/08/index.php?action_kouhyou_detail_004_kani=true&JigyosyoCd=0891000036-00&ServiceCd=730&Type=search" }, "geometry": { "type": "Point", "coordinates": [ 139.959804, 36.163615900000018 ] } },
{ "type": "Feature", "properties": { "内容": "スポーツリハビリ太田【小規模多機能型居宅介護】常陸太田市磯部町90―1", "url2": "https://www.kaigokensaku.mhlw.go.jp/08/index.php?action_kouhyou_detail_004_kani=true&JigyosyoCd=0891200024-00&ServiceCd=730&Type=search" }, "geometry": { "type": "Point", "coordinates": [ 140.532175, 36.521221 ] } },
{ "type": "Feature", "properties": { "内容": "サングリーンピア太田ケアセンター「小規模多機能ホーム」【小規模多機能型居宅介護】茨城県常陸太田市町屋町1205-1", "url2": "https://www.kaigokensaku.mhlw.go.jp/08/index.php?action_kouhyou_detail_004_kani=true&JigyosyoCd=0891200073-00&ServiceCd=730&Type=search" }, "geometry": { "type": "Point", "coordinates": [ 140.5601504, 36.6110425 ] } },
{ "type": "Feature", "properties": { "内容": "小規模多機能型居宅介護事業所　やすらぎの家【小規模多機能型居宅介護】茨城県高萩市安良川963-9", "url2": "https://www.kaigokensaku.mhlw.go.jp/08/index.php?action_kouhyou_detail_004_kani=true&JigyosyoCd=0891400038-00&ServiceCd=730&Type=search" }, "geometry": { "type": "Point", "coordinates": [ 140.707077199999958, 36.7103645 ] } },
{ "type": "Feature", "properties": { "内容": "スポーツリハビリ高萩【小規模多機能型居宅介護】茨城県高萩市有明町２－９８", "url2": "https://www.kaigokensaku.mhlw.go.jp/08/index.php?action_kouhyou_detail_004_kani=true&JigyosyoCd=0891400012-00&ServiceCd=730&Type=search" }, "geometry": { "type": "Point", "coordinates": [ 140.721218, 36.7128063 ] } },
{ "type": "Feature", "properties": { "内容": "颯爽と【小規模多機能型居宅介護】茨城県北茨城市磯原町磯原1630番地の266", "url2": "https://www.kaigokensaku.mhlw.go.jp/08/index.php?action_kouhyou_detail_004_kani=true&JigyosyoCd=0891500068-00&ServiceCd=730&Type=search" }, "geometry": { "type": "Point", "coordinates": [ 140.751862399999936, 36.8031307 ] } },
{ "type": "Feature", "properties": { "内容": "ぬくもりの家　大津【小規模多機能型居宅介護】茨城県北茨城市関南町仁井田700番地元気の郷　大津おはよう館", "url2": "https://www.kaigokensaku.mhlw.go.jp/08/index.php?action_kouhyou_detail_004_kani=true&JigyosyoCd=0891500118-00&ServiceCd=730&Type=search" }, "geometry": { "type": "Point", "coordinates": [ 140.779414625764502, 36.832885717033008 ] } },
{ "type": "Feature", "properties": { "内容": "小規模多機能型居宅介護事業所　花の郷【小規模多機能型居宅介護】茨城県笠間市寺崎１６１－１", "url2": "https://www.kaigokensaku.mhlw.go.jp/08/index.php?action_kouhyou_detail_004_kani=true&JigyosyoCd=0891600074-00&ServiceCd=730&Type=search" }, "geometry": { "type": "Point", "coordinates": [ 140.2551513, 36.3947102 ] } },
{ "type": "Feature", "properties": { "内容": "小規模多機能型居宅介護事業所　ゆりのき【小規模多機能型居宅介護】茨城県笠間市鯉淵6612番地の213", "url2": "https://www.kaigokensaku.mhlw.go.jp/08/index.php?action_kouhyou_detail_004_kani=true&JigyosyoCd=0891600116-00&ServiceCd=730&Type=search" }, "geometry": { "type": "Point", "coordinates": [ 140.3266731, 36.3491695 ] } },
{ "type": "Feature", "properties": { "内容": "牛久コスモス園【小規模多機能型居宅介護】茨城県牛久市小坂町3388-1", "url2": "https://www.kaigokensaku.mhlw.go.jp/08/index.php?action_kouhyou_detail_004_kani=true&JigyosyoCd=0891900011-00&ServiceCd=730&Type=search" }, "geometry": { "type": "Point", "coordinates": [ 140.196802299999945, 35.9714462 ] } },
{ "type": "Feature", "properties": { "内容": "ケアサポート　けやき【小規模多機能型居宅介護】牛久市神谷１－１４－１３", "url2": "https://www.kaigokensaku.mhlw.go.jp/08/index.php?action_kouhyou_detail_004_kani=true&JigyosyoCd=0891900060-00&ServiceCd=730&Type=search" }, "geometry": { "type": "Point", "coordinates": [ 140.153755499999988, 35.9738555 ] } },
{ "type": "Feature", "properties": { "内容": "小規模多機能型居宅介護　フロンティア牛久【小規模多機能型居宅介護】茨城県牛久市柏田町1616-1", "url2": "https://www.kaigokensaku.mhlw.go.jp/08/index.php?action_kouhyou_detail_004_kani=true&JigyosyoCd=0891900128-00&ServiceCd=730&Type=search" }, "geometry": { "type": "Point", "coordinates": [ 140.15632020000001, 35.9794441 ] } },
{ "type": "Feature", "properties": { "内容": "ケアサポート　田村【小規模多機能型居宅介護】つくば市上横場２２９０－６", "url2": "https://www.kaigokensaku.mhlw.go.jp/08/index.php?action_kouhyou_detail_004_kani=true&JigyosyoCd=0892000100-00&ServiceCd=730&Type=search" }, "geometry": { "type": "Point", "coordinates": [ 140.09057, 36.040108 ] } },
{ "type": "Feature", "properties": { "内容": "小規模多機能型居宅介護　豊里長寿館【小規模多機能型居宅介護】茨城県つくば市高野1197-64", "url2": "https://www.kaigokensaku.mhlw.go.jp/08/index.php?action_kouhyou_detail_004_kani=true&JigyosyoCd=0892000035-00&ServiceCd=730&Type=search" }, "geometry": { "type": "Point", "coordinates": [ 140.036014499999965, 36.1060796 ] } },
{ "type": "Feature", "properties": { "内容": "あいりれー・けあほーむつくば【小規模多機能型居宅介護】茨城県つくば市要275-1", "url2": "https://www.kaigokensaku.mhlw.go.jp/08/index.php?action_kouhyou_detail_004_kani=true&JigyosyoCd=0892000407-00&ServiceCd=730&Type=search" }, "geometry": { "type": "Point", "coordinates": [ 140.086527399999966, 36.116763901663759 ] } },
{ "type": "Feature", "properties": { "内容": "小規模多機能型居宅介護　楓【小規模多機能型居宅介護】茨城県つくば市上広岡５０３－１１", "url2": "https://www.kaigokensaku.mhlw.go.jp/08/index.php?action_kouhyou_detail_004_kani=true&JigyosyoCd=0892000134-00&ServiceCd=730&Type=search" }, "geometry": { "type": "Point", "coordinates": [ 140.150618, 36.0739677 ] } },
{ "type": "Feature", "properties": { "内容": "小規模多機能介護それいゆ【小規模多機能型居宅介護】東石川3145-1", "url2": "https://www.kaigokensaku.mhlw.go.jp/08/index.php?action_kouhyou_detail_004_kani=true&JigyosyoCd=0892100322-00&ServiceCd=730&Type=search" }, "geometry": { "type": "Point", "coordinates": [ 140.535047, 36.4162214 ] } },
{ "type": "Feature", "properties": { "内容": "介護サポートホームほのぼの元町【小規模多機能型居宅介護】茨城県ひたちなか市元町１－５", "url2": "https://www.kaigokensaku.mhlw.go.jp/08/index.php?action_kouhyou_detail_004_kani=true&JigyosyoCd=0892100017-00&ServiceCd=730&Type=search" }, "geometry": { "type": "Point", "coordinates": [ 140.524857900000029, 36.3959871 ] } },
{ "type": "Feature", "properties": { "内容": "らいふホーム長堀【小規模多機能型居宅介護】ひたちなか市長堀町1-5-22", "url2": "https://www.kaigokensaku.mhlw.go.jp/08/index.php?action_kouhyou_detail_004_kani=true&JigyosyoCd=0892100140-00&ServiceCd=730&Type=search" }, "geometry": { "type": "Point", "coordinates": [ 140.538867555056669, 36.390699310360247 ] } },
{ "type": "Feature", "properties": { "内容": "まごころの里　田彦【小規模多機能型居宅介護】東石川３５５６", "url2": "https://www.kaigokensaku.mhlw.go.jp/08/index.php?action_kouhyou_detail_004_kani=true&JigyosyoCd=0892100272-00&ServiceCd=730&Type=search" }, "geometry": { "type": "Point", "coordinates": [ 140.527832, 36.4117031 ] } },
{ "type": "Feature", "properties": { "内容": "小規模多機能ホームひたちなか【小規模多機能型居宅介護】大字足崎1474－7フロイデ総合在宅サポートセンターひたちなか", "url2": "https://www.kaigokensaku.mhlw.go.jp/08/index.php?action_kouhyou_detail_004_kani=true&JigyosyoCd=0892100066-00&ServiceCd=730&Type=search" }, "geometry": { "type": "Point", "coordinates": [ 140.552771, 36.404453 ] } },
{ "type": "Feature", "properties": { "内容": "フロイデ小規模多機能ホーム勝田【小規模多機能型居宅介護】茨城県ひたちなか市大字足崎1474－493ケルン棟", "url2": "https://www.kaigokensaku.mhlw.go.jp/08/index.php?action_kouhyou_detail_004_kani=true&JigyosyoCd=0892100421-00&ServiceCd=730&Type=search" }, "geometry": { "type": "Point", "coordinates": [ 140.534793400000012, 36.3966506 ] } },
{ "type": "Feature", "properties": { "内容": "ふくふく鹿嶋【小規模多機能型居宅介護】茨城県鹿嶋市大字宮中字宮中野3820番地1", "url2": "https://www.kaigokensaku.mhlw.go.jp/08/index.php?action_kouhyou_detail_004_kani=true&JigyosyoCd=0892200023-00&ServiceCd=730&Type=search" }, "geometry": { "type": "Point", "coordinates": [ 140.6081327, 35.9806731 ] } },
{ "type": "Feature", "properties": { "内容": "サングリーンピア大宮ケアセンター「小規模多機能ホーム」【小規模多機能型居宅介護】茨城県常陸大宮市若林1723-84サングリーンピア大宮ケアセンター", "url2": "https://www.kaigokensaku.mhlw.go.jp/08/index.php?action_kouhyou_detail_004_kani=true&JigyosyoCd=0892500141-00&ServiceCd=730&Type=search" }, "geometry": { "type": "Point", "coordinates": [ 140.382751298147582, 36.546533330264147 ] } },
{ "type": "Feature", "properties": { "内容": "小規模多機能ホーム大宮【小規模多機能型居宅介護】茨城県常陸大宮市上町３５３", "url2": "https://www.kaigokensaku.mhlw.go.jp/08/index.php?action_kouhyou_detail_004_kani=true&JigyosyoCd=0892500166-00&ServiceCd=730&Type=search" }, "geometry": { "type": "Point", "coordinates": [ 140.4129173, 36.5501033 ] } },
{ "type": "Feature", "properties": { "内容": "フロイデ総合サポートセンター山方【小規模多機能型居宅介護】茨城県常陸大宮市山方１３６１", "url2": "https://www.kaigokensaku.mhlw.go.jp/08/index.php?action_kouhyou_detail_004_kani=true&JigyosyoCd=0892500034-00&ServiceCd=730&Type=search" }, "geometry": { "type": "Point", "coordinates": [ 140.398589300000026, 36.614206 ] } },
{ "type": "Feature", "properties": { "内容": "ゆたかな郷【小規模多機能型居宅介護】茨城県那珂市中里1184-1", "url2": "https://www.kaigokensaku.mhlw.go.jp/08/index.php?action_kouhyou_detail_004_kani=true&JigyosyoCd=0892600016-00&ServiceCd=730&Type=search" }, "geometry": { "type": "Point", "coordinates": [ 140.444322599999964, 36.487378 ] } },
{ "type": "Feature", "properties": { "内容": "小規模多機能ホーム憩の杜【小規模多機能型居宅介護】茨城県那珂市菅谷５３３地域密着型サービス施設憩の杜", "url2": "https://www.kaigokensaku.mhlw.go.jp/08/index.php?action_kouhyou_detail_004_kani=true&JigyosyoCd=0892600024-00&ServiceCd=730&Type=search" }, "geometry": { "type": "Point", "coordinates": [ 140.49580560000004, 36.4619379 ] } },
{ "type": "Feature", "properties": { "内容": "小規模多機能ホーム　クリクリ【小規模多機能型居宅介護】茨城県那珂市豊喰140-17", "url2": "https://www.kaigokensaku.mhlw.go.jp/08/index.php?action_kouhyou_detail_004_kani=true&JigyosyoCd=0892600065-00&ServiceCd=730&Type=search" }, "geometry": { "type": "Point", "coordinates": [ 140.460895, 36.4405839 ] } },
{ "type": "Feature", "properties": { "内容": "小規模多機能型居宅介護　グリーンハウス陣屋【小規模多機能型居宅介護】茨城県筑西市知行106", "url2": "https://www.kaigokensaku.mhlw.go.jp/08/index.php?action_kouhyou_detail_004_kani=true&JigyosyoCd=0892700139-00&ServiceCd=730&Type=search" }, "geometry": { "type": "Point", "coordinates": [ 140.0433289, 36.3094623 ] } },
{ "type": "Feature", "properties": { "内容": "麗翠堂多機能型ケアホーム【小規模多機能型居宅介護】茨城県坂東市矢作292", "url2": "https://www.kaigokensaku.mhlw.go.jp/08/index.php?action_kouhyou_detail_004_kani=true&JigyosyoCd=0892800020-00&ServiceCd=730&Type=search" }, "geometry": { "type": "Point", "coordinates": [ 139.9024473, 36.0074873 ] } },
{ "type": "Feature", "properties": { "内容": "げんき村小規模多機能型居宅介護支援事業所【小規模多機能型居宅介護】宍倉5696-3", "url2": "https://www.kaigokensaku.mhlw.go.jp/08/index.php?action_kouhyou_detail_004_kani=true&JigyosyoCd=0893000026-00&ServiceCd=730&Type=search" }, "geometry": { "type": "Point", "coordinates": [ 140.271023199999945, 36.1302736 ] } },
{ "type": "Feature", "properties": { "内容": "小規模多機能型ホーム母里【小規模多機能型居宅介護】茨城県神栖市太田568-28", "url2": "https://www.kaigokensaku.mhlw.go.jp/08/index.php?action_kouhyou_detail_004_kani=true&JigyosyoCd=0895200061-00&ServiceCd=730&Type=search" }, "geometry": { "type": "Point", "coordinates": [ 140.716607577246151, 35.836231908693634 ] } },
{ "type": "Feature", "properties": { "内容": "黎明館あかんさす【小規模多機能型居宅介護】茨城県鉾田市汲上３１６３－２", "url2": "https://www.kaigokensaku.mhlw.go.jp/08/index.php?action_kouhyou_detail_004_kani=true&JigyosyoCd=0895400026-00&ServiceCd=730&Type=search" }, "geometry": { "type": "Point", "coordinates": [ 140.578368, 36.1181871 ] } },
{ "type": "Feature", "properties": { "内容": "小規模多機能型居宅介護　どんぐり倶楽部【小規模多機能型居宅介護】茨城県つくばみらい市狸穴１０７２番地４６", "url2": "https://www.kaigokensaku.mhlw.go.jp/08/index.php?action_kouhyou_detail_004_kani=true&JigyosyoCd=0895500023-00&ServiceCd=730&Type=search" }, "geometry": { "type": "Point", "coordinates": [ 140.066269, 35.9914161 ] } },
{ "type": "Feature", "properties": { "内容": "はるるの郷【小規模多機能型居宅介護】茨城県小美玉市小川1８５３", "url2": "https://www.kaigokensaku.mhlw.go.jp/08/index.php?action_kouhyou_detail_004_kani=true&JigyosyoCd=0895600013-00&ServiceCd=730&Type=search" }, "geometry": { "type": "Point", "coordinates": [ 140.357783899999959, 36.1649573 ] } },
{ "type": "Feature", "properties": { "内容": "小　規　模　多　機　能　型　居　宅　介　護　　　た　ま　り【小規模多機能型居宅介護】茨　城　県　小　美　玉　市　栗　又　四　ケ　２２８８－７", "url2": "https://www.kaigokensaku.mhlw.go.jp/08/index.php?action_kouhyou_detail_004_kani=true&JigyosyoCd=0895600062-00&ServiceCd=730&Type=search" }, "geometry": { "type": "Point", "coordinates": [ 140.31825, 36.17917 ] } },
{ "type": "Feature", "properties": { "内容": "小規模多機能ホーム城里【小規模多機能型居宅介護】茨城県東茨城郡城里町石塚481－1", "url2": "https://www.kaigokensaku.mhlw.go.jp/08/index.php?action_kouhyou_detail_004_kani=true&JigyosyoCd=0893100065-00&ServiceCd=730&Type=search" }, "geometry": { "type": "Point", "coordinates": [ 140.375164, 36.477085 ] } },
{ "type": "Feature", "properties": { "内容": "小規模多機能型居宅介護関所の湯【小規模多機能型居宅介護】茨城県久慈郡大子町袋田2642-7", "url2": "https://www.kaigokensaku.mhlw.go.jp/08/index.php?action_kouhyou_detail_004_kani=true&JigyosyoCd=0893400069-00&ServiceCd=730&Type=search" }, "geometry": { "type": "Point", "coordinates": [ 140.3887671, 36.7471499 ] } },
{ "type": "Feature", "properties": { "内容": "小規模多機能型ホーム　みつば【小規模多機能型居宅介護】光葉11-22", "url2": "https://www.kaigokensaku.mhlw.go.jp/08/index.php?action_kouhyou_detail_004_kani=true&JigyosyoCd=0892900036-00&ServiceCd=730&Type=search" }, "geometry": { "type": "Point", "coordinates": [ 140.382748099999986, 35.9440589 ] } },
{ "type": "Feature", "properties": { "内容": "小規模多機能すみれ【小規模多機能型居宅介護】茨城県稲敷郡阿見町岡崎２－８－１９", "url2": "https://www.kaigokensaku.mhlw.go.jp/08/index.php?action_kouhyou_detail_004_kani=true&JigyosyoCd=0893800011-00&ServiceCd=730&Type=search" }, "geometry": { "type": "Point", "coordinates": [ 140.22301, 36.037689 ] } },
{ "type": "Feature", "properties": { "内容": "小規模多機能居宅介護事業所優愛【小規模多機能型居宅介護】中央５丁目19-20", "url2": "https://www.kaigokensaku.mhlw.go.jp/08/index.php?action_kouhyou_detail_004_kani=true&JigyosyoCd=0893800045-00&ServiceCd=730&Type=search" }, "geometry": { "type": "Point", "coordinates": [ 139.662268600000061, 35.6977733 ] } },
{ "type": "Feature", "properties": { "内容": "小規模多機能型居宅介護　なごみ苑【小規模多機能型居宅介護】茨城県結城郡八千代町大字村貫１１１－３", "url2": "https://www.kaigokensaku.mhlw.go.jp/08/index.php?action_kouhyou_detail_004_kani=true&JigyosyoCd=0894200039-00&ServiceCd=730&Type=search" }, "geometry": { "type": "Point", "coordinates": [ 139.873666100000037, 36.171747 ] } }
]
}
