{
"type": "FeatureCollection",
"name": "geo_8_1",
"crs": { "type": "name", "properties": { "name": "urn:ogc:def:crs:OGC:1.3:CRS84" } },
"features": [
{ "type": "Feature", "properties": { "ID": 81108510034, "正式名称": "水戸赤十字病院", "機関区分": 1, "都道府県コード": 8, "市区町村コード": 201, "所在地": "茨城県水戸市三の丸３－１２－４８", "緯度": 36.3712, "経度": 140.486513, "url": "https://www.iryou.teikyouseido.mhlw.go.jp/znk-web/juminkanja/S2430/initialize?prefCd=08&kikanCd=108510034&kikanKbn=1", "url2": "http://www.mito.jrc.or.jp", "内容": "水戸赤十字病院【1:病院】【診療科目:内科_血液内科_脳神経内科_呼吸器内科_循環器内科_消化器内科_緩和ケア内科_外科_脳神経外科_血管外科_消化器外科_乳腺外科_整形外科_形成外科_小児科_産婦人科_眼科_耳鼻いんこう科_皮膚科_泌尿器科_リウマチ科_リハビリテーション科_放射線科_病理診断科_麻酔科】【一般病床数:378療養病床数:0精神病床数:0感染症病床数:9合計病床数:387】茨城県水戸市三の丸３－１２－４８" }, "geometry": { "type": "Point", "coordinates": [ 140.486513, 36.3712 ] } },
{ "type": "Feature", "properties": { "ID": 81108510050, "正式名称": "総合病院水戸協同病院", "機関区分": 1, "都道府県コード": 8, "市区町村コード": 201, "所在地": "茨城県水戸市宮町３丁目２－７", "緯度": 36.372958, "経度": 140.471516, "url": "https://www.iryou.teikyouseido.mhlw.go.jp/znk-web/juminkanja/S2430/initialize?prefCd=08&kikanCd=108510050&kikanKbn=1", "url2": "http://www.mitokyodo-hp.jp", "内容": "総合病院水戸協同病院【1:病院】【診療科目:内科_感染症内科_血液内科_糖尿病内科_代謝内科_内分泌内科_呼吸器内科_循環器内科_消化器内科_腎臓内科_神経内科_外科_脳神経外科_呼吸器外科_消化器外科_乳腺外科_整形外科_形成外科_婦人科_眼科_頭頸部・耳鼻いんこう科_皮膚科_泌尿器科_歯科口腔外科_リウマチ科_リハビリテーション科_放射線科_病理診断科_救急科_麻酔科】【一般病床数:324療養病床数:0精神病床数:0感染症病床数:0合計病床数:324】茨城県水戸市宮町３丁目２－７" }, "geometry": { "type": "Point", "coordinates": [ 140.471516, 36.372958 ] } },
{ "type": "Feature", "properties": { "ID": 81108510092, "正式名称": "医療法人明保会江幡産婦人科・内科病院", "機関区分": 1, "都道府県コード": 8, "市区町村コード": 201, "所在地": "茨城県水戸市備前町４番１１号", "緯度": 36.376027, "経度": 140.464575, "url": "https://www.iryou.teikyouseido.mhlw.go.jp/znk-web/juminkanja/S2430/initialize?prefCd=08&kikanCd=108510092&kikanKbn=1", "url2": "http://www.ebata.or.jp", "内容": "医療法人明保会江幡産婦人科・内科病院【1:病院】【診療科目:内科_産婦人科_歯科_矯正歯科_小児歯科_麻酔科】【一般病床数:30療養病床数:0精神病床数:0感染症病床数:0合計病床数:30】茨城県水戸市備前町４番１１号" }, "geometry": { "type": "Point", "coordinates": [ 140.464575, 36.376027 ] } },
{ "type": "Feature", "properties": { "ID": 81108510135, "正式名称": "医療法人　弘仁会　志村病院", "機関区分": 1, "都道府県コード": 8, "市区町村コード": 201, "所在地": "茨城県水戸市五軒町１－５－１１", "緯度": 36.381016, "経度": 140.46578, "url": "https://www.iryou.teikyouseido.mhlw.go.jp/znk-web/juminkanja/S2430/initialize?prefCd=08&kikanCd=108510135&kikanKbn=1", "url2": "http://www.shimura-hospital.com", "内容": "医療法人　弘仁会　志村病院【1:病院】【診療科目:内科_呼吸器内科_循環器内科_消化器内科_神経内科_外科_消化器外科_整形外科_皮膚科_リハビリテーション科】【一般病床数:30療養病床数:30精神病床数:0感染症病床数:0合計病床数:60】茨城県水戸市五軒町１－５－１１" }, "geometry": { "type": "Point", "coordinates": [ 140.46578, 36.381016 ] } },
{ "type": "Feature", "properties": { "ID": 81108510148, "正式名称": "医療法人石渡会　石渡産婦人科病院", "機関区分": 1, "都道府県コード": 8, "市区町村コード": 201, "所在地": "茨城県水戸市上水戸１－４－２１", "緯度": 36.388717, "経度": 140.449512, "url": "https://www.iryou.teikyouseido.mhlw.go.jp/znk-web/juminkanja/S2430/initialize?prefCd=08&kikanCd=108510148&kikanKbn=1", "url2": "https://ishiwata-hospital.jp", "内容": "医療法人石渡会　石渡産婦人科病院【1:病院】【診療科目:産婦人科】【一般病床数:30療養病床数:0精神病床数:0感染症病床数:0合計病床数:30】茨城県水戸市上水戸１－４－２１" }, "geometry": { "type": "Point", "coordinates": [ 140.449512, 36.388717 ] } },
{ "type": "Feature", "properties": { "ID": 81108510177, "正式名称": "医療法人社団青潤会青柳病院", "機関区分": 1, "都道府県コード": 8, "市区町村コード": 201, "所在地": "茨城県水戸市柳町２丁目１０番１１号", "緯度": 36.365459, "経度": 140.490076, "url": "https://www.iryou.teikyouseido.mhlw.go.jp/znk-web/juminkanja/S2430/initialize?prefCd=08&kikanCd=108510177&kikanKbn=1", "url2": "http://www.aoyagihp.net/", "内容": "医療法人社団青潤会青柳病院【1:病院】【診療科目:内科_糖尿病内科_脂質代謝内科_循環器内科_消化器内科_胃腸内科_老年内科_外科_脳神経外科_整形外科_形成外科_リウマチ科】【一般病床数:57療養病床数:0精神病床数:0感染症病床数:0合計病床数:57】茨城県水戸市柳町２丁目１０番１１号" }, "geometry": { "type": "Point", "coordinates": [ 140.490076, 36.365459 ] } },
{ "type": "Feature", "properties": { "ID": 81108510252, "正式名称": "医療法人住吉クリニック住吉クリニック病院", "機関区分": 1, "都道府県コード": 8, "市区町村コード": 201, "所在地": "茨城県水戸市住吉町１９３－９７", "緯度": 36.332084, "経度": 140.467069, "url": "https://www.iryou.teikyouseido.mhlw.go.jp/znk-web/juminkanja/S2430/initialize?prefCd=08&kikanCd=108510252&kikanKbn=1", "url2": "http://www.sumiyoshi-clinic.or.jp", "内容": "医療法人住吉クリニック住吉クリニック病院【1:病院】【診療科目:内科_血液・腫瘍内科_糖尿病・内分泌内科_循環器内科_消化器内科_腎臓内科_人工透析内科】【一般病床数:60療養病床数:0精神病床数:0感染症病床数:0合計病床数:60】茨城県水戸市住吉町１９３－９７" }, "geometry": { "type": "Point", "coordinates": [ 140.467069, 36.332084 ] } },
{ "type": "Feature", "properties": { "ID": 81108510265, "正式名称": "医療法人清真会丹野病院", "機関区分": 1, "都道府県コード": 8, "市区町村コード": 201, "所在地": "茨城県水戸市酒門町４８８７", "緯度": 36.359696, "経度": 140.495277, "url": "https://www.iryou.teikyouseido.mhlw.go.jp/znk-web/juminkanja/S2430/initialize?prefCd=08&kikanCd=108510265&kikanKbn=1", "url2": "https://www.tanno-h.com", "内容": "医療法人清真会丹野病院【1:病院】【診療科目:内科_外科_脳神経外科_整形外科_小児科_麻酔科】【一般病床数:78療養病床数:60精神病床数:0感染症病床数:0合計病床数:138】茨城県水戸市酒門町４８８７" }, "geometry": { "type": "Point", "coordinates": [ 140.495277, 36.359696 ] } },
{ "type": "Feature", "properties": { "ID": 81108510281, "正式名称": "城南病院", "機関区分": 1, "都道府県コード": 8, "市区町村コード": 201, "所在地": "茨城県水戸市城南３―１５―１７", "緯度": 36.364254, "経度": 140.483365, "url": "https://www.iryou.teikyouseido.mhlw.go.jp/znk-web/juminkanja/S2430/initialize?prefCd=08&kikanCd=108510281&kikanKbn=1", "url2": "https://www.jonanhp.jp/", "内容": "城南病院【1:病院】【診療科目:内科_呼吸器内科_循環器内科_消化器内科_泌尿器科_リハビリテーション科】【一般病床数:36療養病床数:36精神病床数:0感染症病床数:0合計病床数:72】茨城県水戸市城南３―１５―１７" }, "geometry": { "type": "Point", "coordinates": [ 140.483365, 36.364254 ] } },
{ "type": "Feature", "properties": { "ID": 81108510308, "正式名称": "岩崎病院", "機関区分": 1, "都道府県コード": 8, "市区町村コード": 201, "所在地": "茨城県水戸市笠原町１６６４－２", "緯度": 36.335646, "経度": 140.444028, "url": "https://www.iryou.teikyouseido.mhlw.go.jp/znk-web/juminkanja/S2430/initialize?prefCd=08&kikanCd=108510308&kikanKbn=1", "url2": "http://www.iwasaki-hosp.com", "内容": "岩崎病院【1:病院】【診療科目:内科_消化器内科_外科_小児科_産婦人科】【一般病床数:31療養病床数:0精神病床数:0感染症病床数:0合計病床数:31】茨城県水戸市笠原町１６６４－２" }, "geometry": { "type": "Point", "coordinates": [ 140.444028, 36.335646 ] } },
{ "type": "Feature", "properties": { "ID": 81108510311, "正式名称": "医療法人社団協栄会大久保病院", "機関区分": 1, "都道府県コード": 8, "市区町村コード": 201, "所在地": "茨城県水戸市石川４－４０４０－３２", "緯度": 36.391236, "経度": 140.424654, "url": "https://www.iryou.teikyouseido.mhlw.go.jp/znk-web/juminkanja/S2430/initialize?prefCd=08&kikanCd=108510311&kikanKbn=1", "url2": "http://www.okubo-hsp.or.jp", "内容": "医療法人社団協栄会大久保病院【1:病院】【診療科目:内科_消化器内科_腎臓内科_外科_脳神経外科_消化器・移植外科_整形外科_眼科_皮膚科_泌尿器科_歯科_リハビリテーション科_麻酔科】【一般病床数:99療養病床数:95精神病床数:0感染症病床数:0合計病床数:194】茨城県水戸市石川４－４０４０－３２" }, "geometry": { "type": "Point", "coordinates": [ 140.424654, 36.391236 ] } },
{ "type": "Feature", "properties": { "ID": 81108510337, "正式名称": "公益財団法人報恩会石崎病院", "機関区分": 1, "都道府県コード": 8, "市区町村コード": 302, "所在地": "茨城県東茨城郡茨城町上石崎４６９８", "緯度": 36.312293, "経度": 140.479131, "url": "https://www.iryou.teikyouseido.mhlw.go.jp/znk-web/juminkanja/S2430/initialize?prefCd=08&kikanCd=108510337&kikanKbn=1", "url2": "http://www.ishizaki-hp.jp/", "内容": "公益財団法人報恩会石崎病院【1:病院】【診療科目:精神科_心療内科】【一般病床数:0療養病床数:47精神病床数:244感染症病床数:0合計病床数:291】茨城県東茨城郡茨城町上石崎４６９８" }, "geometry": { "type": "Point", "coordinates": [ 140.479131, 36.312293 ] } },
{ "type": "Feature", "properties": { "ID": 81108510395, "正式名称": "みと南ヶ丘病院", "機関区分": 1, "都道府県コード": 8, "市区町村コード": 201, "所在地": "茨城県水戸市元吉田町１０５７－１", "緯度": 36.339235, "経度": 140.463068, "url": "https://www.iryou.teikyouseido.mhlw.go.jp/znk-web/juminkanja/S2430/initialize?prefCd=08&kikanCd=108510395&kikanKbn=1", "url2": "https://mito-hp.jp/", "内容": "みと南ヶ丘病院【1:病院】【診療科目:内科_呼吸器内科_循環器内科_消化器内科_神経内科_放射線科】【一般病床数:0療養病床数:48精神病床数:0感染症病床数:0合計病床数:48】茨城県水戸市元吉田町１０５７－１" }, "geometry": { "type": "Point", "coordinates": [ 140.463068, 36.339235 ] } },
{ "type": "Feature", "properties": { "ID": 81108510409, "正式名称": "社会福祉法人恩賜財団済生会支部　茨城県済生会　水戸済生会総合病院", "機関区分": 1, "都道府県コード": 8, "市区町村コード": 201, "所在地": "茨城県水戸市双葉台３丁目３－１０", "緯度": 36.398451, "経度": 140.394792, "url": "https://www.iryou.teikyouseido.mhlw.go.jp/znk-web/juminkanja/S2430/initialize?prefCd=08&kikanCd=108510409&kikanKbn=1", "url2": "https://www.mito-saiseikai.jp/", "内容": "社会福祉法人恩賜財団済生会支部　茨城県済生会　水戸済生会総合病院【1:病院】【診療科目:内科_血液内科_内分泌内科_糖尿病・代謝内科_脳神経内科_呼吸器内科_循環器内科_消化器内科_腎臓内科_ペインクリニック内科_緩和ケア内科_リウマチ・膠原病内科_外科_脳神経外科_呼吸器外科_心臓血管外科_消化器外科_乳腺外科_整形外科_形成外科_美容外科_小児科_産婦人科_眼科_耳鼻いんこう科_皮膚科_泌尿器科_歯科_歯科口腔外科_リハビリテーション科_放射線科_病理診断科_救急科_麻酔科】【一般病床数:415療養病床数:0精神病床数:0感染症病床数:0合計病床数:415】茨城県水戸市双葉台３丁目３－１０" }, "geometry": { "type": "Point", "coordinates": [ 140.394792, 36.398451 ] } },
{ "type": "Feature", "properties": { "ID": 81108510412, "正式名称": "茨城県立こども病院", "機関区分": 1, "都道府県コード": 8, "市区町村コード": 201, "所在地": "茨城県水戸市双葉台３ー３ー１", "緯度": 36.398985, "経度": 140.394022, "url": "https://www.iryou.teikyouseido.mhlw.go.jp/znk-web/juminkanja/S2430/initialize?prefCd=08&kikanCd=108510412&kikanKbn=1", "url2": "https://www.ibaraki-kodomo.com/", "内容": "茨城県立こども病院【1:病院】【診療科目:感染症内科_血液・腫瘍内科_代謝・内分泌内科_循環器内科_腎臓内科_脳神経外科_心臓血管外科_整形外科_形成外科_小児科_小児外科_小児泌尿器科_新生児内科_小児神経心療内科_アレルギー科_放射線科_救急科_麻酔科】【一般病床数:115療養病床数:0精神病床数:0感染症病床数:0合計病床数:115】茨城県水戸市双葉台３ー３ー１" }, "geometry": { "type": "Point", "coordinates": [ 140.394022, 36.398985 ] } },
{ "type": "Feature", "properties": { "ID": 81108510467, "正式名称": "医療法人大橋会大橋病院", "機関区分": 1, "都道府県コード": 8, "市区町村コード": 201, "所在地": "茨城県水戸市見川町２１３１－１５６０", "緯度": 36.357535, "経度": 140.426811, "url": "https://www.iryou.teikyouseido.mhlw.go.jp/znk-web/juminkanja/S2430/initialize?prefCd=08&kikanCd=108510467&kikanKbn=1", "url2": "http://www.ohhashikai.or.jp/", "内容": "医療法人大橋会大橋病院【1:病院】【診療科目:内科_外科_眼科】【一般病床数:43療養病床数:0精神病床数:0感染症病床数:0合計病床数:43】茨城県水戸市見川町２１３１－１５６０" }, "geometry": { "type": "Point", "coordinates": [ 140.426811, 36.357535 ] } },
{ "type": "Feature", "properties": { "ID": 81108510470, "正式名称": "医療法人鳳香会東前病院", "機関区分": 1, "都道府県コード": 8, "市区町村コード": 201, "所在地": "茨城県水戸市東前２－２８", "緯度": 36.338549, "経度": 140.531109, "url": "https://www.iryou.teikyouseido.mhlw.go.jp/znk-web/juminkanja/S2430/initialize?prefCd=08&kikanCd=108510470&kikanKbn=1", "url2": "http://www.toumae-hospital.jp/", "内容": "医療法人鳳香会東前病院【1:病院】【診療科目:内科_皮膚科_精神科_神経科_リハビリテーション科】【一般病床数:0療養病床数:104精神病床数:0感染症病床数:0合計病床数:104】茨城県水戸市東前２－２８" }, "geometry": { "type": "Point", "coordinates": [ 140.531109, 36.338549 ] } },
{ "type": "Feature", "properties": { "ID": 81108510496, "正式名称": "国家公務員共済組合連合会水府病院", "機関区分": 1, "都道府県コード": 8, "市区町村コード": 201, "所在地": "茨城県水戸市赤塚１丁目１番地", "緯度": 36.381747, "経度": 140.412747, "url": "https://www.iryou.teikyouseido.mhlw.go.jp/znk-web/juminkanja/S2430/initialize?prefCd=08&kikanCd=108510496&kikanKbn=1", "url2": "https://suifu.kkr.or.jp/", "内容": "国家公務員共済組合連合会水府病院【1:病院】【診療科目:内科_外科_整形外科_リハビリテーション科_放射線科_麻酔科】【一般病床数:127療養病床数:0精神病床数:0感染症病床数:0合計病床数:127】茨城県水戸市赤塚１丁目１番地" }, "geometry": { "type": "Point", "coordinates": [ 140.412747, 36.381747 ] } },
{ "type": "Feature", "properties": { "ID": 81108510500, "正式名称": "医療法人小沢眼科内科病院", "機関区分": 1, "都道府県コード": 8, "市区町村コード": 201, "所在地": "茨城県水戸市吉沢町２４６－６", "緯度": 36.331627, "経度": 140.460205, "url": "https://www.iryou.teikyouseido.mhlw.go.jp/znk-web/juminkanja/S2430/initialize?prefCd=08&kikanCd=108510500&kikanKbn=1", "url2": "http://www.kozawa-ganka.or.jp/", "内容": "医療法人小沢眼科内科病院【1:病院】【診療科目:内科_糖尿病・内分泌内科_眼科】【一般病床数:46療養病床数:0精神病床数:0感染症病床数:0合計病床数:46】茨城県水戸市吉沢町２４６－６" }, "geometry": { "type": "Point", "coordinates": [ 140.460205, 36.331627 ] } },
{ "type": "Feature", "properties": { "ID": 81108510513, "正式名称": "独立行政法人国立病院機構水戸医療センター", "機関区分": 1, "都道府県コード": 8, "市区町村コード": 302, "所在地": "茨城県東茨城郡茨城町桜の郷２８０", "緯度": 36.324892, "経度": 140.409353, "url": "https://www.iryou.teikyouseido.mhlw.go.jp/znk-web/juminkanja/S2430/initialize?prefCd=08&kikanCd=108510513&kikanKbn=1", "url2": "http://mito.hosp.go.jp/", "内容": "独立行政法人国立病院機構水戸医療センター【1:病院】【診療科目:内科_血液内科_呼吸器内科_循環器内科_消化器内科_腎臓内科_神経内科_緩和ケア内科_外科_脳神経外科_呼吸器外科_心臓血管外科_消化器外科_乳腺外科_内視鏡外科_移植外科_整形外科_形成外科_小児科_小児外科_産婦人科_眼科_耳鼻いんこう科_皮膚科_泌尿器科_精神科_心療内科_歯科_歯科口腔外科_リハビリテーション科_放射線科_病理診断科_救急科_麻酔科】【一般病床数:500療養病床数:0精神病床数:0感染症病床数:0合計病床数:500】茨城県東茨城郡茨城町桜の郷２８０" }, "geometry": { "type": "Point", "coordinates": [ 140.409353, 36.324892 ] } },
{ "type": "Feature", "properties": { "ID": 81108510526, "正式名称": "社会医療法人財団古宿会水戸中央病院", "機関区分": 1, "都道府県コード": 8, "市区町村コード": 201, "所在地": "茨城県水戸市六反田町１１３６－１", "緯度": 36.347833, "経度": 140.508794, "url": "https://www.iryou.teikyouseido.mhlw.go.jp/znk-web/juminkanja/S2430/initialize?prefCd=08&kikanCd=108510526&kikanKbn=1", "url2": "http://www.mitochuo-hsp.or.jp", "内容": "社会医療法人財団古宿会水戸中央病院【1:病院】【診療科目:内科_糖尿病・内分泌内科_呼吸器内科_循環器内科_消化器内科_人工透析内科_外科_脳神経外科_呼吸器外科_消化器外科_乳腺外科_肛門外科_整形外科_皮膚科_泌尿器科_リハビリテーション科_放射線科_麻酔科】【一般病床数:90療養病床数:88精神病床数:0感染症病床数:0合計病床数:178】茨城県水戸市六反田町１１３６－１" }, "geometry": { "type": "Point", "coordinates": [ 140.508794, 36.347833 ] } },
{ "type": "Feature", "properties": { "ID": 81108510539, "正式名称": "医療法人社団北水会北水会記念病院", "機関区分": 1, "都道府県コード": 8, "市区町村コード": 201, "所在地": "茨城県水戸市東原３－２－１", "緯度": 36.386952, "経度": 140.447422, "url": "https://www.iryou.teikyouseido.mhlw.go.jp/znk-web/juminkanja/S2430/initialize?prefCd=08&kikanCd=108510539&kikanKbn=1", "url2": "https://hokusuikai-kinen.jp/", "内容": "医療法人社団北水会北水会記念病院【1:病院】【診療科目:内科_呼吸器内科_循環器内科_消化器内科_脳神経外科_消化器外科_整形外科_児童精神科_眼科_皮膚科_泌尿器科_アレルギー科_リウマチ科_リハビリテーション科_麻酔科】【一般病床数:83療養病床数:45精神病床数:0感染症病床数:0合計病床数:128】茨城県水戸市東原３－２－１" }, "geometry": { "type": "Point", "coordinates": [ 140.447422, 36.386952 ] } },
{ "type": "Feature", "properties": { "ID": 81108510542, "正式名称": "医療法人桜丘会水戸ブレインハートセンター", "機関区分": 1, "都道府県コード": 8, "市区町村コード": 201, "所在地": "茨城県水戸市青柳町４０２８", "緯度": 36.394506, "経度": 140.479895, "url": "https://www.iryou.teikyouseido.mhlw.go.jp/znk-web/juminkanja/S2430/initialize?prefCd=08&kikanCd=108510542&kikanKbn=1", "url2": "https://mito-bhc.com/", "内容": "医療法人桜丘会水戸ブレインハートセンター【1:病院】【診療科目:循環器内科_脳神経外科_心臓血管外科_皮膚科_リハビリテーション科_放射線科_麻酔科】【一般病床数:88療養病床数:0精神病床数:0感染症病床数:0合計病床数:88】茨城県水戸市青柳町４０２８" }, "geometry": { "type": "Point", "coordinates": [ 140.479895, 36.394506 ] } },
{ "type": "Feature", "properties": { "ID": 81108510555, "正式名称": "誠潤会水戸病院", "機関区分": 1, "都道府県コード": 8, "市区町村コード": 201, "所在地": "茨城県水戸市袴塚３－２７８７－９", "緯度": 36.398177, "経度": 140.441572, "url": "https://www.iryou.teikyouseido.mhlw.go.jp/znk-web/juminkanja/S2430/initialize?prefCd=08&kikanCd=108510555&kikanKbn=1", "url2": "http://www.seijunkai.or.jp", "内容": "誠潤会水戸病院【1:病院】【診療科目:内科_循環器内科_消化器内科_外科_心臓血管外科_消化器外科_整形外科_形成外科_泌尿器科_リハビリテーション科_救急科】【一般病床数:43療養病床数:0精神病床数:0感染症病床数:0合計病床数:43】茨城県水戸市袴塚３－２７８７－９" }, "geometry": { "type": "Point", "coordinates": [ 140.441572, 36.398177 ] } },
{ "type": "Feature", "properties": { "ID": 81108510568, "正式名称": "愛正会記念茨城福祉医療センター", "機関区分": 1, "都道府県コード": 8, "市区町村コード": 201, "所在地": "茨城県水戸市元吉田町１８７２－１", "緯度": 36.338898, "経度": 140.47439, "url": "https://www.iryou.teikyouseido.mhlw.go.jp/znk-web/juminkanja/S2430/initialize?prefCd=08&kikanCd=108510568&kikanKbn=1", "url2": "http://www.aiseikai-kinen-hp.com/", "内容": "愛正会記念茨城福祉医療センター【1:病院】【診療科目:内科_外科_整形外科_小児科_小児外科_小児神経科_精神科_歯科_リハビリテーション科】【一般病床数:135療養病床数:0精神病床数:0感染症病床数:0合計病床数:135】茨城県水戸市元吉田町１８７２－１" }, "geometry": { "type": "Point", "coordinates": [ 140.47439, 36.338898 ] } },
{ "type": "Feature", "properties": { "ID": 81108510571, "正式名称": "笠間市立病院", "機関区分": 1, "都道府県コード": 8, "市区町村コード": 216, "所在地": "茨城県笠間市南友部１９６６－１", "緯度": 36.356001, "経度": 140.310727, "url": "https://www.iryou.teikyouseido.mhlw.go.jp/znk-web/juminkanja/S2430/initialize?prefCd=08&kikanCd=108510571&kikanKbn=1", "url2": "https://www.city.kasama.lg.jp/page/page005536.html", "内容": "笠間市立病院【1:病院】【診療科目:内科_皮膚科】【一般病床数:30療養病床数:0精神病床数:0感染症病床数:0合計病床数:30】茨城県笠間市南友部１９６６－１" }, "geometry": { "type": "Point", "coordinates": [ 140.310727, 36.356001 ] } },
{ "type": "Feature", "properties": { "ID": 81108520011, "正式名称": "医療法人鳳香会石本病院", "機関区分": 1, "都道府県コード": 8, "市区町村コード": 216, "所在地": "茨城県笠間市石井２０４７", "緯度": 36.385715, "経度": 140.247873, "url": "https://www.iryou.teikyouseido.mhlw.go.jp/znk-web/juminkanja/S2430/initialize?prefCd=08&kikanCd=108520011&kikanKbn=1", "url2": "http://www.myclinic.ne.jp/seihoukai/", "内容": "医療法人鳳香会石本病院【1:病院】【診療科目:内科_血液内科_外科_呼吸器外科_皮膚科_歯科】【一般病床数:45療養病床数:0精神病床数:0感染症病床数:0合計病床数:45】茨城県笠間市石井２０４７" }, "geometry": { "type": "Point", "coordinates": [ 140.247873, 36.385715 ] } },
{ "type": "Feature", "properties": { "ID": 81108520024, "正式名称": "茨城県立中央病院", "機関区分": 1, "都道府県コード": 8, "市区町村コード": 216, "所在地": "茨城県笠間市鯉淵６５２８", "緯度": 36.350634, "経度": 140.319153, "url": "https://www.iryou.teikyouseido.mhlw.go.jp/znk-web/juminkanja/S2430/initialize?prefCd=08&kikanCd=108520024&kikanKbn=1", "url2": "https://www.hospital.pref.ibaraki.jp/chuo/", "内容": "茨城県立中央病院【1:病院】【診療科目:内科_血液内科_糖尿病・内分泌内科_呼吸器内科_循環器内科_消化器内科_腎臓内科_神経内科_腫瘍内科_緩和ケア内科_外科_脳神経外科_呼吸器外科_血管外科_循環器外科_心臓血管外科_消化器外科_乳腺外科_頭頸部外科_整形外科_形成外科_小児科_産婦人科_眼科_耳鼻いんこう科_皮膚科_泌尿器科_精神科_歯科口腔外科_リウマチ科_リハビリテーション科_放射線診断科_放射線治療科_病理診断科_救急科_麻酔科】【一般病床数:475療養病床数:0精神病床数:0感染症病床数:0合計病床数:500】茨城県笠間市鯉淵６５２８" }, "geometry": { "type": "Point", "coordinates": [ 140.319153, 36.350634 ] } },
{ "type": "Feature", "properties": { "ID": 81108520037, "正式名称": "茨城県立こころの医療センター", "機関区分": 1, "都道府県コード": 8, "市区町村コード": 216, "所在地": "茨城県笠間市旭町６５４", "緯度": 36.332697, "経度": 140.311765, "url": "https://www.iryou.teikyouseido.mhlw.go.jp/znk-web/juminkanja/S2430/initialize?prefCd=08&kikanCd=108520037&kikanKbn=1", "url2": "https://www.mc-kokoro.pref.ibaraki.jp/", "内容": "茨城県立こころの医療センター【1:病院】【診療科目:児童精神科_精神科_心療内科】【一般病床数:0療養病床数:0精神病床数:525感染症病床数:0合計病床数:525】茨城県笠間市旭町６５４" }, "geometry": { "type": "Point", "coordinates": [ 140.311765, 36.332697 ] } },
{ "type": "Feature", "properties": { "ID": 81108520053, "正式名称": "医療法人社団聖嶺会立川記念病院", "機関区分": 1, "都道府県コード": 8, "市区町村コード": 216, "所在地": "茨城県笠間市八雲２ー１２ー１４", "緯度": 36.344114, "経度": 140.300579, "url": "https://www.iryou.teikyouseido.mhlw.go.jp/znk-web/juminkanja/S2430/initialize?prefCd=08&kikanCd=108520053&kikanKbn=1", "url2": "http://tkb.or.jp/", "内容": "医療法人社団聖嶺会立川記念病院【1:病院】【診療科目:内科_循環器内科_消化器内科_外科_消化器外科_整形外科_形成外科_皮膚科_泌尿器科_リハビリテーション科】【一般病床数:115療養病床数:0精神病床数:0感染症病床数:0合計病床数:115】茨城県笠間市八雲２ー１２ー１４" }, "geometry": { "type": "Point", "coordinates": [ 140.300579, 36.344114 ] } },
{ "type": "Feature", "properties": { "ID": 81108520109, "正式名称": "医療法人鴻仁会上の原病院", "機関区分": 1, "都道府県コード": 8, "市区町村コード": 231, "所在地": "茨城県桜川市上野原地新田１５９－２", "緯度": 36.35024, "経度": 140.04977, "url": "https://www.iryou.teikyouseido.mhlw.go.jp/znk-web/juminkanja/S2430/initialize?prefCd=08&kikanCd=108520109&kikanKbn=1", "url2": "http://www.koujinkai-uenohara.com", "内容": "医療法人鴻仁会上の原病院【1:病院】【診療科目:内科_循環器内科_胃腸内科_神経内科_外科_整形外科_精神科_心療内科_リハビリテーション科_放射線科】【一般病床数:0療養病床数:201精神病床数:35感染症病床数:0合計病床数:236】茨城県桜川市上野原地新田１５９－２" }, "geometry": { "type": "Point", "coordinates": [ 140.04977, 36.35024 ] } },
{ "type": "Feature", "properties": { "ID": 81108530014, "正式名称": "医療法人社団有朋会栗田病院", "機関区分": 1, "都道府県コード": 8, "市区町村コード": 226, "所在地": "茨城県那珂市豊喰５０５", "緯度": 36.427778, "経度": 140.467778, "url": "https://www.iryou.teikyouseido.mhlw.go.jp/znk-web/juminkanja/S2430/initialize?prefCd=08&kikanCd=108530014&kikanKbn=1", "url2": "http://www.yuhokai-kuritah.com", "内容": "医療法人社団有朋会栗田病院【1:病院】【診療科目:内科_精神科_心療内科】【一般病床数:0療養病床数:0精神病床数:203感染症病床数:0合計病床数:203】茨城県那珂市豊喰５０５" }, "geometry": { "type": "Point", "coordinates": [ 140.467778, 36.427778 ] } },
{ "type": "Feature", "properties": { "ID": 81108530027, "正式名称": "医療法人社団青燈会小豆畑病院", "機関区分": 1, "都道府県コード": 8, "市区町村コード": 226, "所在地": "茨城県那珂市菅谷７００１", "緯度": 36.457778, "経度": 140.500278, "url": "https://www.iryou.teikyouseido.mhlw.go.jp/znk-web/juminkanja/S2430/initialize?prefCd=08&kikanCd=108530027&kikanKbn=1", "url2": "http://www.azuhata-hosp.com/", "内容": "医療法人社団青燈会小豆畑病院【1:病院】【診療科目:内科_呼吸器内科_循環器内科_消化器内科_神経内科_外科_脳神経外科_消化器外科_乳腺外科_肛門外科_整形外科_皮膚科_泌尿器科_リハビリテーション科_放射線科_救急科】【一般病床数:56療養病床数:48精神病床数:0感染症病床数:0合計病床数:104】茨城県那珂市菅谷７００１" }, "geometry": { "type": "Point", "coordinates": [ 140.500278, 36.457778 ] } },
{ "type": "Feature", "properties": { "ID": 81108530030, "正式名称": "医療法人博仁会　志村大宮病院", "機関区分": 1, "都道府県コード": 8, "市区町村コード": 225, "所在地": "茨城県常陸大宮市上町３１３", "緯度": 36.549377, "経度": 140.413896, "url": "https://www.iryou.teikyouseido.mhlw.go.jp/znk-web/juminkanja/S2430/initialize?prefCd=08&kikanCd=108530030&kikanKbn=1", "url2": "http://www.hakujinkai.com", "内容": "医療法人博仁会　志村大宮病院【1:病院】【診療科目:内科_呼吸器内科_循環器内科_消化器内科_神経内科_整形外科_小児科_婦人科_眼科_耳鼻いんこう科_皮膚科_泌尿器科_精神科_心療内科_歯科口腔外科_リハビリテーション科_放射線科】【一般病床数:130療養病床数:48精神病床数:0感染症病床数:0合計病床数:178】茨城県常陸大宮市上町３１３" }, "geometry": { "type": "Point", "coordinates": [ 140.413896, 36.549377 ] } },
{ "type": "Feature", "properties": { "ID": 81108530069, "正式名称": "西山堂慶和病院", "機関区分": 1, "都道府県コード": 8, "市区町村コード": 226, "所在地": "茨城県那珂市鴻巣３２４７－１", "緯度": 36.458899, "経度": 140.485992, "url": "https://www.iryou.teikyouseido.mhlw.go.jp/znk-web/juminkanja/S2430/initialize?prefCd=08&kikanCd=108530069&kikanKbn=1", "url2": "https://keiwa.teishinkai.or.jp/", "内容": "西山堂慶和病院【1:病院】【診療科目:内科_糖尿病内科_呼吸器内科_循環器内科_消化器内科_腎臓内科_人工透析内科_神経内科_外科_消化器外科_整形外科_眼科_皮膚科_泌尿器科_リハビリテーション科_放射線科_麻酔科】【一般病床数:93療養病床数:106精神病床数:0感染症病床数:0合計病床数:199】茨城県那珂市鴻巣３２４７－１" }, "geometry": { "type": "Point", "coordinates": [ 140.485992, 36.458899 ] } },
{ "type": "Feature", "properties": { "ID": 81108530072, "正式名称": "岩上記念病院", "機関区分": 1, "都道府県コード": 8, "市区町村コード": 226, "所在地": "茨城県那珂市古徳５３８－２", "緯度": 36.492222, "経度": 140.438889, "url": "https://www.iryou.teikyouseido.mhlw.go.jp/znk-web/juminkanja/S2430/initialize?prefCd=08&kikanCd=108530072&kikanKbn=1", "url2": null, "内容": "岩上記念病院【1:病院】【診療科目:内科_整形外科_皮膚科_リウマチ科_リハビリテーション科】【一般病床数:0療養病床数:24精神病床数:0感染症病床数:0合計病床数:24】茨城県那珂市古徳５３８－２" }, "geometry": { "type": "Point", "coordinates": [ 140.438889, 36.492222 ] } },
{ "type": "Feature", "properties": { "ID": 81108530085, "正式名称": "社会福祉法人恩賜財団済生会支部茨城県済生会常陸大宮済生会病院", "機関区分": 1, "都道府県コード": 8, "市区町村コード": 225, "所在地": "茨城県常陸大宮市田子内町３０３３－３", "緯度": 36.556944, "経度": 140.404167, "url": "https://www.iryou.teikyouseido.mhlw.go.jp/znk-web/juminkanja/S2430/initialize?prefCd=08&kikanCd=108530085&kikanKbn=1", "url2": "http://www.ho-saisei.jp/", "内容": "社会福祉法人恩賜財団済生会支部茨城県済生会常陸大宮済生会病院【1:病院】【診療科目:内科_代謝・内分泌内科_呼吸器内科_循環器内科_消化器内科_腎臓内科_外科_脳神経外科_呼吸器外科_肛門外科_整形外科_形成外科_小児科_皮膚科_泌尿器科_リウマチ科_リハビリテーション科_放射線科_救急科】【一般病床数:144療養病床数:0精神病床数:0感染症病床数:4合計病床数:148】茨城県常陸大宮市田子内町３０３３－３" }, "geometry": { "type": "Point", "coordinates": [ 140.404167, 36.556944 ] } },
{ "type": "Feature", "properties": { "ID": 81108530098, "正式名称": "大山病院", "機関区分": 1, "都道府県コード": 8, "市区町村コード": 212, "所在地": "茨城県常陸太田市金井町４８１０", "緯度": 36.537466, "経度": 140.531916, "url": "https://www.iryou.teikyouseido.mhlw.go.jp/znk-web/juminkanja/S2430/initialize?prefCd=08&kikanCd=108530098&kikanKbn=1", "url2": "http://ohyamahp.com/", "内容": "大山病院【1:病院】【診療科目:内科_呼吸器内科_循環器内科_消化器内科_外科_脳神経外科_心臓血管外科_消化器外科_肛門外科_整形外科_皮膚科_放射線科】【一般病床数:90療養病床数:0精神病床数:0感染症病床数:0合計病床数:90】茨城県常陸太田市金井町４８１０" }, "geometry": { "type": "Point", "coordinates": [ 140.531916, 36.537466 ] } },
{ "type": "Feature", "properties": { "ID": 81108540059, "正式名称": "医療法人貞心会西山堂病院", "機関区分": 1, "都道府県コード": 8, "市区町村コード": 212, "所在地": "茨城県常陸太田市木崎二町９３１－２", "緯度": 36.528333, "経度": 140.527778, "url": "https://www.iryou.teikyouseido.mhlw.go.jp/znk-web/juminkanja/S2430/initialize?prefCd=08&kikanCd=108540059&kikanKbn=1", "url2": "http://www.teishinkai.or.jp/", "内容": "医療法人貞心会西山堂病院【1:病院】【診療科目:内科_感染症内科_糖尿病・代謝内科_呼吸器内科_循環器内科_消化器内科_人工透析内科_神経内科_老年内科_整形外科_眼科_耳鼻いんこう科_皮膚科_泌尿器科_アレルギー科_リハビリテーション科_放射線科_救急科】【一般病床数:20療養病床数:38精神病床数:0感染症病床数:0合計病床数:58】茨城県常陸太田市木崎二町９３１－２" }, "geometry": { "type": "Point", "coordinates": [ 140.527778, 36.528333 ] } },
{ "type": "Feature", "properties": { "ID": 81108540075, "正式名称": "医療法人藤慈会藤井病院", "機関区分": 1, "都道府県コード": 8, "市区町村コード": 212, "所在地": "茨城県常陸太田市金井町３６７０", "緯度": 36.537267, "経度": 140.529934, "url": "https://www.iryou.teikyouseido.mhlw.go.jp/znk-web/juminkanja/S2430/initialize?prefCd=08&kikanCd=108540075&kikanKbn=1", "url2": "http://www.fujii-hospital.com/", "内容": "医療法人藤慈会藤井病院【1:病院】【診療科目:内科_腎臓内科_人工透析内科_外科_整形外科_小児科_眼科_耳鼻いんこう科_泌尿器科_歯科_歯科口腔外科_小児歯科_リウマチ科_リハビリテーション科_放射線科】【一般病床数:0療養病床数:90精神病床数:0感染症病床数:0合計病床数:90】茨城県常陸太田市金井町３６７０" }, "geometry": { "type": "Point", "coordinates": [ 140.529934, 36.537267 ] } },
{ "type": "Feature", "properties": { "ID": 81108550010, "正式名称": "回春荘病院", "機関区分": 1, "都道府県コード": 8, "市区町村コード": 202, "所在地": "茨城県日立市大みか町６－１７－１", "緯度": 36.511339, "経度": 140.609195, "url": "https://www.iryou.teikyouseido.mhlw.go.jp/znk-web/juminkanja/S2430/initialize?prefCd=08&kikanCd=108550010&kikanKbn=1", "url2": "kaishunsou.jp", "内容": "回春荘病院【1:病院】【診療科目:内科_呼吸器内科_循環器内科_胃腸内科_精神科_神経科_心療内科_リハビリテーション科】【一般病床数:0療養病床数:85精神病床数:210感染症病床数:0合計病床数:295】茨城県日立市大みか町６－１７－１" }, "geometry": { "type": "Point", "coordinates": [ 140.609195, 36.511339 ] } },
{ "type": "Feature", "properties": { "ID": 81108550049, "正式名称": "医療法人惇慈会日立港病院", "機関区分": 1, "都道府県コード": 8, "市区町村コード": 202, "所在地": "茨城県日立市みなと町１１番１０号", "緯度": 36.495371, "経度": 140.6194, "url": "https://www.iryou.teikyouseido.mhlw.go.jp/znk-web/juminkanja/S2430/initialize?prefCd=08&kikanCd=108550049&kikanKbn=1", "url2": "https://hitachikoh-hp.com/", "内容": "医療法人惇慈会日立港病院【1:病院】【診療科目:内科_糖尿病・内分泌内科_消化器内科_外科_消化器外科_小児科_眼科_皮膚科_リハビリテーション科】【一般病床数:45療養病床数:0精神病床数:0感染症病床数:0合計病床数:45】茨城県日立市みなと町１１番１０号" }, "geometry": { "type": "Point", "coordinates": [ 140.6194, 36.495371 ] } },
{ "type": "Feature", "properties": { "ID": 81108550052, "正式名称": "社会医療法人　愛宣会　ひたち医療センター", "機関区分": 1, "都道府県コード": 8, "市区町村コード": 202, "所在地": "茨城県日立市鮎川町２－８－１６", "緯度": 36.566243, "経度": 140.637044, "url": "https://www.iryou.teikyouseido.mhlw.go.jp/znk-web/juminkanja/S2430/initialize?prefCd=08&kikanCd=108550052&kikanKbn=1", "url2": "https://www.hitachi-mch.or.jp/", "内容": "社会医療法人　愛宣会　ひたち医療センター【1:病院】【診療科目:内科_循環器内科_消化器内科_神経内科_外科_脳神経外科_消化器外科_整形外科_形成外科_美容外科_小児科_泌尿器科_歯科_小児歯科_リハビリテーション科_放射線科】【一般病床数:223療養病床数:50精神病床数:0感染症病床数:0合計病床数:273】茨城県日立市鮎川町２－８－１６" }, "geometry": { "type": "Point", "coordinates": [ 140.637044, 36.566243 ] } },
{ "type": "Feature", "properties": { "ID": 81108550078, "正式名称": "大原神経科病院", "機関区分": 1, "都道府県コード": 8, "市区町村コード": 202, "所在地": "茨城県日立市大みか町１－１３－１８", "緯度": 36.511385, "経度": 140.623616, "url": "https://www.iryou.teikyouseido.mhlw.go.jp/znk-web/juminkanja/S2430/initialize?prefCd=08&kikanCd=108550078&kikanKbn=1", "url2": "https://oohara-hospital.com", "内容": "大原神経科病院【1:病院】【診療科目:精神科】【一般病床数:0療養病床数:0精神病床数:236感染症病床数:0合計病床数:236】茨城県日立市大みか町１－１３－１８" }, "geometry": { "type": "Point", "coordinates": [ 140.623616, 36.511385 ] } },
{ "type": "Feature", "properties": { "ID": 81108550094, "正式名称": "株式会社日立製作所日立総合病院", "機関区分": 1, "都道府県コード": 8, "市区町村コード": 202, "所在地": "茨城県日立市城南町２丁目１－１", "緯度": 36.590381, "経度": 140.644868, "url": "https://www.iryou.teikyouseido.mhlw.go.jp/znk-web/juminkanja/S2430/initialize?prefCd=08&kikanCd=108550094&kikanKbn=1", "url2": "http://www.hitachi.co.jp/hospital/hitachi/", "内容": "株式会社日立製作所日立総合病院【1:病院】【診療科目:内科_血液・腫瘍内科_代謝・内分泌内科_呼吸器内科_循環器内科_消化器内科_腎臓内科_神経内科_外科_脳神経外科_呼吸器外科_心臓血管外科_整形外科_形成外科_小児科_産婦人科_眼科_耳鼻いんこう科_皮膚科_泌尿器科_精神科_歯科口腔外科_リハビリテーション科_放射線科_救急科_麻酔科】【一般病床数:597療養病床数:0精神病床数:0感染症病床数:4合計病床数:601】茨城県日立市城南町２丁目１－１" }, "geometry": { "type": "Point", "coordinates": [ 140.644868, 36.590381 ] } },
{ "type": "Feature", "properties": { "ID": 81108550179, "正式名称": "医療法人圭愛会日立梅ヶ丘病院", "機関区分": 1, "都道府県コード": 8, "市区町村コード": 202, "所在地": "茨城県日立市大久保町２４０９番地の３", "緯度": 36.552042, "経度": 140.608851, "url": "https://www.iryou.teikyouseido.mhlw.go.jp/znk-web/juminkanja/S2430/initialize?prefCd=08&kikanCd=108550179&kikanKbn=1", "url2": "https://www.umegaoka.or.jp/", "内容": "医療法人圭愛会日立梅ヶ丘病院【1:病院】【診療科目:精神科_心療内科】【一般病床数:0療養病床数:0精神病床数:313感染症病床数:0合計病床数:313】茨城県日立市大久保町２４０９番地の３" }, "geometry": { "type": "Point", "coordinates": [ 140.608851, 36.552042 ] } },
{ "type": "Feature", "properties": { "ID": 81108550225, "正式名称": "医療法人群羊会久慈茅根病院", "機関区分": 1, "都道府県コード": 8, "市区町村コード": 202, "所在地": "茨城県日立市久慈町４－１６－１０", "緯度": 36.494339, "経度": 140.609942, "url": "https://www.iryou.teikyouseido.mhlw.go.jp/znk-web/juminkanja/S2430/initialize?prefCd=08&kikanCd=108550225&kikanKbn=1", "url2": "http://www.kujihama.jp", "内容": "医療法人群羊会久慈茅根病院【1:病院】【診療科目:内科_胃腸内科_整形外科_皮膚科】【一般病床数:21療養病床数:50精神病床数:0感染症病床数:0合計病床数:71】茨城県日立市久慈町４－１６－１０" }, "geometry": { "type": "Point", "coordinates": [ 140.609942, 36.494339 ] } },
{ "type": "Feature", "properties": { "ID": 81108550238, "正式名称": "医療法人愛正会　田尻ケ丘病院", "機関区分": 1, "都道府県コード": 8, "市区町村コード": 202, "所在地": "茨城県日立市田尻町３丁目２４番１号", "緯度": 36.627001, "経度": 140.67191, "url": "https://www.iryou.teikyouseido.mhlw.go.jp/znk-web/juminkanja/S2430/initialize?prefCd=08&kikanCd=108550238&kikanKbn=1", "url2": "http://www.tajirigaoka.or.jp", "内容": "医療法人愛正会　田尻ケ丘病院【1:病院】【診療科目:内科_循環器内科_消化器内科_腎臓内科_神経内科_老年内科_歯科_小児歯科_リハビリテーション科_放射線科】【一般病床数:46療養病床数:152精神病床数:0感染症病床数:0合計病床数:198】茨城県日立市田尻町３丁目２４番１号" }, "geometry": { "type": "Point", "coordinates": [ 140.67191, 36.627001 ] } },
{ "type": "Feature", "properties": { "ID": 81108550283, "正式名称": "医療型障害児入所施設　水方苑", "機関区分": 1, "都道府県コード": 8, "市区町村コード": 214, "所在地": "茨城県高萩市下手綱１９５１－１５", "緯度": 36.728681, "経度": 140.691173, "url": "https://www.iryou.teikyouseido.mhlw.go.jp/znk-web/juminkanja/S2430/initialize?prefCd=08&kikanCd=108550283&kikanKbn=1", "url2": "http://www.health-care.or.jp/suihou/", "内容": "医療型障害児入所施設　水方苑【1:病院】【診療科目:内科_小児科_歯科】【一般病床数:70療養病床数:0精神病床数:0感染症病床数:0合計病床数:70】茨城県高萩市下手綱１９５１－１５" }, "geometry": { "type": "Point", "coordinates": [ 140.691173, 36.728681 ] } },
{ "type": "Feature", "properties": { "ID": 81108550296, "正式名称": "医療法人永慈会永井ひたちの森病院", "機関区分": 1, "都道府県コード": 8, "市区町村コード": 202, "所在地": "茨城県日立市小木津町９６６", "緯度": 36.646222, "経度": 140.67193, "url": "https://www.iryou.teikyouseido.mhlw.go.jp/znk-web/juminkanja/S2430/initialize?prefCd=08&kikanCd=108550296&kikanKbn=1", "url2": "https://www.hitachinomori.or.jp", "内容": "医療法人永慈会永井ひたちの森病院【1:病院】【診療科目:内科_消化器内科_整形外科_形成外科_皮膚科_精神科_心療内科_リハビリテーション科】【一般病床数:20療養病床数:0精神病床数:208感染症病床数:0合計病床数:228】茨城県日立市小木津町９６６" }, "geometry": { "type": "Point", "coordinates": [ 140.67193, 36.646222 ] } },
{ "type": "Feature", "properties": { "ID": 81108550300, "正式名称": "県北医療センター高萩協同病院", "機関区分": 1, "都道府県コード": 8, "市区町村コード": 214, "所在地": "茨城県高萩市上手綱上ヶ穂町１００６－９", "緯度": 36.732654, "経度": 140.684525, "url": "https://www.iryou.teikyouseido.mhlw.go.jp/znk-web/juminkanja/S2430/initialize?prefCd=08&kikanCd=108550300&kikanKbn=1", "url2": "http://www.takahagi-kyodo-hp.jp/", "内容": "県北医療センター高萩協同病院【1:病院】【診療科目:内科_脳神経内科_呼吸器内科_循環器内科_消化器内科_外科_脳神経外科_整形外科_小児科_産婦人科_眼科_耳鼻いんこう科_皮膚科_泌尿器科_歯科口腔外科_リハビリテーション科_放射線科_麻酔科】【一般病床数:165療養病床数:0精神病床数:0感染症病床数:0合計病床数:165】茨城県高萩市上手綱上ヶ穂町１００６－９" }, "geometry": { "type": "Point", "coordinates": [ 140.684525, 36.732654 ] } },
{ "type": "Feature", "properties": { "ID": 81108550313, "正式名称": "医療法人聖麗会聖麗メモリアル病院", "機関区分": 1, "都道府県コード": 8, "市区町村コード": 202, "所在地": "茨城県日立市茂宮町８４１", "緯度": 36.50274, "経度": 140.594855, "url": "https://www.iryou.teikyouseido.mhlw.go.jp/znk-web/juminkanja/S2430/initialize?prefCd=08&kikanCd=108550313&kikanKbn=1", "url2": "http://www.seirei-memorial.com/", "内容": "医療法人聖麗会聖麗メモリアル病院【1:病院】【診療科目:脳神経外科】【一般病床数:72療養病床数:0精神病床数:0感染症病床数:0合計病床数:72】茨城県日立市茂宮町８４１" }, "geometry": { "type": "Point", "coordinates": [ 140.594855, 36.50274 ] } },
{ "type": "Feature", "properties": { "ID": 81108550326, "正式名称": "医療法人ここの実会嶋崎病院", "機関区分": 1, "都道府県コード": 8, "市区町村コード": 202, "所在地": "茨城県日立市会瀬町３－２３－１", "緯度": 36.582821, "経度": 140.641957, "url": "https://www.iryou.teikyouseido.mhlw.go.jp/znk-web/juminkanja/S2430/initialize?prefCd=08&kikanCd=108550326&kikanKbn=1", "url2": "https://www.shimazaki-hospital.com/", "内容": "医療法人ここの実会嶋崎病院【1:病院】【診療科目:整形外科_形成外科_リハビリテーション科】【一般病床数:47療養病床数:0精神病床数:0感染症病床数:0合計病床数:47】茨城県日立市会瀬町３－２３－１" }, "geometry": { "type": "Point", "coordinates": [ 140.641957, 36.582821 ] } },
{ "type": "Feature", "properties": { "ID": 81108550339, "正式名称": "北茨城市民病院", "機関区分": 1, "都道府県コード": 8, "市区町村コード": 215, "所在地": "茨城県北茨城市関南町関本下１０５０", "緯度": 36.843301, "経度": 140.771379, "url": "https://www.iryou.teikyouseido.mhlw.go.jp/znk-web/juminkanja/S2430/initialize?prefCd=08&kikanCd=108550339&kikanKbn=1", "url2": "https://kitaibarakicity-hosp.jp/", "内容": "北茨城市民病院【1:病院】【診療科目:内科_循環器内科_消化器内科_外科_脳神経外科_消化器外科_整形外科_小児科_産婦人科_眼科_耳鼻いんこう科_皮膚科_泌尿器科_歯科口腔外科_放射線科】【一般病床数:137療養病床数:46精神病床数:0感染症病床数:0合計病床数:183】茨城県北茨城市関南町関本下１０５０" }, "geometry": { "type": "Point", "coordinates": [ 140.771379, 36.843301 ] } },
{ "type": "Feature", "properties": { "ID": 81108550342, "正式名称": "医療法人一誠会川﨑病院", "機関区分": 1, "都道府県コード": 8, "市区町村コード": 202, "所在地": "茨城県日立市大和田町１８６２－２", "緯度": 36.505368, "経度": 140.580335, "url": "https://www.iryou.teikyouseido.mhlw.go.jp/znk-web/juminkanja/S2430/initialize?prefCd=08&kikanCd=108550342&kikanKbn=1", "url2": "https://www.kawahp.net/", "内容": "医療法人一誠会川﨑病院【1:病院】【診療科目:内科_消化器内科_胃腸内科_外科_消化器外科_肛門外科_婦人科_泌尿器科】【一般病床数:45療養病床数:0精神病床数:0感染症病床数:0合計病床数:45】茨城県日立市大和田町１８６２－２" }, "geometry": { "type": "Point", "coordinates": [ 140.580335, 36.505368 ] } },
{ "type": "Feature", "properties": { "ID": 81108550661, "正式名称": "医療法人社団日鉱記念病院", "機関区分": 1, "都道府県コード": 8, "市区町村コード": 202, "所在地": "茨城県日立市宮田町１－４－１", "緯度": 36.601166, "経度": 140.64959, "url": "https://www.iryou.teikyouseido.mhlw.go.jp/znk-web/juminkanja/S2430/initialize?prefCd=08&kikanCd=108550661&kikanKbn=1", "url2": "http://www.nikko-memorial-hos.or.jp/", "内容": "医療法人社団日鉱記念病院【1:病院】【診療科目:内科_糖尿病内科_呼吸器内科_循環器内科_消化器内科_腎臓内科】【一般病床数:51療養病床数:0精神病床数:0感染症病床数:0合計病床数:51】茨城県日立市宮田町１－４－１" }, "geometry": { "type": "Point", "coordinates": [ 140.64959, 36.601166 ] } },
{ "type": "Feature", "properties": { "ID": 81108560013, "正式名称": "小美玉市医療センター", "機関区分": 1, "都道府県コード": 8, "市区町村コード": 236, "所在地": "茨城県小美玉市中延６５１－２", "緯度": 36.180993, "経度": 140.361902, "url": "https://www.iryou.teikyouseido.mhlw.go.jp/znk-web/juminkanja/S2430/initialize?prefCd=08&kikanCd=108560013&kikanKbn=1", "url2": "http://www.omtmedi.jp", "内容": "小美玉市医療センター【1:病院】【診療科目:内科_呼吸器内科_循環器内科_人工透析内科_外科_脳神経外科_消化器外科_整形外科_小児科_眼科_耳鼻いんこう科_皮膚科_泌尿器科_リウマチ科_リハビリテーション科】【一般病床数:80療養病床数:0精神病床数:0感染症病床数:0合計病床数:80】茨城県小美玉市中延６５１－２" }, "geometry": { "type": "Point", "coordinates": [ 140.361902, 36.180993 ] } },
{ "type": "Feature", "properties": { "ID": 81108560026, "正式名称": "医療法人社団　白帆会　小川南病院", "機関区分": 1, "都道府県コード": 8, "市区町村コード": 236, "所在地": "茨城県小美玉市小川７３３番地", "緯度": 36.164195, "経度": 140.357849, "url": "https://www.iryou.teikyouseido.mhlw.go.jp/znk-web/juminkanja/S2430/initialize?prefCd=08&kikanCd=108560026&kikanKbn=1", "url2": "http://www.o-minami.jp", "内容": "医療法人社団　白帆会　小川南病院【1:病院】【診療科目:内科_循環器内科_消化器内科_整形外科_形成外科_リウマチ科】【一般病床数:0療養病床数:90精神病床数:0感染症病床数:0合計病床数:90】茨城県小美玉市小川７３３番地" }, "geometry": { "type": "Point", "coordinates": [ 140.357849, 36.164195 ] } },
{ "type": "Feature", "properties": { "ID": 81108560042, "正式名称": "医療法人三尚会高須病院", "機関区分": 1, "都道府県コード": 8, "市区町村コード": 234, "所在地": "茨城県鉾田市鉾田２５７０", "緯度": 36.149722, "経度": 140.512778, "url": "https://www.iryou.teikyouseido.mhlw.go.jp/znk-web/juminkanja/S2430/initialize?prefCd=08&kikanCd=108560042&kikanKbn=1", "url2": "https://takasu-hospital.com", "内容": "医療法人三尚会高須病院【1:病院】【診療科目:内科_糖尿病内科_糖尿病・内分泌内科_呼吸器内科_循環器内科_消化器内科_神経内科_内視鏡内科_外科_脳神経外科_整形外科_小児科_小児泌尿器科_耳鼻いんこう科_泌尿器科_救急科】【一般病床数:55療養病床数:0精神病床数:0感染症病床数:0合計病床数:55】茨城県鉾田市鉾田２５７０" }, "geometry": { "type": "Point", "coordinates": [ 140.512778, 36.149722 ] } },
{ "type": "Feature", "properties": { "ID": 81108560068, "正式名称": "医療法人東湖会鉾田病院", "機関区分": 1, "都道府県コード": 8, "市区町村コード": 234, "所在地": "茨城県鉾田市安房１６５０－２", "緯度": 36.166456, "経度": 140.526976, "url": "https://www.iryou.teikyouseido.mhlw.go.jp/znk-web/juminkanja/S2430/initialize?prefCd=08&kikanCd=108560068&kikanKbn=1", "url2": "http://www.hokota-hp.com", "内容": "医療法人東湖会鉾田病院【1:病院】【診療科目:内科_循環器内科_外科_消化器外科_整形外科_小児科_リハビリテーション科】【一般病床数:62療養病床数:0精神病床数:0感染症病床数:0合計病床数:62】茨城県鉾田市安房１６５０－２" }, "geometry": { "type": "Point", "coordinates": [ 140.526976, 36.166456 ] } },
{ "type": "Feature", "properties": { "ID": 81108560071, "正式名称": "土浦協同病院なめがた地域医療センタ－", "機関区分": 1, "都道府県コード": 8, "市区町村コード": 233, "所在地": "茨城県行方市井上藤井９８－８", "緯度": 36.066111, "経度": 140.462222, "url": "https://www.iryou.teikyouseido.mhlw.go.jp/znk-web/juminkanja/S2430/initialize?prefCd=08&kikanCd=108560071&kikanKbn=1", "url2": "http://www.ndgh.jp", "内容": "土浦協同病院なめがた地域医療センタ－【1:病院】【診療科目:内科_血液内科_呼吸器内科_循環器内科_消化器内科_腎臓内科_神経内科_外科_脳神経外科_整形外科_小児科_産婦人科_眼科_耳鼻いんこう科_皮膚科_泌尿器科】【一般病床数:199療養病床数:0精神病床数:0感染症病床数:0合計病床数:199】茨城県行方市井上藤井９８－８" }, "geometry": { "type": "Point", "coordinates": [ 140.462222, 36.066111 ] } },
{ "type": "Feature", "properties": { "ID": 81108570016, "正式名称": "公益財団法人鹿島病院", "機関区分": 1, "都道府県コード": 8, "市区町村コード": 222, "所在地": "茨城県鹿嶋市平井１１２９－２", "緯度": 35.964202, "経度": 140.661745, "url": "https://www.iryou.teikyouseido.mhlw.go.jp/znk-web/juminkanja/S2430/initialize?prefCd=08&kikanCd=108570016&kikanKbn=1", "url2": "http://www.kashimahp.jp", "内容": "公益財団法人鹿島病院【1:病院】【診療科目:内科_呼吸器内科_消化器内科_整形外科_婦人科_眼科_精神科_歯科_歯科口腔外科_リハビリテーション科】【一般病床数:77療養病床数:0精神病床数:178感染症病床数:4合計病床数:261】茨城県鹿嶋市平井１１２９－２" }, "geometry": { "type": "Point", "coordinates": [ 140.661745, 35.964202 ] } },
{ "type": "Feature", "properties": { "ID": 81108570032, "正式名称": "医療法人晴生会鹿島神宮前病院", "機関区分": 1, "都道府県コード": 8, "市区町村コード": 222, "所在地": "茨城県鹿嶋市宮中１９９５－２４", "緯度": 35.961111, "経度": 140.640556, "url": "https://www.iryou.teikyouseido.mhlw.go.jp/znk-web/juminkanja/S2430/initialize?prefCd=08&kikanCd=108570032&kikanKbn=1", "url2": "http://www.aoikai.jp/special/index.htm", "内容": "医療法人晴生会鹿島神宮前病院【1:病院】【診療科目:内科_リハビリテーション科】【一般病床数:0療養病床数:170精神病床数:0感染症病床数:0合計病床数:170】茨城県鹿嶋市宮中１９９５－２４" }, "geometry": { "type": "Point", "coordinates": [ 140.640556, 35.961111 ] } },
{ "type": "Feature", "properties": { "ID": 81108570045, "正式名称": "医療法人社団愛和会前田病院", "機関区分": 1, "都道府県コード": 8, "市区町村コード": 222, "所在地": "茨城県鹿嶋市宮中５２０１", "緯度": 35.962222, "経度": 140.64, "url": "https://www.iryou.teikyouseido.mhlw.go.jp/znk-web/juminkanja/S2430/initialize?prefCd=08&kikanCd=108570045&kikanKbn=1", "url2": "http://www.maejin.jp", "内容": "医療法人社団愛和会前田病院【1:病院】【診療科目:内科_糖尿病内科_腎臓内科_人工透析内科_皮膚科_泌尿器科】【一般病床数:0療養病床数:36精神病床数:0感染症病床数:0合計病床数:36】茨城県鹿嶋市宮中５２０１" }, "geometry": { "type": "Point", "coordinates": [ 140.64, 35.962222 ] } },
{ "type": "Feature", "properties": { "ID": 81108570061, "正式名称": "社会福祉法人　白十字会　白十字総合病院", "機関区分": 1, "都道府県コード": 8, "市区町村コード": 232, "所在地": "茨城県神栖市賀２１４８", "緯度": 35.900065, "経度": 140.623229, "url": "https://www.iryou.teikyouseido.mhlw.go.jp/znk-web/juminkanja/S2430/initialize?prefCd=08&kikanCd=108570061&kikanKbn=1", "url2": "http://www.hakujyuji.jp/", "内容": "社会福祉法人　白十字会　白十字総合病院【1:病院】【診療科目:内科_呼吸器内科_外科_脳神経外科_消化器外科_乳腺外科_肛門外科_整形外科_小児科_産科_婦人科_眼科_耳鼻いんこう科_皮膚科_泌尿器科_歯科_小児歯科_リウマチ科】【一般病床数:214療養病床数:90精神病床数:0感染症病床数:0合計病床数:304】茨城県神栖市賀２１４８" }, "geometry": { "type": "Point", "coordinates": [ 140.623229, 35.900065 ] } },
{ "type": "Feature", "properties": { "ID": 81108570090, "正式名称": "医療法人社団土合会渡辺病院", "機関区分": 1, "都道府県コード": 8, "市区町村コード": 232, "所在地": "茨城県神栖市土合本町２－９８０９－２０", "緯度": 35.789167, "経度": 140.780833, "url": "https://www.iryou.teikyouseido.mhlw.go.jp/znk-web/juminkanja/S2430/initialize?prefCd=08&kikanCd=108570090&kikanKbn=1", "url2": "http://watanabe-hospital.net", "内容": "医療法人社団土合会渡辺病院【1:病院】【診療科目:内科_循環器内科_胃腸内科_リハビリテーション科】【一般病床数:0療養病床数:96精神病床数:0感染症病床数:0合計病床数:96】茨城県神栖市土合本町２－９８０９－２０" }, "geometry": { "type": "Point", "coordinates": [ 140.780833, 35.789167 ] } },
{ "type": "Feature", "properties": { "ID": 81108570104, "正式名称": "清仁会病院", "機関区分": 1, "都道府県コード": 8, "市区町村コード": 232, "所在地": "茨城県神栖市矢田部１１３４５ー１", "緯度": 35.79999, "経度": 140.74033, "url": "https://www.iryou.teikyouseido.mhlw.go.jp/znk-web/juminkanja/S2430/initialize?prefCd=08&kikanCd=108570104&kikanKbn=1", "url2": "https://www.seijinkai-hosp.or.jp/", "内容": "清仁会病院【1:病院】【診療科目:内科】【一般病床数:0療養病床数:118精神病床数:0感染症病床数:0合計病床数:118】茨城県神栖市矢田部１１３４５ー１" }, "geometry": { "type": "Point", "coordinates": [ 140.74033, 35.79999 ] } },
{ "type": "Feature", "properties": { "ID": 81108570175, "正式名称": "医療法人社団善仁会　小山記念病院", "機関区分": 1, "都道府県コード": 8, "市区町村コード": 222, "所在地": "茨城県鹿嶋市厨五丁目１番地２", "緯度": 35.971944, "経度": 140.632222, "url": "https://www.iryou.teikyouseido.mhlw.go.jp/znk-web/juminkanja/S2430/initialize?prefCd=08&kikanCd=108570175&kikanKbn=1", "url2": "http://www.koyama-mh.or.jp", "内容": "医療法人社団善仁会　小山記念病院【1:病院】【診療科目:内科_糖尿病内科_呼吸器内科_循環器内科_消化器内科_腎臓内科_肝臓内科_神経内科_漢方内科_外科_脳神経外科_呼吸器外科_心臓血管外科_乳腺外科_胸部外科_整形外科_形成外科_産婦人科_眼科_皮膚科_泌尿器科_歯科口腔外科_リハビリテーション科_放射線科_麻酔科】【一般病床数:224療養病床数:0精神病床数:0感染症病床数:0合計病床数:224】茨城県鹿嶋市厨五丁目１番地２" }, "geometry": { "type": "Point", "coordinates": [ 140.632222, 35.971944 ] } },
{ "type": "Feature", "properties": { "ID": 81108570188, "正式名称": "神栖済生会病院", "機関区分": 1, "都道府県コード": 8, "市区町村コード": 232, "所在地": "茨城県神栖市知手中央７－２－４５", "緯度": 35.869167, "経度": 140.7125, "url": "https://www.iryou.teikyouseido.mhlw.go.jp/znk-web/juminkanja/S2430/initialize?prefCd=08&kikanCd=108570188&kikanKbn=1", "url2": "http://www.kamisusaisei.jp/", "内容": "神栖済生会病院【1:病院】【診療科目:内科_呼吸器内科_循環器内科_消化器内科_腎臓内科_人工透析内科_肝臓内科_外科_消化器外科_乳腺・内分泌外科_大腸・肛門外科_内視鏡外科_整形外科_形成外科_小児科_婦人科_眼科_耳鼻いんこう科_皮膚科_泌尿器科_リハビリテーション科_放射線科_麻酔科】【一般病床数:179療養病床数:0精神病床数:0感染症病床数:0合計病床数:179】茨城県神栖市知手中央７－２－４５" }, "geometry": { "type": "Point", "coordinates": [ 140.7125, 35.869167 ] } },
{ "type": "Feature", "properties": { "ID": 81108570205, "正式名称": "鹿嶋ハートクリニック", "機関区分": 1, "都道府県コード": 8, "市区町村コード": 232, "所在地": "茨城県神栖市平泉１番１６８", "緯度": 35.912239, "経度": 140.638446, "url": "https://www.iryou.teikyouseido.mhlw.go.jp/znk-web/juminkanja/S2430/initialize?prefCd=08&kikanCd=108570205&kikanKbn=1", "url2": "https://kashima-heart-cl.com/", "内容": "鹿嶋ハートクリニック【1:病院】【診療科目:内科_循環器内科_脳神経外科_心臓血管外科_麻酔科】【一般病床数:23療養病床数:0精神病床数:0感染症病床数:0合計病床数:23】茨城県神栖市平泉１番１６８" }, "geometry": { "type": "Point", "coordinates": [ 140.638446, 35.912239 ] } },
{ "type": "Feature", "properties": { "ID": 81108580051, "正式名称": "医療法人中村会　常総病院", "機関区分": 1, "都道府県コード": 8, "市区町村コード": 217, "所在地": "茨城県取手市下高井２３７１番地", "緯度": 35.928624, "経度": 140.028214, "url": "https://www.iryou.teikyouseido.mhlw.go.jp/znk-web/juminkanja/S2430/initialize?prefCd=08&kikanCd=108580051&kikanKbn=1", "url2": "https://www.josohp.net/", "内容": "医療法人中村会　常総病院【1:病院】【診療科目:内科_精神科_神経科】【一般病床数:0療養病床数:30精神病床数:127感染症病床数:0合計病床数:157】茨城県取手市下高井２３７１番地" }, "geometry": { "type": "Point", "coordinates": [ 140.028214, 35.928624 ] } },
{ "type": "Feature", "properties": { "ID": 81108580080, "正式名称": "医療法人　櫻友会　取手中央病院", "機関区分": 1, "都道府県コード": 8, "市区町村コード": 217, "所在地": "茨城県取手市本郷３丁目２番１号", "緯度": 35.912263, "経度": 140.067729, "url": "https://www.iryou.teikyouseido.mhlw.go.jp/znk-web/juminkanja/S2430/initialize?prefCd=08&kikanCd=108580080&kikanKbn=1", "url2": "https://toridechuo.jp/aboutus/", "内容": "医療法人　櫻友会　取手中央病院【1:病院】【診療科目:内科】【一般病床数:63療養病床数:0精神病床数:0感染症病床数:0合計病床数:63】茨城県取手市本郷３丁目２番１号" }, "geometry": { "type": "Point", "coordinates": [ 140.067729, 35.912263 ] } },
{ "type": "Feature", "properties": { "ID": 81108580093, "正式名称": "茨城県厚生農業協同組合連合会ＪＡとりで総合医療センター", "機関区分": 1, "都道府県コード": 8, "市区町村コード": 217, "所在地": "茨城県取手市本郷２－１－１", "緯度": 35.910928, "経度": 140.068605, "url": "https://www.iryou.teikyouseido.mhlw.go.jp/znk-web/juminkanja/S2430/initialize?prefCd=08&kikanCd=108580093&kikanKbn=1", "url2": "http://www.toride-medical.or.jp/", "内容": "茨城県厚生農業協同組合連合会ＪＡとりで総合医療センター【1:病院】【診療科目:血液内科_代謝・内分泌内科_脳神経内科_呼吸器内科_循環器内科_消化器内科_腎臓内科_外科_脳神経外科_呼吸器外科_消化器外科_頭頸部外科_整形外科_小児科_小児外科_産婦人科_眼科_耳鼻いんこう科_皮膚科_泌尿器科_歯科口腔外科_高齢者歯科_リウマチ科_リハビリテーション科_放射線科_病理診断科_臨床検査科_救急科_麻酔科】【一般病床数:406療養病床数:0精神病床数:0感染症病床数:8合計病床数:414】茨城県取手市本郷２－１－１" }, "geometry": { "type": "Point", "coordinates": [ 140.068605, 35.910928 ] } },
{ "type": "Feature", "properties": { "ID": 81108580110, "正式名称": "東取手病院", "機関区分": 1, "都道府県コード": 8, "市区町村コード": 217, "所在地": "茨城県取手市井野２６８", "緯度": 35.900916, "経度": 140.08595, "url": "https://www.iryou.teikyouseido.mhlw.go.jp/znk-web/juminkanja/S2430/initialize?prefCd=08&kikanCd=108580110&kikanKbn=1", "url2": "http://www.higashi-t.or.jp", "内容": "東取手病院【1:病院】【診療科目:内科_血液内科_糖尿病・代謝内科_呼吸器内科_循環器内科_消化器内科_腎臓内科_外科_心臓血管外科_消化器外科_整形外科_皮膚科_リウマチ科】【一般病床数:77療養病床数:0精神病床数:0感染症病床数:0合計病床数:77】茨城県取手市井野２６８" }, "geometry": { "type": "Point", "coordinates": [ 140.08595, 35.900916 ] } },
{ "type": "Feature", "properties": { "ID": 81108580123, "正式名称": "医療法人西秀会西間木病院", "機関区分": 1, "都道府県コード": 8, "市区町村コード": 217, "所在地": "茨城県取手市戸頭１－８－２１", "緯度": 35.919077, "経度": 140.012939, "url": "https://www.iryou.teikyouseido.mhlw.go.jp/znk-web/juminkanja/S2430/initialize?prefCd=08&kikanCd=108580123&kikanKbn=1", "url2": "http://www.nishimagi-hospital.com", "内容": "医療法人西秀会西間木病院【1:病院】【診療科目:内科_呼吸器内科_循環器内科_消化器内科_外科_整形外科_皮膚科_泌尿器科_リウマチ科_リハビリテーション科_麻酔科】【一般病床数:39療養病床数:0精神病床数:0感染症病床数:0合計病床数:39】茨城県取手市戸頭１－８－２１" }, "geometry": { "type": "Point", "coordinates": [ 140.012939, 35.919077 ] } },
{ "type": "Feature", "properties": { "ID": 81108580136, "正式名称": "取手北相馬保健医療センター医師会病院", "機関区分": 1, "都道府県コード": 8, "市区町村コード": 217, "所在地": "茨城県取手市野々井１９２６", "緯度": 35.91768, "経度": 140.025542, "url": "https://www.iryou.teikyouseido.mhlw.go.jp/znk-web/juminkanja/S2430/initialize?prefCd=08&kikanCd=108580136&kikanKbn=1", "url2": "http://www.ishikaibyouin.or.jp", "内容": "取手北相馬保健医療センター医師会病院【1:病院】【診療科目:内科_血液内科_呼吸器内科_循環器内科_神経内科_緩和ケア内科_外科_脳神経外科_呼吸器外科_心臓血管外科_整形外科_形成外科_リウマチ科_リハビリテーション科_放射線科】【一般病床数:177療養病床数:0精神病床数:0感染症病床数:0合計病床数:177】茨城県取手市野々井１９２６" }, "geometry": { "type": "Point", "coordinates": [ 140.025542, 35.91768 ] } },
{ "type": "Feature", "properties": { "ID": 81108580165, "正式名称": "医療法人社団常仁会牛久愛和総合病院", "機関区分": 1, "都道府県コード": 8, "市区町村コード": 219, "所在地": "茨城県牛久市猪子町８９６番地", "緯度": 35.998577, "経度": 140.142669, "url": "https://www.iryou.teikyouseido.mhlw.go.jp/znk-web/juminkanja/S2430/initialize?prefCd=08&kikanCd=108580165&kikanKbn=1", "url2": "http://www.jojinkai.com/", "内容": "医療法人社団常仁会牛久愛和総合病院【1:病院】【診療科目:内科_血液内科_内分泌内科_糖尿病・代謝内科_脳神経内科_呼吸器内科_循環器内科_消化器内科_腎臓内科_外科_脳神経外科_血管外科_心臓血管外科_消化器外科_乳腺外科_乳腺・内分泌外科_肛門外科_内視鏡外科_整形外科_形成外科_小児科_産婦人科_眼科_耳鼻いんこう科_皮膚科_泌尿器科_精神科_心療内科_歯科口腔外科_リウマチ科_リハビリテーション科_放射線科_救急科_麻酔科】【一般病床数:434療養病床数:55精神病床数:0感染症病床数:0合計病床数:489】茨城県牛久市猪子町８９６番地" }, "geometry": { "type": "Point", "coordinates": [ 140.142669, 35.998577 ] } },
{ "type": "Feature", "properties": { "ID": 81108580178, "正式名称": "みやざきホスピタル", "機関区分": 1, "都道府県コード": 8, "市区町村コード": 229, "所在地": "茨城県稲敷市上根本３４７４", "緯度": 35.918309, "経度": 140.266064, "url": "https://www.iryou.teikyouseido.mhlw.go.jp/znk-web/juminkanja/S2430/initialize?prefCd=08&kikanCd=108580178&kikanKbn=1", "url2": "http://www.mmjp.or.jp/miyazaki-hp", "内容": "みやざきホスピタル【1:病院】【診療科目:内科_小児科_精神科_神経科_心療内科_歯科】【一般病床数:0療養病床数:0精神病床数:230感染症病床数:0合計病床数:230】茨城県稲敷市上根本３４７４" }, "geometry": { "type": "Point", "coordinates": [ 140.266064, 35.918309 ] } },
{ "type": "Feature", "properties": { "ID": 81108580181, "正式名称": "医療法人社団広文会江戸崎病院", "機関区分": 1, "都道府県コード": 8, "市区町村コード": 229, "所在地": "茨城県稲敷市阿波", "緯度": 35.951178, "経度": 140.381739, "url": "https://www.iryou.teikyouseido.mhlw.go.jp/znk-web/juminkanja/S2430/initialize?prefCd=08&kikanCd=108580181&kikanKbn=1", "url2": "http://www.edosaki-hospital.com", "内容": "医療法人社団広文会江戸崎病院【1:病院】【診療科目:内科_神経内科_脳神経外科_精神科_心療内科】【一般病床数:0療養病床数:0精神病床数:227感染症病床数:0合計病床数:227】茨城県稲敷市阿波" }, "geometry": { "type": "Point", "coordinates": [ 140.381739, 35.951178 ] } },
{ "type": "Feature", "properties": { "ID": 81108580194, "正式名称": "医療法人盡誠会　宮本病院", "機関区分": 1, "都道府県コード": 8, "市区町村コード": 229, "所在地": "茨城県稲敷市幸田１２４７", "緯度": 35.936944, "経度": 140.388889, "url": "https://www.iryou.teikyouseido.mhlw.go.jp/znk-web/juminkanja/S2430/initialize?prefCd=08&kikanCd=108580194&kikanKbn=1", "url2": "https://miyamoto-hp.or.jp/", "内容": "医療法人盡誠会　宮本病院【1:病院】【診療科目:内科_糖尿病内科_循環器内科_消化器内科_腎臓内科_人工透析内科_神経内科_整形外科_小児科_眼科_皮膚科_泌尿器科_精神科_心療内科_リハビリテーション科_放射線科】【一般病床数:0療養病床数:143精神病床数:274感染症病床数:0合計病床数:417】茨城県稲敷市幸田１２４７" }, "geometry": { "type": "Point", "coordinates": [ 140.388889, 35.936944 ] } },
{ "type": "Feature", "properties": { "ID": 81108580211, "正式名称": "医療法人社団耕潤会ハートフルふじしろ病院", "機関区分": 1, "都道府県コード": 8, "市区町村コード": 217, "所在地": "茨城県取手市下萱場２２５", "緯度": 35.932101, "経度": 140.110948, "url": "https://www.iryou.teikyouseido.mhlw.go.jp/znk-web/juminkanja/S2430/initialize?prefCd=08&kikanCd=108580211&kikanKbn=1", "url2": "http://koujunkai-group.jp/", "内容": "医療法人社団耕潤会ハートフルふじしろ病院【1:病院】【診療科目:内科_糖尿病内科_循環器内科_消化器内科_神経内科_整形外科_リハビリテーション科】【一般病床数:45療養病床数:0精神病床数:0感染症病床数:0合計病床数:45】茨城県取手市下萱場２２５" }, "geometry": { "type": "Point", "coordinates": [ 140.110948, 35.932101 ] } },
{ "type": "Feature", "properties": { "ID": 81108580237, "正式名称": "医療法人社団宗仁会病院", "機関区分": 1, "都道府県コード": 8, "市区町村コード": 217, "所在地": "茨城県取手市岡１４９３", "緯度": 35.921425, "経度": 140.056995, "url": "https://www.iryou.teikyouseido.mhlw.go.jp/znk-web/juminkanja/S2430/initialize?prefCd=08&kikanCd=108580237&kikanKbn=1", "url2": "http://www.soujinkai.com", "内容": "医療法人社団宗仁会病院【1:病院】【診療科目:内科_循環器内科_消化器内科_外科_消化器外科_整形外科_皮膚科_泌尿器科_リハビリテーション科】【一般病床数:30療養病床数:39精神病床数:0感染症病床数:0合計病床数:69】茨城県取手市岡１４９３" }, "geometry": { "type": "Point", "coordinates": [ 140.056995, 35.921425 ] } },
{ "type": "Feature", "properties": { "ID": 81108580240, "正式名称": "医療法人社団八峰会　池田病院", "機関区分": 1, "都道府県コード": 8, "市区町村コード": 208, "所在地": "茨城県龍ケ崎市貝原塚町３６９０－２", "緯度": 35.94278, "経度": 140.188801, "url": "https://www.iryou.teikyouseido.mhlw.go.jp/znk-web/juminkanja/S2430/initialize?prefCd=08&kikanCd=108580240&kikanKbn=1", "url2": "http://www.ikedabyoin.com/", "内容": "医療法人社団八峰会　池田病院【1:病院】【診療科目:内科_精神科】【一般病床数:0療養病床数:0精神病床数:172感染症病床数:0合計病床数:172】茨城県龍ケ崎市貝原塚町３６９０－２" }, "geometry": { "type": "Point", "coordinates": [ 140.188801, 35.94278 ] } },
{ "type": "Feature", "properties": { "ID": 81108580253, "正式名称": "つくばセントラル病院", "機関区分": 1, "都道府県コード": 8, "市区町村コード": 219, "所在地": "茨城県牛久市柏田町１５８９－３", "緯度": 35.983229, "経度": 140.157721, "url": "https://www.iryou.teikyouseido.mhlw.go.jp/znk-web/juminkanja/S2430/initialize?prefCd=08&kikanCd=108580253&kikanKbn=1", "url2": "http://www.central.or.jp", "内容": "つくばセントラル病院【1:病院】【診療科目:内科_呼吸器内科_循環器内科_消化器内科_神経内科_外科_脳神経外科_消化器外科_乳腺外科_整形外科_小児科_産婦人科_眼科_皮膚科_精神科_心療内科_歯科_歯科口腔外科_リハビリテーション科_放射線科_腫瘍放射線科_麻酔科】【一般病床数:313療養病床数:0精神病床数:0感染症病床数:0合計病床数:313】茨城県牛久市柏田町１５８９－３" }, "geometry": { "type": "Point", "coordinates": [ 140.157721, 35.983229 ] } },
{ "type": "Feature", "properties": { "ID": 81108580266, "正式名称": "牛尾病院", "機関区分": 1, "都道府県コード": 8, "市区町村コード": 208, "所在地": "茨城県龍ケ崎市馴柴町１－１５－１", "緯度": 35.929065, "経度": 140.14756, "url": "https://www.iryou.teikyouseido.mhlw.go.jp/znk-web/juminkanja/S2430/initialize?prefCd=08&kikanCd=108580266&kikanKbn=1", "url2": "http://www.ryujinkai.or.jp", "内容": "牛尾病院【1:病院】【診療科目:内科_外科_整形外科_形成外科_皮膚科】【一般病床数:51療養病床数:60精神病床数:0感染症病床数:0合計病床数:111】茨城県龍ケ崎市馴柴町１－１５－１" }, "geometry": { "type": "Point", "coordinates": [ 140.14756, 35.929065 ] } },
{ "type": "Feature", "properties": { "ID": 81108580279, "正式名称": "社会福祉法人恩賜財団済生会支部茨城県済生会龍ケ崎済生会病院", "機関区分": 1, "都道府県コード": 8, "市区町村コード": 208, "所在地": "茨城県龍ケ崎市中里１－１", "緯度": 35.93331, "経度": 140.202689, "url": "https://www.iryou.teikyouseido.mhlw.go.jp/znk-web/juminkanja/S2430/initialize?prefCd=08&kikanCd=108580279&kikanKbn=1", "url2": "http://www.ryugasaki-hp.org", "内容": "社会福祉法人恩賜財団済生会支部茨城県済生会龍ケ崎済生会病院【1:病院】【診療科目:内科_糖尿病・代謝内科_呼吸器内科_循環器内科_消化器内科_神経内科_外科_脳神経外科_心臓血管外科_消化器外科_整形外科_形成外科_小児科_産婦人科_眼科_耳鼻いんこう科_皮膚科_泌尿器科_リウマチ科_リハビリテーション科_放射線科_麻酔科】【一般病床数:204療養病床数:0精神病床数:0感染症病床数:0合計病床数:204】茨城県龍ケ崎市中里１－１" }, "geometry": { "type": "Point", "coordinates": [ 140.202689, 35.93331 ] } },
{ "type": "Feature", "properties": { "ID": 81108590012, "正式名称": "独立行政法人国立病院機構霞ヶ浦医療センター", "機関区分": 1, "都道府県コード": 8, "市区町村コード": 203, "所在地": "茨城県土浦市下高津２－７－１４", "緯度": 36.073013, "経度": 140.192767, "url": "https://www.iryou.teikyouseido.mhlw.go.jp/znk-web/juminkanja/S2430/initialize?prefCd=08&kikanCd=108590012&kikanKbn=1", "url2": "https://kasumigaura.hosp.go.jp/", "内容": "独立行政法人国立病院機構霞ヶ浦医療センター【1:病院】【診療科目:内科_血液内科_糖尿病・代謝内科_脳神経内科_呼吸器内科_循環器内科_消化器内科_腎臓内科_外科_脳神経外科_呼吸器外科_心臓血管外科_乳腺外科_整形外科_形成外科_小児科_産婦人科_眼科_耳鼻いんこう科_皮膚科_泌尿器科_歯科_歯科口腔外科_リハビリテーション科_放射線科_病理診断科_麻酔科】【一般病床数:250療養病床数:0精神病床数:0感染症病床数:0合計病床数:250】茨城県土浦市下高津２－７－１４" }, "geometry": { "type": "Point", "coordinates": [ 140.192767, 36.073013 ] } },
{ "type": "Feature", "properties": { "ID": 81108590038, "正式名称": "医療法人財団県南病院", "機関区分": 1, "都道府県コード": 8, "市区町村コード": 203, "所在地": "茨城県土浦市中１０８７", "緯度": 36.048904, "経度": 140.16886, "url": "https://www.iryou.teikyouseido.mhlw.go.jp/znk-web/juminkanja/S2430/initialize?prefCd=08&kikanCd=108590038&kikanKbn=1", "url2": "http://www.kennan-hospital.com", "内容": "医療法人財団県南病院【1:病院】【診療科目:内科_呼吸器内科_消化器内科_外科_脳神経外科_整形外科_リハビリテーション科_麻酔科】【一般病床数:83療養病床数:0精神病床数:0感染症病床数:0合計病床数:83】茨城県土浦市中１０８７" }, "geometry": { "type": "Point", "coordinates": [ 140.16886, 36.048904 ] } },
{ "type": "Feature", "properties": { "ID": 81108590054, "正式名称": "土浦厚生病院", "機関区分": 1, "都道府県コード": 8, "市区町村コード": 203, "所在地": "茨城県土浦市東若松町３９６９", "緯度": 36.107993, "経度": 140.207242, "url": "https://www.iryou.teikyouseido.mhlw.go.jp/znk-web/juminkanja/S2430/initialize?prefCd=08&kikanCd=108590054&kikanKbn=1", "url2": "https://kasuikai.or.jp/", "内容": "土浦厚生病院【1:病院】【診療科目:精神科_心療内科】【一般病床数:0療養病床数:0精神病床数:280感染症病床数:0合計病床数:280】茨城県土浦市東若松町３９６９" }, "geometry": { "type": "Point", "coordinates": [ 140.207242, 36.107993 ] } },
{ "type": "Feature", "properties": { "ID": 81108590142, "正式名称": "野上病院", "機関区分": 1, "都道府県コード": 8, "市区町村コード": 203, "所在地": "茨城県土浦市東崎町６－８", "緯度": 36.082278, "経度": 140.206437, "url": "https://www.iryou.teikyouseido.mhlw.go.jp/znk-web/juminkanja/S2430/initialize?prefCd=08&kikanCd=108590142&kikanKbn=1", "url2": "http://www.nogami-hospital.jp/", "内容": "野上病院【1:病院】【診療科目:内科_消化器内科_緩和ケア内科_外科_消化器外科_整形外科】【一般病床数:28療養病床数:0精神病床数:0感染症病床数:0合計病床数:28】茨城県土浦市東崎町６－８" }, "geometry": { "type": "Point", "coordinates": [ 140.206437, 36.082278 ] } },
{ "type": "Feature", "properties": { "ID": 81108590168, "正式名称": "医療法人美湖会美浦中央病院", "機関区分": 1, "都道府県コード": 8, "市区町村コード": 442, "所在地": "茨城県稲敷郡美浦村宮地５９６", "緯度": 36.003649, "経度": 140.316277, "url": "https://www.iryou.teikyouseido.mhlw.go.jp/znk-web/juminkanja/S2430/initialize?prefCd=08&kikanCd=108590168&kikanKbn=1", "url2": "http://www.mihochu.or.jp", "内容": "医療法人美湖会美浦中央病院【1:病院】【診療科目:内科_呼吸器内科_循環器内科_胃腸内科_神経内科_外科_整形外科_眼科_耳鼻いんこう科_皮膚科_泌尿器科_歯科_リハビリテーション科_麻酔科】【一般病床数:60療養病床数:126精神病床数:0感染症病床数:0合計病床数:186】茨城県稲敷郡美浦村宮地５９６" }, "geometry": { "type": "Point", "coordinates": [ 140.316277, 36.003649 ] } },
{ "type": "Feature", "properties": { "ID": 81108590171, "正式名称": "東京医科大学茨城医療センター", "機関区分": 1, "都道府県コード": 8, "市区町村コード": 443, "所在地": "茨城県稲敷郡阿見町中央３丁目２０－１", "緯度": 36.033056, "経度": 140.219722, "url": "https://www.iryou.teikyouseido.mhlw.go.jp/znk-web/juminkanja/S2430/initialize?prefCd=08&kikanCd=108590171&kikanKbn=1", "url2": "http://ksm.tokyo-med.ac.jp", "内容": "東京医科大学茨城医療センター【1:病院】【診療科目:内科_代謝・内分泌内科_脳神経内科_循環器内科_消化器内科_腎臓内科_外科_脳神経外科_呼吸器外科_消化器外科_乳腺外科_整形外科_形成外科_小児科_産婦人科_眼科_耳鼻いんこう科_皮膚科_泌尿器科_精神科_歯科口腔外科_リハビリテーション科_放射線科_病理診断科_麻酔科】【一般病床数:501療養病床数:0精神病床数:0感染症病床数:0合計病床数:445】茨城県稲敷郡阿見町中央３丁目２０－１" }, "geometry": { "type": "Point", "coordinates": [ 140.219722, 36.033056 ] } },
{ "type": "Feature", "properties": { "ID": 81108590184, "正式名称": "医療法人社団恵和会朝田病院", "機関区分": 1, "都道府県コード": 8, "市区町村コード": 443, "所在地": "茨城県稲敷郡阿見町若栗２５８４番地", "緯度": 36.014499, "経度": 140.221626, "url": "https://www.iryou.teikyouseido.mhlw.go.jp/znk-web/juminkanja/S2430/initialize?prefCd=08&kikanCd=108590184&kikanKbn=1", "url2": "http://www.asada-mh.or.jp", "内容": "医療法人社団恵和会朝田病院【1:病院】【診療科目:精神科_心療内科】【一般病床数:0療養病床数:0精神病床数:121感染症病床数:0合計病床数:121】茨城県稲敷郡阿見町若栗２５８４番地" }, "geometry": { "type": "Point", "coordinates": [ 140.221626, 36.014499 ] } },
{ "type": "Feature", "properties": { "ID": 81108590197, "正式名称": "神立病院", "機関区分": 1, "都道府県コード": 8, "市区町村コード": 203, "所在地": "茨城県土浦市神立中央５－１１－２", "緯度": 36.120415, "経度": 140.229422, "url": "https://www.iryou.teikyouseido.mhlw.go.jp/znk-web/juminkanja/S2430/initialize?prefCd=08&kikanCd=108590197&kikanKbn=1", "url2": "http://www.seisyuukai.com/", "内容": "神立病院【1:病院】【診療科目:内科_代謝・内分泌内科_脳神経内科_呼吸器内科_循環器内科_消化器内科_腎臓内科_緩和ケア内科_外科_脳神経外科_血管外科_胃腸外科_肛門外科_整形外科_眼科_皮膚科_泌尿器科_リハビリテーション科_放射線科_麻酔科】【一般病床数:60療養病床数:100精神病床数:0感染症病床数:0合計病床数:160】茨城県土浦市神立中央５－１１－２" }, "geometry": { "type": "Point", "coordinates": [ 140.229422, 36.120415 ] } },
{ "type": "Feature", "properties": { "ID": 81108590201, "正式名称": "医療法人社団筑波東病院", "機関区分": 1, "都道府県コード": 8, "市区町村コード": 203, "所在地": "茨城県土浦市乙戸５７－１", "緯度": 36.03486, "経度": 140.1468, "url": "https://www.iryou.teikyouseido.mhlw.go.jp/znk-web/juminkanja/S2430/initialize?prefCd=08&kikanCd=108590201&kikanKbn=1", "url2": null, "内容": "医療法人社団筑波東病院【1:病院】【診療科目:内科_精神科_心療内科】【一般病床数:0療養病床数:0精神病床数:206感染症病床数:0合計病床数:206】茨城県土浦市乙戸５７－１" }, "geometry": { "type": "Point", "coordinates": [ 140.1468, 36.03486 ] } },
{ "type": "Feature", "properties": { "ID": 81108590227, "正式名称": "茨城県立医療大学付属病院", "機関区分": 1, "都道府県コード": 8, "市区町村コード": 443, "所在地": "茨城県稲敷郡阿見町阿見４７３３", "緯度": 36.028099, "経度": 140.209849, "url": "https://www.iryou.teikyouseido.mhlw.go.jp/znk-web/juminkanja/S2430/initialize?prefCd=08&kikanCd=108590227&kikanKbn=1", "url2": "http://www.hosp.ipu.ac.jp", "内容": "茨城県立医療大学付属病院【1:病院】【診療科目:内科_神経内科_脳神経外科_整形外科_小児科_眼科_耳鼻いんこう科_皮膚科_泌尿器科_精神科_歯科_リハビリテーション科_放射線科_麻酔科】【一般病床数:120療養病床数:0精神病床数:0感染症病床数:0合計病床数:120】茨城県稲敷郡阿見町阿見４７３３" }, "geometry": { "type": "Point", "coordinates": [ 140.209849, 36.028099 ] } },
{ "type": "Feature", "properties": { "ID": 81108590243, "正式名称": "久保田病院", "機関区分": 1, "都道府県コード": 8, "市区町村コード": 205, "所在地": "茨城県石岡市行里川２６－３", "緯度": 36.20627, "経度": 140.289457, "url": "https://www.iryou.teikyouseido.mhlw.go.jp/znk-web/juminkanja/S2430/initialize?prefCd=08&kikanCd=108590243&kikanKbn=1", "url2": "http://kubota.meds.co.jp/kubota/", "内容": "久保田病院【1:病院】【診療科目:内科_整形外科_皮膚科_リハビリテーション科】【一般病床数:0療養病床数:40精神病床数:0感染症病床数:0合計病床数:40】茨城県石岡市行里川２６－３" }, "geometry": { "type": "Point", "coordinates": [ 140.289457, 36.20627 ] } },
{ "type": "Feature", "properties": { "ID": 81108590256, "正式名称": "公益社団法人地域医療振興協会石岡第一病院", "機関区分": 1, "都道府県コード": 8, "市区町村コード": 205, "所在地": "茨城県石岡市東府中１－７", "緯度": 36.203413, "経度": 140.293295, "url": "https://www.iryou.teikyouseido.mhlw.go.jp/znk-web/juminkanja/S2430/initialize?prefCd=08&kikanCd=108590256&kikanKbn=1", "url2": "https://www.jadecom.or.jp/jadecomhp/ishioka/", "内容": "公益社団法人地域医療振興協会石岡第一病院【1:病院】【診療科目:内科_呼吸器内科_循環器内科_消化器内科_外科_整形外科_形成外科_小児科_小児皮膚科_耳鼻いんこう科_皮膚科_泌尿器科_歯科口腔外科_リハビリテーション科_放射線科】【一般病床数:126療養病床数:0精神病床数:0感染症病床数:0合計病床数:126】茨城県石岡市東府中１－７" }, "geometry": { "type": "Point", "coordinates": [ 140.293295, 36.203413 ] } },
{ "type": "Feature", "properties": { "ID": 81108590269, "正式名称": "総合病院土浦協同病院", "機関区分": 1, "都道府県コード": 8, "市区町村コード": 203, "所在地": "茨城県土浦市おおつ野四丁目１番１号", "緯度": 36.083781, "経度": 140.258874, "url": "https://www.iryou.teikyouseido.mhlw.go.jp/znk-web/juminkanja/S2430/initialize?prefCd=08&kikanCd=108590269&kikanKbn=1", "url2": "http://www.tkgh.jp/", "内容": "総合病院土浦協同病院【1:病院】【診療科目:内科_血液内科_代謝・内分泌内科_脳神経内科_呼吸器内科_循環器内科_消化器内科_腎臓内科_脳神経外科_呼吸器外科_血管外科_心臓血管外科_消化器外科_乳腺外科_整形外科_形成外科_小児科_小児外科_新生児内科_産婦人科_眼科_頭頸部・耳鼻いんこう科_皮膚科_泌尿器科_歯科口腔外科_リハビリテーション科_放射線診断科_放射線治療科_病理診断科_救急科_麻酔科】【一般病床数:794療養病床数:0精神病床数:0感染症病床数:6合計病床数:800】茨城県土浦市おおつ野四丁目１番１号" }, "geometry": { "type": "Point", "coordinates": [ 140.258874, 36.083781 ] } },
{ "type": "Feature", "properties": { "ID": 81108590689, "正式名称": "社会医療法人若竹会土浦リハビリテーション病院", "機関区分": 1, "都道府県コード": 8, "市区町村コード": 203, "所在地": "茨城県土浦市真鍋新町１１－７", "緯度": 36.089876, "経度": 140.209152, "url": "https://www.iryou.teikyouseido.mhlw.go.jp/znk-web/juminkanja/S2430/initialize?prefCd=08&kikanCd=108590689&kikanKbn=1", "url2": "http://www.central.or.jp", "内容": "社会医療法人若竹会土浦リハビリテーション病院【1:病院】【診療科目:内科_糖尿病内科_腎臓内科_人工透析内科_脳神経外科_整形外科_脳神経小児科_皮膚科_泌尿器科_歯科_歯科口腔外科_リハビリテーション科】【一般病床数:42療養病床数:0精神病床数:0感染症病床数:0合計病床数:42】茨城県土浦市真鍋新町１１－７" }, "geometry": { "type": "Point", "coordinates": [ 140.209152, 36.089876 ] } },
{ "type": "Feature", "properties": { "ID": 81108600016, "正式名称": "医療法人幕内会　山王台病院", "機関区分": 1, "都道府県コード": 8, "市区町村コード": 205, "所在地": "茨城県石岡市東石岡４－１－３８", "緯度": 36.1879, "経度": 140.292049, "url": "https://www.iryou.teikyouseido.mhlw.go.jp/znk-web/juminkanja/S2430/initialize?prefCd=08&kikanCd=108600016&kikanKbn=1", "url2": "https://www.sannoudai.or.jp/sannoudai/index.html", "内容": "医療法人幕内会　山王台病院【1:病院】【診療科目:内科_血液内科_内分泌内科_脳神経内科_呼吸器内科_循環器内科_消化器内科_腎臓内科_人工透析内科_外科_脳神経外科_呼吸器外科_気管食道外科_心臓血管外科_消化器外科_乳腺外科_肛門外科_腫瘍外科_内視鏡外科_整形外科_甲状腺外科_小児科_婦人科_眼科_耳鼻いんこう科_皮膚科_泌尿器科_歯科口腔外科_リウマチ科_リハビリテーション科_放射線科】【一般病床数:127療養病床数:45精神病床数:0感染症病床数:0合計病床数:172】茨城県石岡市東石岡４－１－３８" }, "geometry": { "type": "Point", "coordinates": [ 140.292049, 36.1879 ] } },
{ "type": "Feature", "properties": { "ID": 81108600090, "正式名称": "社会福祉法人欅会　旭台病院", "機関区分": 1, "都道府県コード": 8, "市区町村コード": 205, "所在地": "茨城県石岡市旭台１－１７－２６", "緯度": 36.194755, "経度": 140.301237, "url": "https://www.iryou.teikyouseido.mhlw.go.jp/znk-web/juminkanja/S2430/initialize?prefCd=08&kikanCd=108600090&kikanKbn=1", "url2": "http://www.asahidai.or.jp", "内容": "社会福祉法人欅会　旭台病院【1:病院】【診療科目:内科_神経内科_小児科_皮膚科_泌尿器科_もの忘れ外来】【一般病床数:0療養病床数:60精神病床数:0感染症病床数:0合計病床数:60】茨城県石岡市旭台１－１７－２６" }, "geometry": { "type": "Point", "coordinates": [ 140.301237, 36.194755 ] } },
{ "type": "Feature", "properties": { "ID": 81108600117, "正式名称": "医療法人聖和会つくば病院", "機関区分": 1, "都道府県コード": 8, "市区町村コード": 236, "所在地": "茨城県小美玉市高崎２０３２ー６", "緯度": 36.168111, "経度": 140.308427, "url": "https://www.iryou.teikyouseido.mhlw.go.jp/znk-web/juminkanja/S2430/initialize?prefCd=08&kikanCd=108600117&kikanKbn=1", "url2": "http://www.e-seiwakai.jp", "内容": "医療法人聖和会つくば病院【1:病院】【診療科目:内科_精神科_神経科】【一般病床数:0療養病床数:0精神病床数:281感染症病床数:0合計病床数:281】茨城県小美玉市高崎２０３２ー６" }, "geometry": { "type": "Point", "coordinates": [ 140.308427, 36.168111 ] } },
{ "type": "Feature", "properties": { "ID": 81108600162, "正式名称": "桜井病院", "機関区分": 1, "都道府県コード": 8, "市区町村コード": 205, "所在地": "茨城県石岡市半田１８８６", "緯度": 36.196127, "経度": 140.217656, "url": "https://www.iryou.teikyouseido.mhlw.go.jp/znk-web/juminkanja/S2430/initialize?prefCd=08&kikanCd=108600162&kikanKbn=1", "url2": "http://sakurai3922.jimdo.com/", "内容": "桜井病院【1:病院】【診療科目:精神科_神経科】【一般病床数:0療養病床数:0精神病床数:95感染症病床数:0合計病床数:95】茨城県石岡市半田１８８６" }, "geometry": { "type": "Point", "coordinates": [ 140.217656, 36.196127 ] } },
{ "type": "Feature", "properties": { "ID": 81108600175, "正式名称": "医療法人社団正信会美野里病院", "機関区分": 1, "都道府県コード": 8, "市区町村コード": 236, "所在地": "茨城県小美玉市西郷地１４６２", "緯度": 36.249167, "経度": 140.379167, "url": "https://www.iryou.teikyouseido.mhlw.go.jp/znk-web/juminkanja/S2430/initialize?prefCd=08&kikanCd=108600175&kikanKbn=1", "url2": null, "内容": "医療法人社団正信会美野里病院【1:病院】【診療科目:内科_消化器内科_外科_肛門外科_整形外科_眼科_泌尿器科_リハビリテーション科】【一般病床数:50療養病床数:61精神病床数:0感染症病床数:0合計病床数:111】茨城県小美玉市西郷地１４６２" }, "geometry": { "type": "Point", "coordinates": [ 140.379167, 36.249167 ] } },
{ "type": "Feature", "properties": { "ID": 81108600205, "正式名称": "八郷整形外科内科病院", "機関区分": 1, "都道府県コード": 8, "市区町村コード": 205, "所在地": "茨城県石岡市東成井２７１９番地", "緯度": 36.257081, "経度": 140.282531, "url": "https://www.iryou.teikyouseido.mhlw.go.jp/znk-web/juminkanja/S2430/initialize?prefCd=08&kikanCd=108600205&kikanKbn=1", "url2": "http://www.yasato-seikei.com", "内容": "八郷整形外科内科病院【1:病院】【診療科目:内科_消化器内科_外科_整形外科_リハビリテーション科_放射線科】【一般病床数:26療養病床数:80精神病床数:0感染症病床数:0合計病床数:106】茨城県石岡市東成井２７１９番地" }, "geometry": { "type": "Point", "coordinates": [ 140.282531, 36.257081 ] } },
{ "type": "Feature", "properties": { "ID": 81108600218, "正式名称": "豊後荘病院", "機関区分": 1, "都道府県コード": 8, "市区町村コード": 205, "所在地": "茨城県石岡市部原７６０－１", "緯度": 36.264621, "経度": 140.221041, "url": "https://www.iryou.teikyouseido.mhlw.go.jp/znk-web/juminkanja/S2430/initialize?prefCd=08&kikanCd=108600218&kikanKbn=1", "url2": "http://www.bungosou.or.jp", "内容": "豊後荘病院【1:病院】【診療科目:内科_消化器内科_神経内科_精神科_心療内科_歯科_歯科口腔外科_アレルギー科_リハビリテーション科】【一般病床数:0療養病床数:100精神病床数:372感染症病床数:0合計病床数:472】茨城県石岡市部原７６０－１" }, "geometry": { "type": "Point", "coordinates": [ 140.221041, 36.264621 ] } },
{ "type": "Feature", "properties": { "ID": 81108600221, "正式名称": "石岡循環器科脳神経外科病院", "機関区分": 1, "都道府県コード": 8, "市区町村コード": 236, "所在地": "茨城県小美玉市栗又四ケ字木ノ内１７６８－２９", "緯度": 36.174444, "経度": 140.332778, "url": "https://www.iryou.teikyouseido.mhlw.go.jp/znk-web/juminkanja/S2430/initialize?prefCd=08&kikanCd=108600221&kikanKbn=1", "url2": "http://www.ishinou.jp", "内容": "石岡循環器科脳神経外科病院【1:病院】【診療科目:循環器内科_脳神経外科_心臓血管外科_リハビリテーション科_麻酔科】【一般病床数:63療養病床数:0精神病床数:0感染症病床数:0合計病床数:63】茨城県小美玉市栗又四ケ字木ノ内１７６８－２９" }, "geometry": { "type": "Point", "coordinates": [ 140.332778, 36.174444 ] } },
{ "type": "Feature", "properties": { "ID": 81108600234, "正式名称": "丸山荘病院", "機関区分": 1, "都道府県コード": 8, "市区町村コード": 205, "所在地": "茨城県石岡市柿岡３７８７", "緯度": 36.248619, "経度": 140.197391, "url": "https://www.iryou.teikyouseido.mhlw.go.jp/znk-web/juminkanja/S2430/initialize?prefCd=08&kikanCd=108600234&kikanKbn=1", "url2": "http://www.maruyamasou-hp.or.jp", "内容": "丸山荘病院【1:病院】【診療科目:精神科_神経科】【一般病床数:0療養病床数:0精神病床数:194感染症病床数:0合計病床数:194】茨城県石岡市柿岡３７８７" }, "geometry": { "type": "Point", "coordinates": [ 140.197391, 36.248619 ] } },
{ "type": "Feature", "properties": { "ID": 81108610019, "正式名称": "筑波大学附属病院", "機関区分": 1, "都道府県コード": 8, "市区町村コード": 220, "所在地": "茨城県つくば市天久保２－１－１", "緯度": 36.092565, "経度": 140.101291, "url": "https://www.iryou.teikyouseido.mhlw.go.jp/znk-web/juminkanja/S2430/initialize?prefCd=08&kikanCd=108610019&kikanKbn=1", "url2": "https://www.hosp.tsukuba.ac.jp/", "内容": "筑波大学附属病院【1:病院】【診療科目:内科_感染症内科_血液内科_代謝・内分泌内科_脳神経内科_呼吸器内科_循環器内科_消化器内科_腎臓内科_腫瘍内科_脳卒中科_脳神経外科_呼吸器外科_心臓血管外科_消化器外科_乳腺・内分泌外科_整形外科_形成外科_小児科_小児外科_産科_婦人科_眼科_頭頸部・耳鼻いんこう科_皮膚科_泌尿器科_精神科_歯科口腔外科_リハビリテーション科_放射線診断科_腫瘍放射線科_病理診断科_救急科_麻酔科_膠原病・リウマチ・アレルギー内科】【一般病床数:779療養病床数:0精神病床数:30感染症病床数:0合計病床数:809】茨城県つくば市天久保２－１－１" }, "geometry": { "type": "Point", "coordinates": [ 140.101291, 36.092565 ] } },
{ "type": "Feature", "properties": { "ID": 81108610022, "正式名称": "一般財団法人筑波麓仁会筑波学園病院", "機関区分": 1, "都道府県コード": 8, "市区町村コード": 220, "所在地": "茨城県つくば市上横場２５７３－１", "緯度": 36.038251, "経度": 140.097619, "url": "https://www.iryou.teikyouseido.mhlw.go.jp/znk-web/juminkanja/S2430/initialize?prefCd=08&kikanCd=108610022&kikanKbn=1", "url2": "http://www.gakuen-hospital.or.jp/", "内容": "一般財団法人筑波麓仁会筑波学園病院【1:病院】【診療科目:内科_血液内科_代謝内科_呼吸器内科_循環器内科_消化器内科_腎臓内科_神経内科_ペインクリニック内科_外科_脳神経外科_呼吸器外科_心臓血管外科_消化器外科_肛門外科_整形外科_形成外科_乳腺内分泌外科_小児科_産科_婦人科_婦人科（不妊治療）_眼科_耳鼻いんこう科_皮膚科_泌尿器科_精神科_心療内科_歯科口腔外科_リウマチ科_リハビリテーション科_放射線科_病理診断科_救急科_麻酔科】【一般病床数:295療養病床数:0精神病床数:0感染症病床数:3合計病床数:331】茨城県つくば市上横場２５７３－１" }, "geometry": { "type": "Point", "coordinates": [ 140.097619, 36.038251 ] } },
{ "type": "Feature", "properties": { "ID": 81108610048, "正式名称": "医療法人社団つくば健仁会　とよさと病院", "機関区分": 1, "都道府県コード": 8, "市区町村コード": 220, "所在地": "茨城県つくば市田倉４７２５", "緯度": 36.127455, "経度": 140.018402, "url": "https://www.iryou.teikyouseido.mhlw.go.jp/znk-web/juminkanja/S2430/initialize?prefCd=08&kikanCd=108610048&kikanKbn=1", "url2": "https://www.toyosato.jp/index.html", "内容": "医療法人社団つくば健仁会　とよさと病院【1:病院】【診療科目:精神科_心療内科】【一般病床数:0療養病床数:0精神病床数:256感染症病床数:0合計病床数:256】茨城県つくば市田倉４７２５" }, "geometry": { "type": "Point", "coordinates": [ 140.018402, 36.127455 ] } },
{ "type": "Feature", "properties": { "ID": 81108610077, "正式名称": "医療法人社団筑波記念会筑波記念病院", "機関区分": 1, "都道府県コード": 8, "市区町村コード": 220, "所在地": "茨城県つくば市要１１８７－２９９", "緯度": 36.107427, "経度": 140.080184, "url": "https://www.iryou.teikyouseido.mhlw.go.jp/znk-web/juminkanja/S2430/initialize?prefCd=08&kikanCd=108610077&kikanKbn=1", "url2": "http://www.tsukuba-kinen.or.jp/", "内容": "医療法人社団筑波記念会筑波記念病院【1:病院】【診療科目:内科_血液内科_糖尿病・代謝内科_呼吸器内科_循環器内科_消化器内科_神経内科_外科_脳神経外科_呼吸器外科_心臓血管外科_消化器外科_整形外科_形成外科_小児科_小児外科_小児泌尿器科_婦人科_眼科_耳鼻いんこう科_皮膚科_泌尿器科_精神科_アレルギー科_リウマチ科_リハビリテーション科_放射線科_病理診断科_救急科_麻酔科】【一般病床数:387療養病床数:100精神病床数:0感染症病床数:0合計病床数:487】茨城県つくば市要１１８７－２９９" }, "geometry": { "type": "Point", "coordinates": [ 140.080184, 36.107427 ] } },
{ "type": "Feature", "properties": { "ID": 81108610080, "正式名称": "医療法人恵仁会筑波中央病院", "機関区分": 1, "都道府県コード": 8, "市区町村コード": 220, "所在地": "茨城県つくば市北条５１１８", "緯度": 36.176692, "経度": 140.086304, "url": "https://www.iryou.teikyouseido.mhlw.go.jp/znk-web/juminkanja/S2430/initialize?prefCd=08&kikanCd=108610080&kikanKbn=1", "url2": "http://www.tsukuba-chuo.jp/", "内容": "医療法人恵仁会筑波中央病院【1:病院】【診療科目:内科_糖尿病内科_代謝・内分泌内科_呼吸器内科_循環器内科_消化器内科_神経内科_眼科_歯科_リハビリテーション科】【一般病床数:53療養病床数:43精神病床数:0感染症病床数:0合計病床数:96】茨城県つくば市北条５１１８" }, "geometry": { "type": "Point", "coordinates": [ 140.086304, 36.176692 ] } },
{ "type": "Feature", "properties": { "ID": 81108610093, "正式名称": "公益財団法人　筑波メディカルセンター　筑波メディカルセンター病院", "機関区分": 1, "都道府県コード": 8, "市区町村コード": 220, "所在地": "茨城県つくば市天久保", "緯度": 36.088889, "経度": 140.109444, "url": "https://www.iryou.teikyouseido.mhlw.go.jp/znk-web/juminkanja/S2430/initialize?prefCd=08&kikanCd=108610093&kikanKbn=1", "url2": "http://www.tmch.or.jp/hosp/index.html", "内容": "公益財団法人　筑波メディカルセンター　筑波メディカルセンター病院【1:病院】【診療科目:内科_呼吸器内科_循環器内科_消化器内科_外科_脳神経外科_整形外科_小児科_産婦人科_泌尿器科_神経科_麻酔科】【一般病床数:405療養病床数:0精神病床数:0感染症病床数:3合計病床数:408】茨城県つくば市天久保" }, "geometry": { "type": "Point", "coordinates": [ 140.109444, 36.088889 ] } },
{ "type": "Feature", "properties": { "ID": 81108610107, "正式名称": "医療法人社団筑三会筑波胃腸病院", "機関区分": 1, "都道府県コード": 8, "市区町村コード": 220, "所在地": "茨城県つくば市高見原１－２－３９", "緯度": 35.98735, "経度": 140.13868, "url": "https://www.iryou.teikyouseido.mhlw.go.jp/znk-web/juminkanja/S2430/initialize?prefCd=08&kikanCd=108610107&kikanKbn=1", "url2": "http://www.tsukubaichou.com", "内容": "医療法人社団筑三会筑波胃腸病院【1:病院】【診療科目:内科_消化器内科_腫瘍内科_内視鏡内科_外科_消化器外科_肛門外科_内視鏡外科_リハビリテーション科_麻酔科】【一般病床数:60療養病床数:0精神病床数:0感染症病床数:0合計病床数:60】茨城県つくば市高見原１－２－３９" }, "geometry": { "type": "Point", "coordinates": [ 140.13868, 35.98735 ] } },
{ "type": "Feature", "properties": { "ID": 81108610110, "正式名称": "医療法人社団桜水会　筑波病院", "機関区分": 1, "都道府県コード": 8, "市区町村コード": 220, "所在地": "茨城県つくば市大角豆１７６１", "緯度": 36.065833, "経度": 140.140278, "url": "https://www.iryou.teikyouseido.mhlw.go.jp/znk-web/juminkanja/S2430/initialize?prefCd=08&kikanCd=108610110&kikanKbn=1", "url2": "http://tsukuba-hospital.jp/", "内容": "医療法人社団桜水会　筑波病院【1:病院】【診療科目:内科_呼吸器内科_循環器内科_消化器内科_神経内科_外科_整形外科_眼科_皮膚科_リハビリテーション科】【一般病床数:199療養病床数:0精神病床数:0感染症病床数:0合計病床数:199】茨城県つくば市大角豆１７６１" }, "geometry": { "type": "Point", "coordinates": [ 140.140278, 36.065833 ] } },
{ "type": "Feature", "properties": { "ID": 81108610136, "正式名称": "医療法人健佑会いちはら病院", "機関区分": 1, "都道府県コード": 8, "市区町村コード": 220, "所在地": "茨城県つくば市大曽根３６８１", "緯度": 36.138991, "経度": 140.080405, "url": "https://www.iryou.teikyouseido.mhlw.go.jp/znk-web/juminkanja/S2430/initialize?prefCd=08&kikanCd=108610136&kikanKbn=1", "url2": "http://www.ichihara-hospital.or.jp", "内容": "医療法人健佑会いちはら病院【1:病院】【診療科目:内科_代謝内科_糖尿病・代謝内科_代謝・内分泌内科_脳神経内科_循環器内科_脳神経外科_整形外科_眼科_皮膚科_歯科_リウマチ科_リハビリテーション科_麻酔科】【一般病床数:85療養病床数:114精神病床数:0感染症病床数:0合計病床数:199】茨城県つくば市大曽根３６８１" }, "geometry": { "type": "Point", "coordinates": [ 140.080405, 36.138991 ] } },
{ "type": "Feature", "properties": { "ID": 81108610149, "正式名称": "医療法人社団双愛会つくば双愛病院", "機関区分": 1, "都道府県コード": 8, "市区町村コード": 220, "所在地": "茨城県つくば市高崎１００８", "緯度": 36.000556, "経度": 140.119167, "url": "https://www.iryou.teikyouseido.mhlw.go.jp/znk-web/juminkanja/S2430/initialize?prefCd=08&kikanCd=108610149&kikanKbn=1", "url2": "http://www.tsukuba-soai.com", "内容": "医療法人社団双愛会つくば双愛病院【1:病院】【診療科目:内科_血液内科_代謝内科_循環器内科_神経内科_外科_整形外科_眼科_皮膚科_泌尿器科_リウマチ科_リハビリテーション科_放射線科】【一般病床数:98療養病床数:78精神病床数:0感染症病床数:0合計病床数:176】茨城県つくば市高崎１００８" }, "geometry": { "type": "Point", "coordinates": [ 140.119167, 36.000556 ] } },
{ "type": "Feature", "properties": { "ID": 81108620025, "正式名称": "医療法人威恵会　　三岳荘小松崎病院", "機関区分": 1, "都道府県コード": 8, "市区町村コード": 227, "所在地": "茨城県筑西市中舘２２６５", "緯度": 36.327491, "経度": 139.97549, "url": "https://www.iryou.teikyouseido.mhlw.go.jp/znk-web/juminkanja/S2430/initialize?prefCd=08&kikanCd=108620025&kikanKbn=1", "url2": "http://www.sangakusou.or.jp/", "内容": "医療法人威恵会　　三岳荘小松崎病院【1:病院】【診療科目:内科_外科_小児科_耳鼻いんこう科_精神科_心療内科】【一般病床数:32療養病床数:0精神病床数:188感染症病床数:0合計病床数:220】茨城県筑西市中舘２２６５" }, "geometry": { "type": "Point", "coordinates": [ 139.97549, 36.327491 ] } },
{ "type": "Feature", "properties": { "ID": 81108620067, "正式名称": "医療法人社団平仁会　下館病院", "機関区分": 1, "都道府県コード": 8, "市区町村コード": 227, "所在地": "茨城県筑西市野殿１１３１", "緯度": 36.266389, "経度": 139.965, "url": "https://www.iryou.teikyouseido.mhlw.go.jp/znk-web/juminkanja/S2430/initialize?prefCd=08&kikanCd=108620067&kikanKbn=1", "url2": "http://www.shimodatehp.com/", "内容": "医療法人社団平仁会　下館病院【1:病院】【診療科目:精神科】【一般病床数:0療養病床数:0精神病床数:154感染症病床数:0合計病床数:154】茨城県筑西市野殿１１３１" }, "geometry": { "type": "Point", "coordinates": [ 139.965, 36.266389 ] } },
{ "type": "Feature", "properties": { "ID": 81108620100, "正式名称": "社会医療法人　達生堂　城西病院", "機関区分": 1, "都道府県コード": 8, "市区町村コード": 207, "所在地": "茨城県結城市結城１０７４５－２４", "緯度": 36.305828, "経度": 139.851434, "url": "https://www.iryou.teikyouseido.mhlw.go.jp/znk-web/juminkanja/S2430/initialize?prefCd=08&kikanCd=108620100&kikanKbn=1", "url2": "http://www.josai-hp.com/", "内容": "社会医療法人　達生堂　城西病院【1:病院】【診療科目:内科_循環器内科_神経内科_外科_脳神経外科_心臓血管外科_整形外科_美容外科_小児科_婦人科_眼科_耳鼻いんこう科_皮膚科_泌尿器科_歯科_歯科口腔外科_リハビリテーション科_麻酔科】【一般病床数:175療養病床数:86精神病床数:0感染症病床数:0合計病床数:261】茨城県結城市結城１０７４５－２４" }, "geometry": { "type": "Point", "coordinates": [ 139.851434, 36.305828 ] } },
{ "type": "Feature", "properties": { "ID": 81108620126, "正式名称": "大圃病院", "機関区分": 1, "都道府県コード": 8, "市区町村コード": 227, "所在地": "茨城県筑西市木戸３５２", "緯度": 36.240833, "経度": 139.983611, "url": "https://www.iryou.teikyouseido.mhlw.go.jp/znk-web/juminkanja/S2430/initialize?prefCd=08&kikanCd=108620126&kikanKbn=1", "url2": "https://ohata-hospital.jp/", "内容": "大圃病院【1:病院】【診療科目:内科_呼吸器内科_循環器内科_消化器内科_腎臓内科_人工透析内科_外科_脳神経外科_整形外科_小児科_皮膚科_リハビリテーション科_放射線科】【一般病床数:45療養病床数:128精神病床数:0感染症病床数:0合計病床数:173】茨城県筑西市木戸３５２" }, "geometry": { "type": "Point", "coordinates": [ 139.983611, 36.240833 ] } },
{ "type": "Feature", "properties": { "ID": 81108620168, "正式名称": "社会医療法人恒貴会協和中央病院", "機関区分": 1, "都道府県コード": 8, "市区町村コード": 227, "所在地": "茨城県筑西市門井１６７６－１", "緯度": 36.325278, "経度": 140.019722, "url": "https://www.iryou.teikyouseido.mhlw.go.jp/znk-web/juminkanja/S2430/initialize?prefCd=08&kikanCd=108620168&kikanKbn=1", "url2": "http://www.kokikai.com", "内容": "社会医療法人恒貴会協和中央病院【1:病院】【診療科目:内科_呼吸器内科_漢方内科_ペインクリニック内科_外科_脳神経外科_消化器外科_整形外科_小児科_皮膚科_泌尿器科_歯科_歯科口腔外科_リハビリテーション科_放射線科_麻酔科】【一般病床数:199療養病床数:0精神病床数:0感染症病床数:0合計病床数:199】茨城県筑西市門井１６７６－１" }, "geometry": { "type": "Point", "coordinates": [ 140.019722, 36.325278 ] } },
{ "type": "Feature", "properties": { "ID": 81108620201, "正式名称": "社会医療法人社団同樹会結城病院", "機関区分": 1, "都道府県コード": 8, "市区町村コード": 207, "所在地": "茨城県結城市結城西繁昌塚９６２９番１", "緯度": 36.286111, "経度": 139.8575, "url": "https://www.iryou.teikyouseido.mhlw.go.jp/znk-web/juminkanja/S2430/initialize?prefCd=08&kikanCd=108620201&kikanKbn=1", "url2": "http://www.yuki.or.jp/topics/topics.html", "内容": "社会医療法人社団同樹会結城病院【1:病院】【診療科目:内科_内分泌内科_呼吸器内科_循環器内科_消化器内科_神経内科_外科_脳神経外科_乳腺外科_女性乳腺外科_ペインクリニック外科_整形外科_形成外科_小児科_皮膚科_泌尿器科_リウマチ科_リハビリテーション科】【一般病床数:88療養病床数:106精神病床数:0感染症病床数:0合計病床数:194】茨城県結城市結城西繁昌塚９６２９番１" }, "geometry": { "type": "Point", "coordinates": [ 139.8575, 36.286111 ] } },
{ "type": "Feature", "properties": { "ID": 81108620214, "正式名称": "茨城県西部メディカルセンター", "機関区分": 1, "都道府県コード": 8, "市区町村コード": 227, "所在地": "茨城県筑西市大塚５５５番地", "緯度": 36.289561, "経度": 140.010325, "url": "https://www.iryou.teikyouseido.mhlw.go.jp/znk-web/juminkanja/S2430/initialize?prefCd=08&kikanCd=108620214&kikanKbn=1", "url2": "http://www.iwmo.or.jp/", "内容": "茨城県西部メディカルセンター【1:病院】【診療科目:内科_外科_脳神経外科_整形外科_形成外科_小児科_小児外科_婦人科_眼科_耳鼻いんこう科_皮膚科_泌尿器科_リハビリテーション科_放射線科_救急科_麻酔科】【一般病床数:250療養病床数:0精神病床数:0感染症病床数:1合計病床数:251】茨城県筑西市大塚５５５番地" }, "geometry": { "type": "Point", "coordinates": [ 140.010325, 36.289561 ] } },
{ "type": "Feature", "properties": { "ID": 81108620227, "正式名称": "さくらがわ地域医療センター", "機関区分": 1, "都道府県コード": 8, "市区町村コード": 231, "所在地": "茨城県桜川市高森１０００", "緯度": 36.343889, "経度": 140.075556, "url": "https://www.iryou.teikyouseido.mhlw.go.jp/znk-web/juminkanja/S2430/initialize?prefCd=08&kikanCd=108620227&kikanKbn=1", "url2": "http://www.sakuragawa-mc.jp", "内容": "さくらがわ地域医療センター【1:病院】【診療科目:内科_外科_整形外科_小児科_婦人科_眼科_耳鼻いんこう科_皮膚科_泌尿器科_麻酔科】【一般病床数:80療養病床数:48精神病床数:0感染症病床数:0合計病床数:128】茨城県桜川市高森１０００" }, "geometry": { "type": "Point", "coordinates": [ 140.075556, 36.343889 ] } },
{ "type": "Feature", "properties": { "ID": 81108630044, "正式名称": "医療法人光潤会平間病院", "機関区分": 1, "都道府県コード": 8, "市区町村コード": 210, "所在地": "茨城県下妻市江２０５１番地", "緯度": 36.224167, "経度": 139.937222, "url": "https://www.iryou.teikyouseido.mhlw.go.jp/znk-web/juminkanja/S2430/initialize?prefCd=08&kikanCd=108630044&kikanKbn=1", "url2": "http://www.hirama-byouin.or.jp", "内容": "医療法人光潤会平間病院【1:病院】【診療科目:内科_糖尿病内科_内分泌内科_呼吸器内科_循環器内科_消化器内科_胃腸内科_内視鏡内科_外科_脳神経外科_消化器外科_肛門外科_整形外科_皮膚科_泌尿器科】【一般病床数:37療養病床数:38精神病床数:0感染症病床数:0合計病床数:75】茨城県下妻市江２０５１番地" }, "geometry": { "type": "Point", "coordinates": [ 139.937222, 36.224167 ] } },
{ "type": "Feature", "properties": { "ID": 81108630073, "正式名称": "医療法人八千代会八千代病院", "機関区分": 1, "都道府県コード": 8, "市区町村コード": 521, "所在地": "茨城県結城郡八千代町栗山２３８", "緯度": 36.15166, "経度": 139.905378, "url": "https://www.iryou.teikyouseido.mhlw.go.jp/znk-web/juminkanja/S2430/initialize?prefCd=08&kikanCd=108630073&kikanKbn=1", "url2": "http://www.yachiyo-mc.jp", "内容": "医療法人八千代会八千代病院【1:病院】【診療科目:内科_呼吸器内科_循環器内科_外科_消化器外科_肛門外科】【一般病床数:0療養病床数:55精神病床数:0感染症病床数:0合計病床数:55】茨城県結城郡八千代町栗山２３８" }, "geometry": { "type": "Point", "coordinates": [ 139.905378, 36.15166 ] } },
{ "type": "Feature", "properties": { "ID": 81108640050, "正式名称": "医療法人三星会　茨城リハビリテーション病院", "機関区分": 1, "都道府県コード": 8, "市区町村コード": 224, "所在地": "茨城県守谷市同地字仲山３６０", "緯度": 35.950278, "経度": 140.020556, "url": "https://www.iryou.teikyouseido.mhlw.go.jp/znk-web/juminkanja/S2430/initialize?prefCd=08&kikanCd=108640050&kikanKbn=1", "url2": "https://ymg-irh.jp/", "内容": "医療法人三星会　茨城リハビリテーション病院【1:病院】【診療科目:内科_神経内科_脳神経外科_整形外科_リハビリテーション科】【一般病床数:106療養病床数:72精神病床数:0感染症病床数:0合計病床数:178】茨城県守谷市同地字仲山３６０" }, "geometry": { "type": "Point", "coordinates": [ 140.020556, 35.950278 ] } },
{ "type": "Feature", "properties": { "ID": 81108640063, "正式名称": "医療法人寛正会水海道さくら病院", "機関区分": 1, "都道府県コード": 8, "市区町村コード": 211, "所在地": "茨城県常総市水海道森下町４４４７", "緯度": 36.033673, "経度": 139.990347, "url": "https://www.iryou.teikyouseido.mhlw.go.jp/znk-web/juminkanja/S2430/initialize?prefCd=08&kikanCd=108640063&kikanKbn=1", "url2": "https://www.msakura-hp.com/", "内容": "医療法人寛正会水海道さくら病院【1:病院】【診療科目:内科_血液内科_呼吸器内科_循環器内科_消化器内科_腎臓内科_人工透析内科_外科_消化器外科_肛門外科_整形外科_泌尿器科_リハビリテーション科_放射線科】【一般病床数:60療養病床数:28精神病床数:0感染症病床数:0合計病床数:88】茨城県常総市水海道森下町４４４７" }, "geometry": { "type": "Point", "coordinates": [ 139.990347, 36.033673 ] } },
{ "type": "Feature", "properties": { "ID": 81108640076, "正式名称": "医療法人楽生会木根淵外科胃腸科病院", "機関区分": 1, "都道府県コード": 8, "市区町村コード": 228, "所在地": "茨城県坂東市辺田１４３０－１", "緯度": 36.044089, "経度": 139.896206, "url": "https://www.iryou.teikyouseido.mhlw.go.jp/znk-web/juminkanja/S2430/initialize?prefCd=08&kikanCd=108640076&kikanKbn=1", "url2": "http://kine.jp/hospital/", "内容": "医療法人楽生会木根淵外科胃腸科病院【1:病院】【診療科目:内科_外科_呼吸器外科_消化器外科_乳腺外科_形成外科_小児科_皮膚科_泌尿器科_精神科_心療内科_放射線科】【一般病床数:68療養病床数:0精神病床数:0感染症病床数:0合計病床数:68】茨城県坂東市辺田１４３０－１" }, "geometry": { "type": "Point", "coordinates": [ 139.896206, 36.044089 ] } },
{ "type": "Feature", "properties": { "ID": 81108640089, "正式名称": "きぬ医師会病院", "機関区分": 1, "都道府県コード": 8, "市区町村コード": 211, "所在地": "茨城県常総市新井木町１３番地３", "緯度": 36.025354, "経度": 139.998356, "url": "https://www.iryou.teikyouseido.mhlw.go.jp/znk-web/juminkanja/S2430/initialize?prefCd=08&kikanCd=108640089&kikanKbn=1", "url2": "http://www.kinunet.or.jp/", "内容": "きぬ医師会病院【1:病院】【診療科目:内科_外科_脳神経外科_乳腺・内分泌外科_整形外科_小児科_婦人科_眼科_皮膚科_リハビリテーション科_放射線科_麻酔科】【一般病床数:124療養病床数:0精神病床数:0感染症病床数:0合計病床数:124】茨城県常総市新井木町１３番地３" }, "geometry": { "type": "Point", "coordinates": [ 139.998356, 36.025354 ] } },
{ "type": "Feature", "properties": { "ID": 81108640092, "正式名称": "医療法人慶友会守谷慶友病院", "機関区分": 1, "都道府県コード": 8, "市区町村コード": 224, "所在地": "茨城県守谷市立沢９８０－１", "緯度": 35.950278, "経度": 139.981667, "url": "https://www.iryou.teikyouseido.mhlw.go.jp/znk-web/juminkanja/S2430/initialize?prefCd=08&kikanCd=108640092&kikanKbn=1", "url2": "http://www.keiyu.or.jp", "内容": "医療法人慶友会守谷慶友病院【1:病院】【診療科目:内科_糖尿病内科_呼吸器内科_循環器内科_消化器内科_腎臓内科_人工透析内科_神経内科_内視鏡内科_外科_脳神経外科_脳・血管外科_呼吸器外科_血管外科_乳腺外科_肛門外科_内視鏡外科_整形外科_頭頸部・耳鼻いんこう科_泌尿器科_リウマチ科】【一般病床数:178療養病床数:0精神病床数:0感染症病床数:0合計病床数:178】茨城県守谷市立沢９８０－１" }, "geometry": { "type": "Point", "coordinates": [ 139.981667, 35.950278 ] } },
{ "type": "Feature", "properties": { "ID": 81108640106, "正式名称": "医療法人研西会水海道西部病院", "機関区分": 1, "都道府県コード": 8, "市区町村コード": 211, "所在地": "茨城県常総市豊岡町丙６８５", "緯度": 36.028307, "経度": 139.967466, "url": "https://www.iryou.teikyouseido.mhlw.go.jp/znk-web/juminkanja/S2430/initialize?prefCd=08&kikanCd=108640106&kikanKbn=1", "url2": "mitsukaidoseibu.com", "内容": "医療法人研西会水海道西部病院【1:病院】【診療科目:内科_呼吸器内科_循環器内科_胃腸内科_外科_脳神経外科_肛門外科_整形外科_皮膚科_リハビリテーション科】【一般病床数:52療養病床数:68精神病床数:0感染症病床数:0合計病床数:120】茨城県常総市豊岡町丙６８５" }, "geometry": { "type": "Point", "coordinates": [ 139.967466, 36.028307 ] } },
{ "type": "Feature", "properties": { "ID": 81108640119, "正式名称": "社会医療法人社団光仁会総合守谷第一病院", "機関区分": 1, "都道府県コード": 8, "市区町村コード": 224, "所在地": "茨城県守谷市松前台１－１７", "緯度": 35.967289, "経度": 139.966887, "url": "https://www.iryou.teikyouseido.mhlw.go.jp/znk-web/juminkanja/S2430/initialize?prefCd=08&kikanCd=108640119&kikanKbn=1", "url2": "https://www.moriya.daiichi.or.jp", "内容": "社会医療法人社団光仁会総合守谷第一病院【1:病院】【診療科目:内科_呼吸器内科_循環器内科_消化器内科_神経内科_外科_脳神経外科_整形外科_形成外科_小児科_産科_婦人科_眼科_耳鼻いんこう科_皮膚科_泌尿器科_心療内科_アレルギー科_麻酔科】【一般病床数:199療養病床数:0精神病床数:0感染症病床数:0合計病床数:199】茨城県守谷市松前台１－１７" }, "geometry": { "type": "Point", "coordinates": [ 139.966887, 35.967289 ] } },
{ "type": "Feature", "properties": { "ID": 81108640122, "正式名称": "軽部病院", "機関区分": 1, "都道府県コード": 8, "市区町村コード": 210, "所在地": "茨城県下妻市下妻乙３９８－１", "緯度": 36.175556, "経度": 139.963889, "url": "https://www.iryou.teikyouseido.mhlw.go.jp/znk-web/juminkanja/S2430/initialize?prefCd=08&kikanCd=108640122&kikanKbn=1", "url2": "http://www.myclinic.ne.jp/karube_hp/", "内容": "軽部病院【1:病院】【診療科目:内科_外科_整形外科_小児科_リハビリテーション科_放射線科】【一般病床数:15療養病床数:20精神病床数:0感染症病床数:0合計病床数:35】茨城県下妻市下妻乙３９８－１" }, "geometry": { "type": "Point", "coordinates": [ 139.963889, 36.175556 ] } },
{ "type": "Feature", "properties": { "ID": 81108640135, "正式名称": "水海道厚生病院", "機関区分": 1, "都道府県コード": 8, "市区町村コード": 211, "所在地": "茨城県常総市内守谷町３７７０－７", "緯度": 35.990107, "経度": 139.947023, "url": "https://www.iryou.teikyouseido.mhlw.go.jp/znk-web/juminkanja/S2430/initialize?prefCd=08&kikanCd=108640135&kikanKbn=1", "url2": "http://www.mitsukaidokosei-hp.or.jp", "内容": "水海道厚生病院【1:病院】【診療科目:精神科】【一般病床数:0療養病床数:0精神病床数:219感染症病床数:0合計病床数:219】茨城県常総市内守谷町３７７０－７" }, "geometry": { "type": "Point", "coordinates": [ 139.947023, 35.990107 ] } },
{ "type": "Feature", "properties": { "ID": 81108650095, "正式名称": "医療法人共助会猿島厚生病院", "機関区分": 1, "都道府県コード": 8, "市区町村コード": 204, "所在地": "茨城県古河市西牛谷７３７", "緯度": 36.20014, "経度": 139.738023, "url": "https://www.iryou.teikyouseido.mhlw.go.jp/znk-web/juminkanja/S2430/initialize?prefCd=08&kikanCd=108650095&kikanKbn=1", "url2": "http://www.sashima-hp.com/", "内容": "医療法人共助会猿島厚生病院【1:病院】【診療科目:内科_神経内科_精神科】【一般病床数:0療養病床数:0精神病床数:235感染症病床数:0合計病床数:235】茨城県古河市西牛谷７３７" }, "geometry": { "type": "Point", "coordinates": [ 139.738023, 36.20014 ] } },
{ "type": "Feature", "properties": { "ID": 81108650138, "正式名称": "ホスピタル坂東", "機関区分": 1, "都道府県コード": 8, "市区町村コード": 228, "所在地": "茨城県坂東市沓掛４１１", "緯度": 36.088056, "経度": 139.899444, "url": "https://www.iryou.teikyouseido.mhlw.go.jp/znk-web/juminkanja/S2430/initialize?prefCd=08&kikanCd=108650138&kikanKbn=1", "url2": "http://www.hp-bando.jp/", "内容": "ホスピタル坂東【1:病院】【診療科目:内科_呼吸器内科_循環器内科_消化器内科_神経内科_外科_脳神経外科_整形外科_皮膚科_精神科_歯科口腔外科_リハビリテーション科】【一般病床数:70療養病床数:50精神病床数:350感染症病床数:0合計病床数:470】茨城県坂東市沓掛４１１" }, "geometry": { "type": "Point", "coordinates": [ 139.899444, 36.088056 ] } },
{ "type": "Feature", "properties": { "ID": 81108650154, "正式名称": "茨城西南医療センター病院", "機関区分": 1, "都道府県コード": 8, "市区町村コード": 546, "所在地": "茨城県猿島郡境町２１９０", "緯度": 36.108415, "経度": 139.795031, "url": "https://www.iryou.teikyouseido.mhlw.go.jp/znk-web/juminkanja/S2430/initialize?prefCd=08&kikanCd=108650154&kikanKbn=1", "url2": "https://seinan-mch.or.jp/", "内容": "茨城西南医療センター病院【1:病院】【診療科目:内科_呼吸器内科_循環器内科_消化器内科_腎臓内科_神経内科_外科_脳神経外科_呼吸器外科_心臓血管外科_消化器外科_整形外科_形成外科_小児科_小児外科_産婦人科_眼科_頭頸部・耳鼻いんこう科_皮膚科_泌尿器科_リウマチ科_リハビリテーション科_放射線診断科_放射線治療科_病理診断科_救急科_麻酔科】【一般病床数:356療養病床数:0精神病床数:0感染症病床数:2合計病床数:358】茨城県猿島郡境町２１９０" }, "geometry": { "type": "Point", "coordinates": [ 139.795031, 36.108415 ] } },
{ "type": "Feature", "properties": { "ID": 81108650170, "正式名称": "総和中央病院", "機関区分": 1, "都道府県コード": 8, "市区町村コード": 204, "所在地": "茨城県古河市駒羽根８２５番地１", "緯度": 36.164134, "経度": 139.760168, "url": "https://www.iryou.teikyouseido.mhlw.go.jp/znk-web/juminkanja/S2430/initialize?prefCd=08&kikanCd=108650170&kikanKbn=1", "url2": "http://www.sowa-chuo.com", "内容": "総和中央病院【1:病院】【診療科目:内科_神経内科_外科_整形外科_小児科_皮膚科_リウマチ科_リハビリテーション科】【一般病床数:53療養病床数:60精神病床数:0感染症病床数:0合計病床数:113】茨城県古河市駒羽根８２５番地１" }, "geometry": { "type": "Point", "coordinates": [ 139.760168, 36.164134 ] } },
{ "type": "Feature", "properties": { "ID": 81108650200, "正式名称": "医療法人慈政会小柳病院", "機関区分": 1, "都道府県コード": 8, "市区町村コード": 204, "所在地": "茨城県古河市稲宮１００１", "緯度": 36.18504, "経度": 139.781765, "url": "https://www.iryou.teikyouseido.mhlw.go.jp/znk-web/juminkanja/S2430/initialize?prefCd=08&kikanCd=108650200&kikanKbn=1", "url2": "http://www.jiseikai.net/", "内容": "医療法人慈政会小柳病院【1:病院】【診療科目:内科_精神科】【一般病床数:0療養病床数:54精神病床数:414感染症病床数:0合計病床数:468】茨城県古河市稲宮１００１" }, "geometry": { "type": "Point", "coordinates": [ 139.781765, 36.18504 ] } },
{ "type": "Feature", "properties": { "ID": 81108650213, "正式名称": "医療法人徳洲会　古河総合病院", "機関区分": 1, "都道府県コード": 8, "市区町村コード": 204, "所在地": "茨城県古河市鴻巣１５５５", "緯度": 36.171713, "経度": 139.706814, "url": "https://www.iryou.teikyouseido.mhlw.go.jp/znk-web/juminkanja/S2430/initialize?prefCd=08&kikanCd=108650213&kikanKbn=1", "url2": "https://www.kogahosp.jp", "内容": "医療法人徳洲会　古河総合病院【1:病院】【診療科目:内科_糖尿病内科_循環器内科_消化器内科_神経内科_外科_脳神経外科_心臓血管外科_整形外科_形成外科_小児科_婦人科_眼科_耳鼻いんこう科_皮膚科_泌尿器科_歯科口腔外科_リハビリテーション科_放射線科_麻酔科】【一般病床数:180療養病床数:54精神病床数:0感染症病床数:0合計病床数:234】茨城県古河市鴻巣１５５５" }, "geometry": { "type": "Point", "coordinates": [ 139.706814, 36.171713 ] } },
{ "type": "Feature", "properties": { "ID": 81108650226, "正式名称": "友愛記念病院", "機関区分": 1, "都道府県コード": 8, "市区町村コード": 204, "所在地": "茨城県古河市東牛谷", "緯度": 36.204722, "経度": 139.748056, "url": "https://www.iryou.teikyouseido.mhlw.go.jp/znk-web/juminkanja/S2430/initialize?prefCd=08&kikanCd=108650226&kikanKbn=1", "url2": "http://www.yuai-hosp-jp.org/", "内容": "友愛記念病院【1:病院】【診療科目:内科_血液内科_糖尿病内科_呼吸器内科_循環器内科_消化器内科_肝臓内科_緩和ケア内科_外科_脳神経外科_呼吸器外科_血管外科_心臓血管外科_消化器外科_乳腺外科_肛門外科_整形外科_形成外科_小児科_小児外科_婦人科_眼科_皮膚科_泌尿器科_リハビリテーション科_放射線科_放射線診断科_放射線治療科_病理診断科_救急科_麻酔科】【一般病床数:301療養病床数:0精神病床数:0感染症病床数:0合計病床数:301】茨城県古河市東牛谷" }, "geometry": { "type": "Point", "coordinates": [ 139.748056, 36.204722 ] } },
{ "type": "Feature", "properties": { "ID": 81108650239, "正式名称": "古河赤十字病院", "機関区分": 1, "都道府県コード": 8, "市区町村コード": 204, "所在地": "茨城県古河市下山町１１５０", "緯度": 36.18792, "経度": 139.723007, "url": "https://www.iryou.teikyouseido.mhlw.go.jp/znk-web/juminkanja/S2430/initialize?prefCd=08&kikanCd=108650239&kikanKbn=1", "url2": "http://www.koga.jrc.or.jp/", "内容": "古河赤十字病院【1:病院】【診療科目:内科_血液内科_糖尿病・内分泌内科_呼吸器内科_循環器内科_消化器内科_腎臓内科_人工透析内科_神経内科_アレルギー疾患内科_外科_脳神経外科_心臓血管外科_消化器外科_乳腺外科_肛門外科_整形外科_形成外科_小児科_婦人科_眼科_耳鼻いんこう科_皮膚科_泌尿器科_リハビリテーション科_病理診断科_麻酔科】【一般病床数:198療養病床数:0精神病床数:0感染症病床数:2合計病床数:200】茨城県古河市下山町１１５０" }, "geometry": { "type": "Point", "coordinates": [ 139.723007, 36.18792 ] } },
{ "type": "Feature", "properties": { "ID": 81108650242, "正式名称": "医療法人つるみ　つるみ脳神経病院", "機関区分": 1, "都道府県コード": 8, "市区町村コード": 204, "所在地": "茨城県古河市上片田８１３", "緯度": 36.216515, "経度": 139.79254, "url": "https://www.iryou.teikyouseido.mhlw.go.jp/znk-web/juminkanja/S2430/initialize?prefCd=08&kikanCd=108650242&kikanKbn=1", "url2": "https://tsurumihospital.com/", "内容": "医療法人つるみ　つるみ脳神経病院【1:病院】【診療科目:内科_脳神経内科_脳神経外科_眼科_リハビリテーション科_放射線科_救急科】【一般病床数:29療養病床数:0精神病床数:0感染症病床数:0合計病床数:29】茨城県古河市上片田８１３" }, "geometry": { "type": "Point", "coordinates": [ 139.79254, 36.216515 ] } },
{ "type": "Feature", "properties": { "ID": 81108660030, "正式名称": "株式会社日立製作所ひたちなか総合病院", "機関区分": 1, "都道府県コード": 8, "市区町村コード": 221, "所在地": "茨城県ひたちなか市石川町２０番１", "緯度": 36.392837, "経度": 140.529491, "url": "https://www.iryou.teikyouseido.mhlw.go.jp/znk-web/juminkanja/S2430/initialize?prefCd=08&kikanCd=108660030&kikanKbn=1", "url2": "http://www.hitachi.co.jp/hospital/hitachinaka/index.html", "内容": "株式会社日立製作所ひたちなか総合病院【1:病院】【診療科目:内科_感染症内科_血液内科_糖尿病内科_代謝内科_内分泌内科_糖尿病・内分泌内科_呼吸器内科_循環器内科_消化器内科_腎臓内科_神経内科_腫瘍内科_老年内科_外科_脳神経外科_呼吸器外科_心臓血管外科_消化器外科_乳腺外科_整形外科_形成外科_小児科_婦人科_眼科_耳鼻いんこう科_皮膚科_泌尿器科_精神科_心療内科_歯科口腔外科_アレルギー科_リウマチ科_リハビリテーション科_放射線科_放射線治療科_病理診断科_臨床検査科_救急科_麻酔科】【一般病床数:300療養病床数:0精神病床数:0感染症病床数:2合計病床数:302】茨城県ひたちなか市石川町２０番１" }, "geometry": { "type": "Point", "coordinates": [ 140.529491, 36.392837 ] } },
{ "type": "Feature", "properties": { "ID": 81108660085, "正式名称": "医療法人加瀬病院", "機関区分": 1, "都道府県コード": 8, "市区町村コード": 221, "所在地": "茨城県ひたちなか市市毛８３５", "緯度": 36.401006, "経度": 140.506428, "url": "https://www.iryou.teikyouseido.mhlw.go.jp/znk-web/juminkanja/S2430/initialize?prefCd=08&kikanCd=108660085&kikanKbn=1", "url2": "http://www.kasehp.jp/", "内容": "医療法人加瀬病院【1:病院】【診療科目:小児科_産婦人科】【一般病床数:30療養病床数:0精神病床数:0感染症病床数:0合計病床数:30】茨城県ひたちなか市市毛８３５" }, "geometry": { "type": "Point", "coordinates": [ 140.506428, 36.401006 ] } },
{ "type": "Feature", "properties": { "ID": 81108660128, "正式名称": "医療法人碧水会汐ヶ崎病院", "機関区分": 1, "都道府県コード": 8, "市区町村コード": 201, "所在地": "茨城県水戸市大串町７１５番地", "緯度": 36.332957, "経度": 140.539103, "url": "https://www.iryou.teikyouseido.mhlw.go.jp/znk-web/juminkanja/S2430/initialize?prefCd=08&kikanCd=108660128&kikanKbn=1", "url2": "https://shiogasaki.net", "内容": "医療法人碧水会汐ヶ崎病院【1:病院】【診療科目:内科_精神科_心療内科_歯科】【一般病床数:0療養病床数:0精神病床数:178感染症病床数:0合計病床数:178】茨城県水戸市大串町７１５番地" }, "geometry": { "type": "Point", "coordinates": [ 140.539103, 36.332957 ] } },
{ "type": "Feature", "properties": { "ID": 81108660131, "正式名称": "医療法人渡辺会大洗海岸病院", "機関区分": 1, "都道府県コード": 8, "市区町村コード": 309, "所在地": "茨城県東茨城郡大洗町大貫町９１５", "緯度": 36.301591, "経度": 140.558781, "url": "https://www.iryou.teikyouseido.mhlw.go.jp/znk-web/juminkanja/S2430/initialize?prefCd=08&kikanCd=108660131&kikanKbn=1", "url2": "http://www.watanabekai.net", "内容": "医療法人渡辺会大洗海岸病院【1:病院】【診療科目:内科_呼吸器内科_循環器内科_内視鏡内科_外科_整形外科_泌尿器科_リハビリテーション科_放射線科_麻酔科】【一般病床数:142療養病床数:0精神病床数:0感染症病床数:0合計病床数:142】茨城県東茨城郡大洗町大貫町９１５" }, "geometry": { "type": "Point", "coordinates": [ 140.558781, 36.301591 ] } },
{ "type": "Feature", "properties": { "ID": 81108660160, "正式名称": "独立行政法人国立病院機構茨城東病院", "機関区分": 1, "都道府県コード": 8, "市区町村コード": 341, "所在地": "茨城県那珂郡東海村照沼８２５", "緯度": 36.43764, "経度": 140.595202, "url": "https://www.iryou.teikyouseido.mhlw.go.jp/znk-web/juminkanja/S2430/initialize?prefCd=08&kikanCd=108660160&kikanKbn=1", "url2": "https://ibarakihigashi.hosp.go.jp/", "内容": "独立行政法人国立病院機構茨城東病院【1:病院】【診療科目:内科_呼吸器内科_循環器内科_消化器内科_外科_脳神経外科_呼吸器外科_小児科_歯科_リハビリテーション科_放射線科_病理診断科_麻酔科】【一般病床数:320療養病床数:0精神病床数:0感染症病床数:0合計病床数:320】茨城県那珂郡東海村照沼８２５" }, "geometry": { "type": "Point", "coordinates": [ 140.595202, 36.43764 ] } },
{ "type": "Feature", "properties": { "ID": 81108660186, "正式名称": "村立東海病院", "機関区分": 1, "都道府県コード": 8, "市区町村コード": 341, "所在地": "茨城県那珂郡東海村村松２０８１－２", "緯度": 36.455556, "経度": 140.5775, "url": "https://www.iryou.teikyouseido.mhlw.go.jp/znk-web/juminkanja/S2430/initialize?prefCd=08&kikanCd=108660186&kikanKbn=1", "url2": "https://www.tokai-hp.jp/", "内容": "村立東海病院【1:病院】【診療科目:内科_外科_整形外科_小児科_婦人科_耳鼻いんこう科_リハビリテーション科】【一般病床数:40療養病床数:40精神病床数:0感染症病床数:0合計病床数:80】茨城県那珂郡東海村村松２０８１－２" }, "geometry": { "type": "Point", "coordinates": [ 140.5775, 36.455556 ] } },
{ "type": "Feature", "properties": { "ID": 81108660229, "正式名称": "勝田病院", "機関区分": 1, "都道府県コード": 8, "市区町村コード": 221, "所在地": "茨城県ひたちなか市中根５１２５－２", "緯度": 36.384973, "経度": 140.544858, "url": "https://www.iryou.teikyouseido.mhlw.go.jp/znk-web/juminkanja/S2430/initialize?prefCd=08&kikanCd=108660229&kikanKbn=1", "url2": "http://katsuta-aiyukai.jp", "内容": "勝田病院【1:病院】【診療科目:内科_脳神経内科_呼吸器内科_循環器内科_消化器内科_腎臓内科_外科_脳神経外科_肛門外科_整形外科_皮膚科_リハビリテーション科_麻酔科】【一般病床数:54療養病床数:31精神病床数:0感染症病床数:0合計病床数:85】茨城県ひたちなか市中根５１２５－２" }, "geometry": { "type": "Point", "coordinates": [ 140.544858, 36.384973 ] } },
{ "type": "Feature", "properties": { "ID": 81108660232, "正式名称": "医療法人蔦会アイビークリニック", "機関区分": 1, "都道府県コード": 8, "市区町村コード": 221, "所在地": "茨城県ひたちなか市笹野町１－３－１", "緯度": 36.3951, "経度": 140.541208, "url": "https://www.iryou.teikyouseido.mhlw.go.jp/znk-web/juminkanja/S2430/initialize?prefCd=08&kikanCd=108660232&kikanKbn=1", "url2": "http://www.ivy-ichigo.com", "内容": "医療法人蔦会アイビークリニック【1:病院】【診療科目:内科_外科_心臓血管外科_整形外科_リハビリテーション科】【一般病床数:31療養病床数:24精神病床数:0感染症病床数:0合計病床数:55】茨城県ひたちなか市笹野町１－３－１" }, "geometry": { "type": "Point", "coordinates": [ 140.541208, 36.3951 ] } },
{ "type": "Feature", "properties": { "ID": 81108670020, "正式名称": "医療法人久仁会久保田病院", "機関区分": 1, "都道府県コード": 8, "市区町村コード": 364, "所在地": "茨城県久慈郡大子町大子７９９", "緯度": 36.770011, "経度": 140.355796, "url": "https://www.iryou.teikyouseido.mhlw.go.jp/znk-web/juminkanja/S2430/initialize?prefCd=08&kikanCd=108670020&kikanKbn=1", "url2": "kubota-hospital.com", "内容": "医療法人久仁会久保田病院【1:病院】【診療科目:内科_消化器内科_外科_整形外科_皮膚科_泌尿器科_麻酔科】【一般病床数:53療養病床数:0精神病床数:0感染症病床数:0合計病床数:49】茨城県久慈郡大子町大子７９９" }, "geometry": { "type": "Point", "coordinates": [ 140.355796, 36.770011 ] } },
{ "type": "Feature", "properties": { "ID": 81108670059, "正式名称": "医療法人直志会　袋田病院", "機関区分": 1, "都道府県コード": 8, "市区町村コード": 364, "所在地": "茨城県久慈郡大子町北田気７６", "緯度": 36.765539, "経度": 140.373812, "url": "https://www.iryou.teikyouseido.mhlw.go.jp/znk-web/juminkanja/S2430/initialize?prefCd=08&kikanCd=108670059&kikanKbn=1", "url2": "https://www.fukuroda-hp.jp", "内容": "医療法人直志会　袋田病院【1:病院】【診療科目:内科_精神科_神経科】【一般病床数:0療養病床数:0精神病床数:120感染症病床数:0合計病床数:120】茨城県久慈郡大子町北田気７６" }, "geometry": { "type": "Point", "coordinates": [ 140.373812, 36.765539 ] } },
{ "type": "Feature", "properties": { "ID": 81108670062, "正式名称": "慈泉堂病院", "機関区分": 1, "都道府県コード": 8, "市区町村コード": 364, "所在地": "茨城県久慈郡大子町大子８５６－１", "緯度": 36.769558, "経度": 140.354003, "url": "https://www.iryou.teikyouseido.mhlw.go.jp/znk-web/juminkanja/S2430/initialize?prefCd=08&kikanCd=108670062&kikanKbn=1", "url2": "https://www.jisendou-byouin.com/", "内容": "慈泉堂病院【1:病院】【診療科目:内科_外科_胃腸外科_肛門外科_整形外科_小児科_婦人科_眼科_耳鼻いんこう科_泌尿器科_リハビリテーション科_麻酔科】【一般病床数:48療養病床数:0精神病床数:0感染症病床数:0合計病床数:48】茨城県久慈郡大子町大子８５６－１" }, "geometry": { "type": "Point", "coordinates": [ 140.354003, 36.769558 ] } },
{ "type": "Feature", "properties": { "ID": 81108680065, "正式名称": "医療法人芳医会瀧病院", "機関区分": 1, "都道府県コード": 8, "市区町村コード": 215, "所在地": "茨城県北茨城市磯原町磯原２丁目３０５番地", "緯度": 36.790739, "経度": 140.74004, "url": "https://www.iryou.teikyouseido.mhlw.go.jp/znk-web/juminkanja/S2430/initialize?prefCd=08&kikanCd=108680065&kikanKbn=1", "url2": "https://www.taki-hosp.net/", "内容": "医療法人芳医会瀧病院【1:病院】【診療科目:内科_呼吸器内科_外科_整形外科_泌尿器科】【一般病床数:38療養病床数:38精神病床数:0感染症病床数:0合計病床数:76】茨城県北茨城市磯原町磯原２丁目３０５番地" }, "geometry": { "type": "Point", "coordinates": [ 140.74004, 36.790739 ] } },
{ "type": "Feature", "properties": { "ID": 81108680078, "正式名称": "廣橋病院", "機関区分": 1, "都道府県コード": 8, "市区町村コード": 215, "所在地": "茨城県北茨城市関本町福田１８７１", "緯度": 36.853146, "経度": 140.762165, "url": "https://www.iryou.teikyouseido.mhlw.go.jp/znk-web/juminkanja/S2430/initialize?prefCd=08&kikanCd=108680078&kikanKbn=1", "url2": "http://www.sei-hirohashi.jp/second/", "内容": "廣橋病院【1:病院】【診療科目:内科_神経内科_精神科】【一般病床数:0療養病床数:60精神病床数:121感染症病床数:0合計病床数:181】茨城県北茨城市関本町福田１８７１" }, "geometry": { "type": "Point", "coordinates": [ 140.762165, 36.853146 ] } },
{ "type": "Feature", "properties": { "ID": 81108680094, "正式名称": "医療法人愛正会やすらぎの丘温泉病院", "機関区分": 1, "都道府県コード": 8, "市区町村コード": 214, "所在地": "茨城県高萩市下手綱１９５１ー６", "緯度": 36.729003, "経度": 140.691932, "url": "https://www.iryou.teikyouseido.mhlw.go.jp/znk-web/juminkanja/S2430/initialize?prefCd=08&kikanCd=108680094&kikanKbn=1", "url2": "https://www.onsenbyoin.com", "内容": "医療法人愛正会やすらぎの丘温泉病院【1:病院】【診療科目:内科_循環器内科_消化器内科_外科_整形外科_皮膚科_泌尿器科_リウマチ科_リハビリテーション科_放射線科】【一般病床数:68療養病床数:86精神病床数:0感染症病床数:0合計病床数:154】茨城県高萩市下手綱１９５１ー６" }, "geometry": { "type": "Point", "coordinates": [ 140.691932, 36.729003 ] } },
{ "type": "Feature", "properties": { "ID": 81108680108, "正式名称": "医療法人それいゆ会　高萩それいゆ病院", "機関区分": 1, "都道府県コード": 8, "市区町村コード": 214, "所在地": "茨城県高萩市上手綱赤塚２６８", "緯度": 36.726111, "経度": 140.699167, "url": "https://www.iryou.teikyouseido.mhlw.go.jp/znk-web/juminkanja/S2430/initialize?prefCd=08&kikanCd=108680108&kikanKbn=1", "url2": "http://www.takahagi-soleil-hospital.jp/", "内容": "医療法人それいゆ会　高萩それいゆ病院【1:病院】【診療科目:内科_呼吸器内科_循環器内科_消化器内科_精神科_リハビリテーション科】【一般病床数:0療養病床数:0精神病床数:150感染症病床数:0合計病床数:150】茨城県高萩市上手綱赤塚２６８" }, "geometry": { "type": "Point", "coordinates": [ 140.699167, 36.726111 ] } },
{ "type": "Feature", "properties": { "ID": 81108690013, "正式名称": "医療法人社団　健正会　茎崎アオイ病院", "機関区分": 1, "都道府県コード": 8, "市区町村コード": 220, "所在地": "茨城県つくば市天宝喜７１４－１", "緯度": 35.987085, "経度": 140.124333, "url": "https://www.iryou.teikyouseido.mhlw.go.jp/znk-web/juminkanja/S2430/initialize?prefCd=08&kikanCd=108690013&kikanKbn=1", "url2": null, "内容": "医療法人社団　健正会　茎崎アオイ病院【1:病院】【診療科目:内科】【一般病床数:0療養病床数:180精神病床数:0感染症病床数:0合計病床数:180】茨城県つくば市天宝喜７１４－１" }, "geometry": { "type": "Point", "coordinates": [ 140.124333, 35.987085 ] } },
{ "type": "Feature", "properties": { "ID": 81108700017, "正式名称": "ひたちなか母と子の病院", "機関区分": 1, "都道府県コード": 8, "市区町村コード": 221, "所在地": "茨城県ひたちなか市青葉町１９－７", "緯度": 36.386861, "経度": 140.534833, "url": "https://www.iryou.teikyouseido.mhlw.go.jp/znk-web/juminkanja/S2430/initialize?prefCd=08&kikanCd=108700017&kikanKbn=1", "url2": "http://www.hahatoko.com", "内容": "ひたちなか母と子の病院【1:病院】【診療科目:産科_婦人科】【一般病床数:28療養病床数:0精神病床数:0感染症病床数:0合計病床数:28】茨城県ひたちなか市青葉町１９－７" }, "geometry": { "type": "Point", "coordinates": [ 140.534833, 36.386861 ] } }
]
}
