{
"type": "FeatureCollection",
"name": "geo_08_訪問看護",
"crs": { "type": "name", "properties": { "name": "urn:ogc:def:crs:OGC:1.3:CRS84" } },
"features": [
{ "type": "Feature", "properties": { "内容": "医療法人財団　古宿会　水戸中央病院【訪問看護】水戸市六反田町1136-1", "url": "https://www.kaigokensaku.mhlw.go.jp/08/index.php?action_kouhyou_detail_004_kani=true&JigyosyoCd=0810114249-00&ServiceCd=130&Type=search", "url2": "http://www.mitocho-hsp.or.jp" }, "geometry": { "type": "Point", "coordinates": [ 140.508640799999966, 36.3476195 ] } },
{ "type": "Feature", "properties": { "内容": "公益社団法人茨城県看護協会　訪問看護ステーション　絆【訪問看護】水戸市緑町3丁目5番40号", "url": "https://www.kaigokensaku.mhlw.go.jp/08/index.php?action_kouhyou_detail_004_kani=true&JigyosyoCd=0860190198-00&ServiceCd=130&Type=search", "url2": "http://www.ina.or.jp/" }, "geometry": { "type": "Point", "coordinates": [ 140.446394457008438, 36.382261875952175 ] } },
{ "type": "Feature", "properties": { "内容": "Job・Design株式会社　訪問看護ステーション　Liveway【訪問看護】茨城県水戸市笠原町1189-2グリーンヒル西野ビル3F", "url": "https://www.kaigokensaku.mhlw.go.jp/08/index.php?action_kouhyou_detail_004_kani=true&JigyosyoCd=0860190263-00&ServiceCd=130&Type=search", "url2": null }, "geometry": { "type": "Point", "coordinates": [ 140.450495700000033, 36.3478771 ] } },
{ "type": "Feature", "properties": { "内容": "ゆりかご☆ナース【訪問看護】茨城県水戸市飯富町3467-1", "url": "https://www.kaigokensaku.mhlw.go.jp/08/index.php?action_kouhyou_detail_004_kani=true&JigyosyoCd=0860190313-00&ServiceCd=130&Type=search", "url2": "http://www.yurikago-kaigo.com/" }, "geometry": { "type": "Point", "coordinates": [ 140.414955100000043, 36.4222843 ] } },
{ "type": "Feature", "properties": { "内容": "訪問看護ステーション　デューン水戸【訪問看護】茨城県水戸市城南３丁目１６番１０号コトヴェール城南101号室", "url": "https://www.kaigokensaku.mhlw.go.jp/08/index.php?action_kouhyou_detail_004_kani=true&JigyosyoCd=0860190321-00&ServiceCd=130&Type=search", "url2": null }, "geometry": { "type": "Point", "coordinates": [ 140.484009600000036, 36.3649224 ] } },
{ "type": "Feature", "properties": { "内容": "訪問看護ステーションすいふ【訪問看護】茨城県水戸市赤塚1丁目1番地", "url": "https://www.kaigokensaku.mhlw.go.jp/08/index.php?action_kouhyou_detail_004_kani=true&JigyosyoCd=0860190552-00&ServiceCd=130&Type=search", "url2": null }, "geometry": { "type": "Point", "coordinates": [ 140.41450660000001, 36.3821045 ] } },
{ "type": "Feature", "properties": { "内容": "訪問看護ステーションあやめ水戸内原【訪問看護】茨城県水戸市内原町1065-1ドゥリエールハイツ101号室", "url": "https://www.kaigokensaku.mhlw.go.jp/08/index.php?action_kouhyou_detail_004_kani=true&JigyosyoCd=0860190594-00&ServiceCd=130&Type=search", "url2": "https://firstnurse.co.jp/" }, "geometry": { "type": "Point", "coordinates": [ 140.3521955, 36.366331 ] } },
{ "type": "Feature", "properties": { "内容": "訪問看護ステーション　パプリカ【訪問看護】茨城県水戸市姫子1-125-1", "url": "https://www.kaigokensaku.mhlw.go.jp/08/index.php?action_kouhyou_detail_004_kani=true&JigyosyoCd=0860190610-00&ServiceCd=130&Type=search", "url2": null }, "geometry": { "type": "Point", "coordinates": [ 140.4306948, 36.3822315 ] } },
{ "type": "Feature", "properties": { "内容": "フレアス訪問看護ステーション水戸【訪問看護】茨城県水戸市堀町1810-1", "url": "https://www.kaigokensaku.mhlw.go.jp/08/index.php?action_kouhyou_detail_004_kani=true&JigyosyoCd=0860190487-00&ServiceCd=130&Type=search", "url2": "https://fureasu.jp" }, "geometry": { "type": "Point", "coordinates": [ 140.4213283, 36.4002003 ] } },
{ "type": "Feature", "properties": { "内容": "訪問看護ステーションひまわり水戸【訪問看護】茨城県水戸市百合が丘町814-477", "url": "https://www.kaigokensaku.mhlw.go.jp/08/index.php?action_kouhyou_detail_004_kani=true&JigyosyoCd=0860190495-00&ServiceCd=130&Type=search", "url2": "https://www.mitochuo-hsp.or.jp/himawari_mito/index.html" }, "geometry": { "type": "Point", "coordinates": [ 140.5073332, 36.3505823 ] } },
{ "type": "Feature", "properties": { "内容": "いばらき診療所みと訪問看護ステーション【訪問看護】水戸市五軒町1-3-34第一会計ビル３階", "url": "https://www.kaigokensaku.mhlw.go.jp/08/index.php?action_kouhyou_detail_004_kani=true&JigyosyoCd=0860190297-00&ServiceCd=130&Type=search", "url2": "http://www.ibc.or.jp/mito/index.html" }, "geometry": { "type": "Point", "coordinates": [ 140.467857400000014, 36.3800466 ] } },
{ "type": "Feature", "properties": { "内容": "ケアプラス浜田訪問看護リハビリステーション【訪問看護】茨城県水戸市本町1丁目4－16", "url": "https://www.kaigokensaku.mhlw.go.jp/08/index.php?action_kouhyou_detail_004_kani=true&JigyosyoCd=0860190289-00&ServiceCd=130&Type=search", "url2": "http://www.care-plus.net" }, "geometry": { "type": "Point", "coordinates": [ 140.48880399831026, 36.36480630195733 ] } },
{ "type": "Feature", "properties": { "内容": "訪問看護ステーション静こころ【訪問看護】茨城県水戸市開江町960", "url": "https://www.kaigokensaku.mhlw.go.jp/08/index.php?action_kouhyou_detail_004_kani=true&JigyosyoCd=0860190628-00&ServiceCd=130&Type=search", "url2": null }, "geometry": { "type": "Point", "coordinates": [ 140.398774700000018, 36.399917400000042 ] } },
{ "type": "Feature", "properties": { "内容": "訪問看護ステーションもも【訪問看護】茨城県水戸市松本町15-7飯村不動産第六ビル103", "url": "https://www.kaigokensaku.mhlw.go.jp/08/index.php?action_kouhyou_detail_004_kani=true&JigyosyoCd=0860190651-00&ServiceCd=130&Type=search", "url2": "https://momo-houmonkango.com/" }, "geometry": { "type": "Point", "coordinates": [ 140.454023, 36.3921439 ] } },
{ "type": "Feature", "properties": { "内容": "みかん訪問看護リハビリステーション【訪問看護】茨城県水戸市堀町2277-54プランドールB棟101", "url": "https://www.kaigokensaku.mhlw.go.jp/08/index.php?action_kouhyou_detail_004_kani=true&JigyosyoCd=0860190644-00&ServiceCd=130&Type=search", "url2": "https://mikan-hmc.com/" }, "geometry": { "type": "Point", "coordinates": [ 140.4185893, 36.3918169 ] } },
{ "type": "Feature", "properties": { "内容": "訪問看護事業所　ハート２４【訪問看護】茨城県水戸市開江町８番地", "url": "https://www.kaigokensaku.mhlw.go.jp/08/index.php?action_kouhyou_detail_004_kani=true&JigyosyoCd=0860190164-00&ServiceCd=130&Type=search", "url2": "http://www.heart-pia.com/" }, "geometry": { "type": "Point", "coordinates": [ 140.3907024, 36.3956973 ] } },
{ "type": "Feature", "properties": { "内容": "訪問看護ステーションふたりしずか【訪問看護】茨城県水戸市石川4-4039-26", "url": "https://www.kaigokensaku.mhlw.go.jp/08/index.php?action_kouhyou_detail_004_kani=true&JigyosyoCd=0860190065-00&ServiceCd=130&Type=search", "url2": null }, "geometry": { "type": "Point", "coordinates": [ 140.423302160049417, 36.390796283158799 ] } },
{ "type": "Feature", "properties": { "内容": "訪問看護ステーションふくろう【訪問看護】茨城県水戸市酒門町4887", "url": "https://www.kaigokensaku.mhlw.go.jp/08/index.php?action_kouhyou_detail_004_kani=true&JigyosyoCd=0860190222-00&ServiceCd=130&Type=search", "url2": "https://info855995.wixsite.com/hukurou" }, "geometry": { "type": "Point", "coordinates": [ 140.4951811, 36.3596671 ] } },
{ "type": "Feature", "properties": { "内容": "みと南部訪問看護ステーション【訪問看護】平須町2-72みと南部ケアセンター", "url": "https://www.kaigokensaku.mhlw.go.jp/08/index.php?action_kouhyou_detail_004_kani=true&JigyosyoCd=0860190537-00&ServiceCd=130&Type=search", "url2": "https://swc-jinshinkai.com" }, "geometry": { "type": "Point", "coordinates": [ 140.435984100000013, 36.3239851 ] } },
{ "type": "Feature", "properties": { "内容": "医心館訪問看護ステーション水戸【訪問看護】茨城県水戸市元吉田町1052-1", "url": "https://www.kaigokensaku.mhlw.go.jp/08/index.php?action_kouhyou_detail_004_kani=true&JigyosyoCd=0860190446-00&ServiceCd=130&Type=search", "url2": null }, "geometry": { "type": "Point", "coordinates": [ 140.463230237434374, 36.340765285771646 ] } },
{ "type": "Feature", "properties": { "内容": "訪問看護ステーション虹【訪問看護】茨城県水戸市城南3丁目15-7生協会館2F", "url": "https://www.kaigokensaku.mhlw.go.jp/08/index.php?action_kouhyou_detail_004_kani=true&JigyosyoCd=0860190040-00&ServiceCd=130&Type=search", "url2": "http://www.ibaraki-health.coop/home/homehealthcarecenter/home-nursing-station/" }, "geometry": { "type": "Point", "coordinates": [ 140.482832818246493, 36.364324727740872 ] } },
{ "type": "Feature", "properties": { "内容": "一般社団法人水戸市医師会　訪問看護ステーションみと【訪問看護】茨城県水戸市見川町2131-6", "url": "https://www.kaigokensaku.mhlw.go.jp/08/index.php?action_kouhyou_detail_004_kani=true&JigyosyoCd=0860190024-00&ServiceCd=130&Type=search", "url2": null }, "geometry": { "type": "Point", "coordinates": [ 140.426657968261679, 36.365471791367966 ] } },
{ "type": "Feature", "properties": { "内容": "セントケア訪問看護ステーション水戸【訪問看護】茨城県水戸市元吉田町236ｰ18", "url": "https://www.kaigokensaku.mhlw.go.jp/08/index.php?action_kouhyou_detail_004_kani=true&JigyosyoCd=0860190339-00&ServiceCd=130&Type=search", "url2": "http://www.saint-care.com/" }, "geometry": { "type": "Point", "coordinates": [ 140.470421723698706, 36.353498620169759 ] } },
{ "type": "Feature", "properties": { "内容": "訪問看護ステーションくるみ館【訪問看護】茨城県水戸市河和田町3335-1", "url": "https://www.kaigokensaku.mhlw.go.jp/08/index.php?action_kouhyou_detail_004_kani=true&JigyosyoCd=0860190230-00&ServiceCd=130&Type=search", "url2": "https://hokuyoukai.jp/kurumi/" }, "geometry": { "type": "Point", "coordinates": [ 140.402214513491828, 36.367247698032529 ] } },
{ "type": "Feature", "properties": { "内容": "フロイデみと訪問看護ステーション【訪問看護】水戸市堀町967-1", "url": "https://www.kaigokensaku.mhlw.go.jp/08/index.php?action_kouhyou_detail_004_kani=true&JigyosyoCd=0860190412-00&ServiceCd=130&Type=search", "url2": "https://www.hakujinkai.com" }, "geometry": { "type": "Point", "coordinates": [ 140.4335222, 36.4028981 ] } },
{ "type": "Feature", "properties": { "内容": "あおい訪問看護ステーション【訪問看護】茨城県水戸市新荘1-5-19", "url": "https://www.kaigokensaku.mhlw.go.jp/08/index.php?action_kouhyou_detail_004_kani=true&JigyosyoCd=0860190529-00&ServiceCd=130&Type=search", "url2": "https://aoi-hmc.com/" }, "geometry": { "type": "Point", "coordinates": [ 140.451982386963664, 36.383195753450565 ] } },
{ "type": "Feature", "properties": { "内容": "ケアズ水戸訪問看護リハビリステーション【訪問看護】茨城県水戸市千波町1253-4　2Fプロシードビル", "url": "https://www.kaigokensaku.mhlw.go.jp/08/index.php?action_kouhyou_detail_004_kani=true&JigyosyoCd=0860190248-00&ServiceCd=130&Type=search", "url2": "http://cares-mito.net/" }, "geometry": { "type": "Point", "coordinates": [ 140.468792675806185, 36.361129674483557 ] } },
{ "type": "Feature", "properties": { "内容": "訪問看護ステーション　とうはら【訪問看護】茨城県水戸市酒門町2951-1", "url": "https://www.kaigokensaku.mhlw.go.jp/08/index.php?action_kouhyou_detail_004_kani=true&JigyosyoCd=0860190305-00&ServiceCd=130&Type=search", "url2": "https://iseikai-mito.jp/" }, "geometry": { "type": "Point", "coordinates": [ 140.497731743516539, 36.342742882514543 ] } },
{ "type": "Feature", "properties": { "内容": "訪問看護ステーション　オレンジ【訪問看護】城南２-５-１９黄門ビル３Ｂ号室", "url": "https://www.kaigokensaku.mhlw.go.jp/08/index.php?action_kouhyou_detail_004_kani=true&JigyosyoCd=0860190636-00&ServiceCd=130&Type=search", "url2": "https://smi-life.com/" }, "geometry": { "type": "Point", "coordinates": [ 135.430904, 34.8181638 ] } },
{ "type": "Feature", "properties": { "内容": "訪問看護ステーション堀【訪問看護】茨城県水戸市堀町1297-1", "url": "https://www.kaigokensaku.mhlw.go.jp/08/index.php?action_kouhyou_detail_004_kani=true&JigyosyoCd=0860190461-00&ServiceCd=130&Type=search", "url2": null }, "geometry": { "type": "Point", "coordinates": [ 140.4206221, 36.4036812 ] } },
{ "type": "Feature", "properties": { "内容": "訪問看護ステーションらいふ【訪問看護】茨城県水戸市赤塚1-2067-3コーキビル208", "url": "https://www.kaigokensaku.mhlw.go.jp/08/index.php?action_kouhyou_detail_004_kani=true&JigyosyoCd=0860190677-00&ServiceCd=130&Type=search", "url2": null }, "geometry": { "type": "Point", "coordinates": [ 140.410736899999989, 36.3838292 ] } },
{ "type": "Feature", "properties": { "内容": "訪問看護ステーションすみれ【訪問看護】酒門町268-2", "url": "https://www.kaigokensaku.mhlw.go.jp/08/index.php?action_kouhyou_detail_004_kani=true&JigyosyoCd=0860190396-00&ServiceCd=130&Type=search", "url2": "https://www.seirankai-jp.org/oobanaika" }, "geometry": { "type": "Point", "coordinates": [ 140.492514, 36.3527399 ] } },
{ "type": "Feature", "properties": { "内容": "まちの訪問看護「ゆりの木」【訪問看護】茨城県日立市日高町1丁目14番地14セジュール日高A棟1階106号", "url": "https://www.kaigokensaku.mhlw.go.jp/08/index.php?action_kouhyou_detail_004_kani=true&JigyosyoCd=0860290139-00&ServiceCd=130&Type=search", "url2": null }, "geometry": { "type": "Point", "coordinates": [ 140.6765182, 36.634953 ] } },
{ "type": "Feature", "properties": { "内容": "訪問看護ステーションあやめ日立【訪問看護】茨城県日立市弁天町2-15-3コーポ清風101号室", "url": "https://www.kaigokensaku.mhlw.go.jp/08/index.php?action_kouhyou_detail_004_kani=true&JigyosyoCd=0860290170-00&ServiceCd=130&Type=search", "url2": "https://firstnurse.co.jp/" }, "geometry": { "type": "Point", "coordinates": [ 140.652564500000011, 36.5902386 ] } },
{ "type": "Feature", "properties": { "内容": "ケアーズ訪問看護リハビリステーションかみね【訪問看護】若葉町3-9-6若葉ハイツ101", "url": "https://www.kaigokensaku.mhlw.go.jp/08/index.php?action_kouhyou_detail_004_kani=true&JigyosyoCd=0860290113-00&ServiceCd=130&Type=search", "url2": "https://houmonkango-kamine.com/" }, "geometry": { "type": "Point", "coordinates": [ 140.658942087537952, 36.601582966542026 ] } },
{ "type": "Feature", "properties": { "内容": "ケアーズ訪問看護リハビリステーション日立南東海【訪問看護】茨城県日立市神田町1368-1", "url": "https://www.kaigokensaku.mhlw.go.jp/08/index.php?action_kouhyou_detail_004_kani=true&JigyosyoCd=0860290121-00&ServiceCd=130&Type=search", "url2": "https://houmonkango-hitachi.com" }, "geometry": { "type": "Point", "coordinates": [ 140.57452857004975, 36.502032727377575 ] } },
{ "type": "Feature", "properties": { "内容": "日立南部地区訪問看護ステーション【訪問看護】日立市久慈町2－35－20－205", "url": "https://www.kaigokensaku.mhlw.go.jp/08/index.php?action_kouhyou_detail_004_kani=true&JigyosyoCd=0860290030-00&ServiceCd=130&Type=search", "url2": "http://www.ibc.or.jp" }, "geometry": { "type": "Point", "coordinates": [ 140.618239943655368, 36.503775510020283 ] } },
{ "type": "Feature", "properties": { "内容": "訪問看護ステーションオレンジ【訪問看護】茨城県日立市東多賀町5-1-6多賀SNビル1F", "url": "https://www.kaigokensaku.mhlw.go.jp/08/index.php?action_kouhyou_detail_004_kani=true&JigyosyoCd=0860290188-00&ServiceCd=130&Type=search", "url2": "https://www.orange-kaigo-hitachi.jp/" }, "geometry": { "type": "Point", "coordinates": [ 140.6330599, 36.5476969 ] } },
{ "type": "Feature", "properties": { "内容": "訪問看護リハビリステーションいつもえがお【訪問看護】茨城県日立市弁天町2-11-6征矢マンション101号室", "url": "https://www.kaigokensaku.mhlw.go.jp/08/index.php?action_kouhyou_detail_004_kani=true&JigyosyoCd=0860290097-00&ServiceCd=130&Type=search", "url2": "http://itumoegao.com/" }, "geometry": { "type": "Point", "coordinates": [ 140.653577899999959, 36.5909161 ] } },
{ "type": "Feature", "properties": { "内容": "らいおんハート訪問看護ステーション【訪問看護】茨城県日立市川尻町１－３5－１7", "url": "https://www.kaigokensaku.mhlw.go.jp/08/index.php?action_kouhyou_detail_004_kani=true&JigyosyoCd=0860290105-00&ServiceCd=130&Type=search", "url2": "houmon-kango@lion-heart.co" }, "geometry": { "type": "Point", "coordinates": [ 140.696374399999968, 36.6542069 ] } },
{ "type": "Feature", "properties": { "内容": "医療法人愛正会　田尻ヶ丘病院【訪問看護】茨城県日立市田尻町3-24-1", "url": "https://www.kaigokensaku.mhlw.go.jp/08/index.php?action_kouhyou_detail_004_kani=true&JigyosyoCd=0810210377-00&ServiceCd=130&Type=search", "url2": "https://tajirigaoka.or.jp/index.html" }, "geometry": { "type": "Point", "coordinates": [ 140.6719109, 36.6270015 ] } },
{ "type": "Feature", "properties": { "内容": "訪問看護ステーション秋桜【訪問看護】茨城県日立市東大沼町3-28-3", "url": "https://www.kaigokensaku.mhlw.go.jp/08/index.php?action_kouhyou_detail_004_kani=true&JigyosyoCd=0860290279-00&ServiceCd=130&Type=search", "url2": "http://cosmos-fp.com/" }, "geometry": { "type": "Point", "coordinates": [ 140.6241889, 36.5263526 ] } },
{ "type": "Feature", "properties": { "内容": "訪問看護あおぞら【訪問看護】茨城県日立市中成沢町4丁目16番7号", "url": "https://www.kaigokensaku.mhlw.go.jp/08/index.php?action_kouhyou_detail_004_kani=true&JigyosyoCd=0860290261-00&ServiceCd=130&Type=search", "url2": "https://5-arrows.com" }, "geometry": { "type": "Point", "coordinates": [ 140.640919, 36.575829 ] } },
{ "type": "Feature", "properties": { "内容": "訪問看護ステーションたがひたち【訪問看護】茨城県日立市城南町二丁目1番1号", "url": "https://www.kaigokensaku.mhlw.go.jp/08/index.php?action_kouhyou_detail_004_kani=true&JigyosyoCd=0860290055-00&ServiceCd=130&Type=search", "url2": "http://www.hitachi.co.jp/hospital/hitachi/" }, "geometry": { "type": "Point", "coordinates": [ 140.644931944589246, 36.590495920229976 ] } },
{ "type": "Feature", "properties": { "内容": "さくらメディ訪問看護ステーション【訪問看護】茨城県日立市久慈町４丁目２１ー４１０１", "url": "https://www.kaigokensaku.mhlw.go.jp/08/index.php?action_kouhyou_detail_004_kani=true&JigyosyoCd=0860290212-00&ServiceCd=130&Type=search", "url2": null }, "geometry": { "type": "Point", "coordinates": [ 140.6082945, 36.4919886 ] } },
{ "type": "Feature", "properties": { "内容": "ツクイ日立訪問看護ステーション【訪問看護】茨城県日立市幸町１丁目２２−１朝日生命日立ビル3階", "url": "https://www.kaigokensaku.mhlw.go.jp/08/index.php?action_kouhyou_detail_004_kani=true&JigyosyoCd=0860290253-00&ServiceCd=130&Type=search", "url2": null }, "geometry": { "type": "Point", "coordinates": [ 140.6596323, 36.5893532 ] } },
{ "type": "Feature", "properties": { "内容": "訪問看護ステーション　架橋【訪問看護】茨城県日立市田尻町3-44-22", "url": "https://www.kaigokensaku.mhlw.go.jp/08/index.php?action_kouhyou_detail_004_kani=true&JigyosyoCd=0860290238-00&ServiceCd=130&Type=search", "url2": "https://llc-kakehashi.com/" }, "geometry": { "type": "Point", "coordinates": [ 140.6502831, 36.5813176 ] } },
{ "type": "Feature", "properties": { "内容": "訪問看護ステーションのぞみ【訪問看護】茨城県土浦市烏山2丁目５８０－３８６", "url": "https://www.kaigokensaku.mhlw.go.jp/08/index.php?action_kouhyou_detail_004_kani=true&JigyosyoCd=0860390053-00&ServiceCd=130&Type=search", "url2": null }, "geometry": { "type": "Point", "coordinates": [ 140.206039199999964, 36.0486927 ] } },
{ "type": "Feature", "properties": { "内容": "公益社団法人茨城県看護協会　土浦訪問看護ステーション【訪問看護】茨城県土浦市下高津2-7-68", "url": "https://www.kaigokensaku.mhlw.go.jp/08/index.php?action_kouhyou_detail_004_kani=true&JigyosyoCd=0860390012-00&ServiceCd=130&Type=search", "url2": "http://www.ina.or.jp" }, "geometry": { "type": "Point", "coordinates": [ 140.19147984113917, 36.072185398317821 ] } },
{ "type": "Feature", "properties": { "内容": "ウララ訪問看護リハビリステーション【訪問看護】茨城県土浦市田中3-2-33", "url": "https://www.kaigokensaku.mhlw.go.jp/08/index.php?action_kouhyou_detail_004_kani=true&JigyosyoCd=0860390129-00&ServiceCd=130&Type=search", "url2": "http://egao-no.com" }, "geometry": { "type": "Point", "coordinates": [ 140.187176300000033, 36.0842208 ] } },
{ "type": "Feature", "properties": { "内容": "まちの看護ステーション【訪問看護】茨城県土浦市中高津1-20-15", "url": "https://www.kaigokensaku.mhlw.go.jp/08/index.php?action_kouhyou_detail_004_kani=true&JigyosyoCd=0860390061-00&ServiceCd=130&Type=search", "url2": null }, "geometry": { "type": "Point", "coordinates": [ 140.184669, 36.064604 ] } },
{ "type": "Feature", "properties": { "内容": "訪問看護ステーションそえる【訪問看護】茨城県土浦市真鍋新町８－３－３", "url": "https://www.kaigokensaku.mhlw.go.jp/08/index.php?action_kouhyou_detail_004_kani=true&JigyosyoCd=0860390319-00&ServiceCd=130&Type=search", "url2": "sowelu-ns.com" }, "geometry": { "type": "Point", "coordinates": [ 140.2093047, 36.0870757 ] } },
{ "type": "Feature", "properties": { "内容": "元気館訪問看護ステーション【訪問看護】茨城県土浦市神立中央五丁目4番20号ケアセンター元気館3階", "url": "https://www.kaigokensaku.mhlw.go.jp/08/index.php?action_kouhyou_detail_004_kani=true&JigyosyoCd=0860390160-00&ServiceCd=130&Type=search", "url2": "http://www.seisyuukai.com/genkikan/" }, "geometry": { "type": "Point", "coordinates": [ 140.230318099999977, 36.1206477 ] } },
{ "type": "Feature", "properties": { "内容": "訪問看護ステーションharustyle【訪問看護】茨城県土浦市田中2-11-6高橋ビル101号", "url": "https://www.kaigokensaku.mhlw.go.jp/08/index.php?action_kouhyou_detail_004_kani=true&JigyosyoCd=0860390210-00&ServiceCd=130&Type=search", "url2": "https://haru-style.co.jp/" }, "geometry": { "type": "Point", "coordinates": [ 140.187138347074807, 36.086050006358754 ] } },
{ "type": "Feature", "properties": { "内容": "訪問看護ステーションえのもと【訪問看護】茨城県土浦市神立町643-8", "url": "https://www.kaigokensaku.mhlw.go.jp/08/index.php?action_kouhyou_detail_004_kani=true&JigyosyoCd=0860390194-00&ServiceCd=130&Type=search", "url2": null }, "geometry": { "type": "Point", "coordinates": [ 140.2419688, 36.115437 ] } },
{ "type": "Feature", "properties": { "内容": "らふえる訪問看護ステーション【訪問看護】茨城県土浦市乙戸南3-4-19", "url": "https://www.kaigokensaku.mhlw.go.jp/08/index.php?action_kouhyou_detail_004_kani=true&JigyosyoCd=0860390087-00&ServiceCd=130&Type=search", "url2": "https://laughwell.co.jp/" }, "geometry": { "type": "Point", "coordinates": [ 140.1483437, 36.0339849 ] } },
{ "type": "Feature", "properties": { "内容": "訪問看護ステーションなぎの木【訪問看護】茨城県土浦市宍塚333-1デイサービスセンターなぎの木土浦　2階", "url": "https://www.kaigokensaku.mhlw.go.jp/08/index.php?action_kouhyou_detail_004_kani=true&JigyosyoCd=0860390285-00&ServiceCd=130&Type=search", "url2": "http://hp.kaipoke.biz/9h4/" }, "geometry": { "type": "Point", "coordinates": [ 140.162086, 36.0743001 ] } },
{ "type": "Feature", "properties": { "内容": "厚生連土浦訪問看護ステーション【訪問看護】茨城県土浦市おおつ野4-1-1", "url": "https://www.kaigokensaku.mhlw.go.jp/08/index.php?action_kouhyou_detail_004_kani=true&JigyosyoCd=0860390038-00&ServiceCd=130&Type=search", "url2": "http://www.tkgh.jp" }, "geometry": { "type": "Point", "coordinates": [ 140.258354338459043, 36.083852017508576 ] } },
{ "type": "Feature", "properties": { "内容": "ケアリング訪問看護ステーション土浦【訪問看護】茨城県土浦市生田町3-27田谷医院2階", "url": "https://www.kaigokensaku.mhlw.go.jp/08/index.php?action_kouhyou_detail_004_kani=true&JigyosyoCd=0860390137-00&ServiceCd=130&Type=search", "url2": "http://carering-force.com" }, "geometry": { "type": "Point", "coordinates": [ 140.189019300000012, 36.08237 ] } },
{ "type": "Feature", "properties": { "内容": "訪問看護ステーションひまわり【訪問看護】茨城県土浦市東若松町3969", "url": "https://www.kaigokensaku.mhlw.go.jp/08/index.php?action_kouhyou_detail_004_kani=true&JigyosyoCd=0860390046-00&ServiceCd=130&Type=search", "url2": "https://kasuikai.or.jp" }, "geometry": { "type": "Point", "coordinates": [ 140.20690368399201, 36.10781234534533 ] } },
{ "type": "Feature", "properties": { "内容": "訪問看護ステーション夢眠つちうら【訪問看護】茨城県土浦市滝田1丁目33番地1号", "url": "https://www.kaigokensaku.mhlw.go.jp/08/index.php?action_kouhyou_detail_004_kani=true&JigyosyoCd=0860390277-00&ServiceCd=130&Type=search", "url2": "http://muminhome.jp/tsuchiura/" }, "geometry": { "type": "Point", "coordinates": [ 140.212073576057406, 36.069601597789521 ] } },
{ "type": "Feature", "properties": { "内容": "プルメリア看護ステーション【訪問看護】茨城県土浦市田中3-8-28", "url": "https://www.kaigokensaku.mhlw.go.jp/08/index.php?action_kouhyou_detail_004_kani=true&JigyosyoCd=0860390103-00&ServiceCd=130&Type=search", "url2": null }, "geometry": { "type": "Point", "coordinates": [ 140.1849622, 36.0869847 ] } },
{ "type": "Feature", "properties": { "内容": "訪問看護ステーション　プラザマアム【訪問看護】茨城県土浦市板谷7-626-11", "url": "https://www.kaigokensaku.mhlw.go.jp/08/index.php?action_kouhyou_detail_004_kani=true&JigyosyoCd=0860390178-00&ServiceCd=130&Type=search", "url2": "http://www.p-maam.co.jp/" }, "geometry": { "type": "Point", "coordinates": [ 140.209113600000023, 36.1139974 ] } },
{ "type": "Feature", "properties": { "内容": "訪問看護リハビリステーションたまき【訪問看護】茨城県土浦市真鍋3-10-25大竹ビル101", "url": "https://www.kaigokensaku.mhlw.go.jp/08/index.php?action_kouhyou_detail_004_kani=true&JigyosyoCd=0860390236-00&ServiceCd=130&Type=search", "url2": "https://tamaki06.jimdofree.com" }, "geometry": { "type": "Point", "coordinates": [ 140.200863788360607, 36.093618998495678 ] } },
{ "type": "Feature", "properties": { "内容": "ネクサス訪問看護ステーション【訪問看護】茨城県土浦市田中1-3-6木下テナント・0001号室", "url": "https://www.kaigokensaku.mhlw.go.jp/08/index.php?action_kouhyou_detail_004_kani=true&JigyosyoCd=0860390251-00&ServiceCd=130&Type=search", "url2": "https://i-nexus.jp" }, "geometry": { "type": "Point", "coordinates": [ 140.191200706711186, 36.086440833040605 ] } },
{ "type": "Feature", "properties": { "内容": "訪問看護ほっとＱ【訪問看護】茨城県土浦市生田町7-18", "url": "https://www.kaigokensaku.mhlw.go.jp/08/index.php?action_kouhyou_detail_004_kani=true&JigyosyoCd=0860390343-00&ServiceCd=130&Type=search", "url2": "https://www.llc-hotq.com/" }, "geometry": { "type": "Point", "coordinates": [ 140.1869381, 36.0818823 ] } },
{ "type": "Feature", "properties": { "内容": "訪問看護ステーションALWAYS古河【訪問看護】城県古河市東本町３丁目４−１テナントイーグル3号室", "url": "https://www.kaigokensaku.mhlw.go.jp/08/index.php?action_kouhyou_detail_004_kani=true&JigyosyoCd=0860490101-00&ServiceCd=130&Type=search", "url2": "https://always-ns.jp/" }, "geometry": { "type": "Point", "coordinates": [ 139.721915700000011, 36.1940426 ] } },
{ "type": "Feature", "properties": { "内容": "茨城県古河市諸川551-17　黒川ハイツ105号室【訪問看護】茨城県古河市諸川551-17黒川ハイツ105号室", "url": "https://www.kaigokensaku.mhlw.go.jp/08/index.php?action_kouhyou_detail_004_kani=true&JigyosyoCd=0860490135-00&ServiceCd=130&Type=search", "url2": "https://firstnurse.co.jp/" }, "geometry": { "type": "Point", "coordinates": [ 139.8199922, 36.1957233 ] } },
{ "type": "Feature", "properties": { "内容": "ケアもも訪問看護リハビリステーション【訪問看護】茨城県古河市鴻巣550-2", "url": "https://www.kaigokensaku.mhlw.go.jp/08/index.php?action_kouhyou_detail_004_kani=true&JigyosyoCd=0860490036-00&ServiceCd=130&Type=search", "url2": "http://caremomo.cares-center.co.jp/" }, "geometry": { "type": "Point", "coordinates": [ 139.705667036599351, 36.179744750853054 ] } },
{ "type": "Feature", "properties": { "内容": "医療法人徳洲会　訪問看護ステーション　はなもも【訪問看護】茨城県古河市鴻巣1175-1", "url": "https://www.kaigokensaku.mhlw.go.jp/08/index.php?action_kouhyou_detail_004_kani=true&JigyosyoCd=0860490085-00&ServiceCd=130&Type=search", "url2": "http://www.kogahosp.jp/" }, "geometry": { "type": "Point", "coordinates": [ 139.707379017196644, 36.172940003507087 ] } },
{ "type": "Feature", "properties": { "内容": "医療法人慈政会　訪問看護ステーションこが【訪問看護】茨城県古河市東本町4-2-2", "url": "https://www.kaigokensaku.mhlw.go.jp/08/index.php?action_kouhyou_detail_004_kani=true&JigyosyoCd=0860490044-00&ServiceCd=130&Type=search", "url2": null }, "geometry": { "type": "Point", "coordinates": [ 139.724772300000041, 36.1937305 ] } },
{ "type": "Feature", "properties": { "内容": "ゆうあい訪問看護ステーションゆめ【訪問看護】茨城県古河市本町4丁目15番76号コーポ古河101号室", "url": "https://www.kaigokensaku.mhlw.go.jp/08/index.php?action_kouhyou_detail_004_kani=true&JigyosyoCd=0860490127-00&ServiceCd=130&Type=search", "url2": "http://www.yuai-hosp-jp.org" }, "geometry": { "type": "Point", "coordinates": [ 139.70825, 36.1914628 ] } },
{ "type": "Feature", "properties": { "内容": "ウエルシア介護サービス訪問看護ステーション古河【訪問看護】茨城県古河市鴻巣956-1", "url": "https://www.kaigokensaku.mhlw.go.jp/08/index.php?action_kouhyou_detail_004_kani=true&JigyosyoCd=0860490143-00&ServiceCd=130&Type=search", "url2": "https://www.welcia-kaigo.co.jp" }, "geometry": { "type": "Point", "coordinates": [ 139.7062154, 36.1764203 ] } },
{ "type": "Feature", "properties": { "内容": "だいそう訪問看護リハビリステーション古河【訪問看護】茨木県古河市長谷町22－22", "url": "https://www.kaigokensaku.mhlw.go.jp/08/index.php?action_kouhyou_detail_004_kani=true&JigyosyoCd=0860490093-00&ServiceCd=130&Type=search", "url2": "https://koga.d-cares.com/" }, "geometry": { "type": "Point", "coordinates": [ 139.702865462515518, 36.185852548926484 ] } },
{ "type": "Feature", "properties": { "内容": "医療法人徳洲会　古河徳洲会訪問看護ステーション　けやき【訪問看護】茨城県古河市駒ケ崎14-1", "url": "https://www.kaigokensaku.mhlw.go.jp/08/index.php?action_kouhyou_detail_004_kani=true&JigyosyoCd=0860490119-00&ServiceCd=130&Type=search", "url2": "https://koga-st.tokushukai.or.jp" }, "geometry": { "type": "Point", "coordinates": [ 139.705747280812062, 36.17096072453068 ] } },
{ "type": "Feature", "properties": { "内容": "訪問看護ステーション　サルビア【訪問看護】茨城県古河市駒羽根８２５－１総和中央病院３階", "url": "https://www.kaigokensaku.mhlw.go.jp/08/index.php?action_kouhyou_detail_004_kani=true&JigyosyoCd=0864390026-00&ServiceCd=130&Type=search", "url2": "http://salvia911255.blogspot.com/" }, "geometry": { "type": "Point", "coordinates": [ 139.760101500000019, 36.1641157 ] } },
{ "type": "Feature", "properties": { "内容": "あるある訪問看護ステーション【訪問看護】茨城県古河市上辺見906－1にこいちハイツ105", "url": "https://www.kaigokensaku.mhlw.go.jp/08/index.php?action_kouhyou_detail_004_kani=true&JigyosyoCd=0860490168-00&ServiceCd=130&Type=search", "url2": null }, "geometry": { "type": "Point", "coordinates": [ 139.7352453, 36.1906203 ] } },
{ "type": "Feature", "properties": { "内容": "古河赤十字病院訪問看護ステーションゆきはな【訪問看護】茨城県古河市下山町1150", "url": "https://www.kaigokensaku.mhlw.go.jp/08/index.php?action_kouhyou_detail_004_kani=true&JigyosyoCd=0860490176-00&ServiceCd=130&Type=search", "url2": "https://www.koga.jrc.or.jp/home_care_yukihana/" }, "geometry": { "type": "Point", "coordinates": [ 139.723043499999989, 36.1879637 ] } },
{ "type": "Feature", "properties": { "内容": "医療法人幕内会　山王台病院　訪問看護事業所　さんのうだい【訪問看護】茨城県石岡市東石岡4-1-38", "url": "https://www.kaigokensaku.mhlw.go.jp/08/index.php?action_kouhyou_detail_004_kani=true&JigyosyoCd=0810510255-00&ServiceCd=130&Type=search", "url2": "http://www.sannoudai.or.jp" }, "geometry": { "type": "Point", "coordinates": [ 140.2920444, 36.1879264 ] } },
{ "type": "Feature", "properties": { "内容": "訪問看護ステーションあやめ石岡【訪問看護】府中4-9-17大和田住宅8", "url": "https://www.kaigokensaku.mhlw.go.jp/08/index.php?action_kouhyou_detail_004_kani=true&JigyosyoCd=0860590074-00&ServiceCd=130&Type=search", "url2": "http://www.firstnurse.co.jp" }, "geometry": { "type": "Point", "coordinates": [ 140.274450800000011, 36.2015236 ] } },
{ "type": "Feature", "properties": { "内容": "訪問看護ステーションharustyle石岡【訪問看護】茨城県石岡市石岡2147-6上田ハイツⅡ103", "url": "https://www.kaigokensaku.mhlw.go.jp/08/index.php?action_kouhyou_detail_004_kani=true&JigyosyoCd=0860590090-00&ServiceCd=130&Type=search", "url2": "https://ishioka.haru-style.jp" }, "geometry": { "type": "Point", "coordinates": [ 140.2812762, 36.1954809 ] } },
{ "type": "Feature", "properties": { "内容": "訪問看護ステーションやさと【訪問看護】茨城県石岡市宮ケ崎600番地", "url": "https://www.kaigokensaku.mhlw.go.jp/08/index.php?action_kouhyou_detail_004_kani=true&JigyosyoCd=0860590082-00&ServiceCd=130&Type=search", "url2": null }, "geometry": { "type": "Point", "coordinates": [ 140.251961200000011, 36.2588924 ] } },
{ "type": "Feature", "properties": { "内容": "セントケア訪問看護ステーション石岡【訪問看護】茨城県石岡市鹿の子1丁目14-12", "url": "https://www.kaigokensaku.mhlw.go.jp/08/index.php?action_kouhyou_detail_004_kani=true&JigyosyoCd=0860590108-00&ServiceCd=130&Type=search", "url2": "https://care-net.biz/08/saintcare-i/" }, "geometry": { "type": "Point", "coordinates": [ 140.2604255, 36.2029192 ] } },
{ "type": "Feature", "properties": { "内容": "訪問看護ステーションあさひだい【訪問看護】茨城県石岡市旭台1-17-26", "url": "https://www.kaigokensaku.mhlw.go.jp/08/index.php?action_kouhyou_detail_004_kani=true&JigyosyoCd=0860590066-00&ServiceCd=130&Type=search", "url2": "https://ishioka-keyakikai.or.jp/" }, "geometry": { "type": "Point", "coordinates": [ 140.301227700000027, 36.1947745 ] } },
{ "type": "Feature", "properties": { "内容": "訪問看護ステーションよつば【訪問看護】茨城県石岡市東府中１－７", "url": "https://www.kaigokensaku.mhlw.go.jp/08/index.php?action_kouhyou_detail_004_kani=true&JigyosyoCd=0860590025-00&ServiceCd=130&Type=search", "url2": "https://ishioka.jadecom.or.jp/" }, "geometry": { "type": "Point", "coordinates": [ 140.293285500000025, 36.2034528 ] } },
{ "type": "Feature", "properties": { "内容": "えん訪問看護ステーション石岡【訪問看護】茨城県石岡市東光台2-11-13エスト東光台101", "url": "https://www.kaigokensaku.mhlw.go.jp/08/index.php?action_kouhyou_detail_004_kani=true&JigyosyoCd=0860590124-00&ServiceCd=130&Type=search", "url2": "https://en-houkan.com/" }, "geometry": { "type": "Point", "coordinates": [ 140.303028700000027, 36.184752200000013 ] } },
{ "type": "Feature", "properties": { "内容": "医療法人幕内会　訪問看護ステーションさんのうだい【訪問看護】茨城県石岡市東石岡5-1-29", "url": "https://www.kaigokensaku.mhlw.go.jp/08/index.php?action_kouhyou_detail_004_kani=true&JigyosyoCd=0860590058-00&ServiceCd=130&Type=search", "url2": "http//www.sannoudai.or.jp" }, "geometry": { "type": "Point", "coordinates": [ 140.291477799999939, 36.1888124 ] } },
{ "type": "Feature", "properties": { "内容": "株式会社やさしい手　訪問看護かえりえ結城【訪問看護】茨城県結城市結城9804-1", "url": "https://www.kaigokensaku.mhlw.go.jp/08/index.php?action_kouhyou_detail_004_kani=true&JigyosyoCd=0860790062-00&ServiceCd=130&Type=search", "url2": "https://sp.yasashiite.com/subdomains/section/793/" }, "geometry": { "type": "Point", "coordinates": [ 139.87758740000001, 36.3035025 ] } },
{ "type": "Feature", "properties": { "内容": "訪問看護ステーション　春風【訪問看護】茨城県結城市大字結城字西繁昌塚9628番2", "url": "https://www.kaigokensaku.mhlw.go.jp/08/index.php?action_kouhyou_detail_004_kani=true&JigyosyoCd=0860790013-00&ServiceCd=130&Type=search", "url2": "http://www.yuki.or.jp/" }, "geometry": { "type": "Point", "coordinates": [ 139.855265021324158, 36.288782732093281 ] } },
{ "type": "Feature", "properties": { "内容": "訪問看護ステーションあやめ結城【訪問看護】茨城県結城市大字結城745番地4パールハイツ101号室", "url": "https://www.kaigokensaku.mhlw.go.jp/08/index.php?action_kouhyou_detail_004_kani=true&JigyosyoCd=0860790104-00&ServiceCd=130&Type=search", "url2": "https://firstnurse.co.jp/" }, "geometry": { "type": "Point", "coordinates": [ 139.8791678, 36.300199 ] } },
{ "type": "Feature", "properties": { "内容": "訪問看護ステーションふわり結城【訪問看護】武井518", "url": "https://www.kaigokensaku.mhlw.go.jp/08/index.php?action_kouhyou_detail_004_kani=true&JigyosyoCd=0860790070-00&ServiceCd=130&Type=search", "url2": "https://vivahouse.co.jp" }, "geometry": { "type": "Point", "coordinates": [ 139.831694700000014, 36.250192 ] } },
{ "type": "Feature", "properties": { "内容": "訪問看護ステーションあやめ龍ケ崎【訪問看護】小柴1丁目2-5STビル1-D", "url": "https://www.kaigokensaku.mhlw.go.jp/08/index.php?action_kouhyou_detail_004_kani=true&JigyosyoCd=0860890110-00&ServiceCd=130&Type=search", "url2": "http://www.firstnurse.co.jp" }, "geometry": { "type": "Point", "coordinates": [ 140.1622242, 35.9324288 ] } },
{ "type": "Feature", "properties": { "内容": "ＫＡ訪問看護ステーション【訪問看護】茨城県龍ヶ崎市松葉4--10-17", "url": "https://www.kaigokensaku.mhlw.go.jp/08/index.php?action_kouhyou_detail_004_kani=true&JigyosyoCd=0860890078-00&ServiceCd=130&Type=search", "url2": null }, "geometry": { "type": "Point", "coordinates": [ -93.199766, 30.206961 ] } },
{ "type": "Feature", "properties": { "内容": "訪問看護事業所　ハートフル龍ヶ崎【訪問看護】茨城県龍ケ崎市藤ケ丘3-1-13中央ビル102", "url": "https://www.kaigokensaku.mhlw.go.jp/08/index.php?action_kouhyou_detail_004_kani=true&JigyosyoCd=0860890136-00&ServiceCd=130&Type=search", "url2": null }, "geometry": { "type": "Point", "coordinates": [ 140.1981615, 35.9384317 ] } },
{ "type": "Feature", "properties": { "内容": "訪問看護ステーション龍ケ崎【訪問看護】茨城県龍ケ崎市3710番地龍ケ崎市庁舎附属棟２棟", "url": "https://www.kaigokensaku.mhlw.go.jp/08/index.php?action_kouhyou_detail_004_kani=true&JigyosyoCd=0860890011-00&ServiceCd=130&Type=search", "url2": "https://houkanst-ryugasaki.jp/" }, "geometry": { "type": "Point", "coordinates": [ 140.181987580344185, 35.911866676130643 ] } },
{ "type": "Feature", "properties": { "内容": "牛尾病院訪問看護ステーション【訪問看護】茨城県龍ケ崎市馴柴町1-15-1", "url": "https://www.kaigokensaku.mhlw.go.jp/08/index.php?action_kouhyou_detail_004_kani=true&JigyosyoCd=0860890045-00&ServiceCd=130&Type=search", "url2": "http://www.ryujinkai.or.jp/" }, "geometry": { "type": "Point", "coordinates": [ 140.147580599999969, 35.928925 ] } },
{ "type": "Feature", "properties": { "内容": "合同会社訪問看護ステーションアベリア【訪問看護】茨城県下妻市本宿町１丁目サンライズコーポ101サンライズコーポ101", "url": "https://www.kaigokensaku.mhlw.go.jp/08/index.php?action_kouhyou_detail_004_kani=true&JigyosyoCd=0861090041-00&ServiceCd=130&Type=search", "url2": null }, "geometry": { "type": "Point", "coordinates": [ 139.9639435, 36.186328 ] } },
{ "type": "Feature", "properties": { "内容": "真壁医師会立訪問看護ステーションしもつま【訪問看護】茨城県下妻市長塚８２－１", "url": "https://www.kaigokensaku.mhlw.go.jp/08/index.php?action_kouhyou_detail_004_kani=true&JigyosyoCd=0861090017-00&ServiceCd=130&Type=search", "url2": null }, "geometry": { "type": "Point", "coordinates": [ 139.968316, 36.1842358 ] } },
{ "type": "Feature", "properties": { "内容": "けんちの苑訪問看護ステーション【訪問看護】常総市豊岡町丙3264番地", "url": "https://www.kaigokensaku.mhlw.go.jp/08/index.php?action_kouhyou_detail_004_kani=true&JigyosyoCd=0861190023-00&ServiceCd=130&Type=search", "url2": "kango@kenchi.jp" }, "geometry": { "type": "Point", "coordinates": [ 139.973113300000023, 36.0299288 ] } },
{ "type": "Feature", "properties": { "内容": "ねこの手訪問看護ステーション【訪問看護】茨城県常総市水海道山田町4555", "url": "https://www.kaigokensaku.mhlw.go.jp/08/index.php?action_kouhyou_detail_004_kani=true&JigyosyoCd=0861190064-00&ServiceCd=130&Type=search", "url2": "http://salus-gh.com/" }, "geometry": { "type": "Point", "coordinates": [ 139.9898038, 36.0155901 ] } },
{ "type": "Feature", "properties": { "内容": "きぬ医師会訪問看護ステーション【訪問看護】茨城県常総市新井木町13番地3", "url": "https://www.kaigokensaku.mhlw.go.jp/08/index.php?action_kouhyou_detail_004_kani=true&JigyosyoCd=0861190015-00&ServiceCd=130&Type=search", "url2": null }, "geometry": { "type": "Point", "coordinates": [ 139.998363499999982, 36.0252019 ] } },
{ "type": "Feature", "properties": { "内容": "筑波メデイカルセンター訪問看護ステーションいしげ【訪問看護】常総市新石下３７６８番地", "url": "https://www.kaigokensaku.mhlw.go.jp/08/index.php?action_kouhyou_detail_004_kani=true&JigyosyoCd=0864290010-00&ServiceCd=130&Type=search", "url2": "http://www.tmch.or.jp/care/customers/ishige/index.html" }, "geometry": { "type": "Point", "coordinates": [ 139.977159744288656, 36.11065467673744 ] } },
{ "type": "Feature", "properties": { "内容": "訪問看護ステーションあやめ常陸太田【訪問看護】宮本町4268メゾンドウェストA101", "url": "https://www.kaigokensaku.mhlw.go.jp/08/index.php?action_kouhyou_detail_004_kani=true&JigyosyoCd=0861290088-00&ServiceCd=130&Type=search", "url2": "http://www.firstnurse.co.jp" }, "geometry": { "type": "Point", "coordinates": [ 140.51797, 36.54642 ] } },
{ "type": "Feature", "properties": { "内容": "訪問看護ステーションさとみ【訪問看護】茨城県常陸太田市折橋町411番地", "url": "https://www.kaigokensaku.mhlw.go.jp/08/index.php?action_kouhyou_detail_004_kani=true&JigyosyoCd=0861290054-00&ServiceCd=130&Type=search", "url2": null }, "geometry": { "type": "Point", "coordinates": [ 140.5239096, 36.7292778 ] } },
{ "type": "Feature", "properties": { "内容": "県北医療センター高萩協同病院【訪問看護】茨城県高萩市上手綱上ヶ穂町１００６番-９", "url": "https://www.kaigokensaku.mhlw.go.jp/08/index.php?action_kouhyou_detail_004_kani=true&JigyosyoCd=0811410331-00&ServiceCd=130&Type=search", "url2": "http:/wwwjp/ja/kouseiren" }, "geometry": { "type": "Point", "coordinates": [ 140.684143698564185, 36.732816433967066 ] } },
{ "type": "Feature", "properties": { "内容": "訪問看護ステーションあやめ高萩【訪問看護】本町1-49-13ハウスいまがわ102号", "url": "https://www.kaigokensaku.mhlw.go.jp/08/index.php?action_kouhyou_detail_004_kani=true&JigyosyoCd=0861490043-00&ServiceCd=130&Type=search", "url2": "https://firstnurse.co.jp" }, "geometry": { "type": "Point", "coordinates": [ 139.683879, 35.6820256 ] } },
{ "type": "Feature", "properties": { "内容": "訪問看護ステーションてつな【訪問看護】茨城県高萩市上手綱上ヶ穂町1006－9", "url": "https://www.kaigokensaku.mhlw.go.jp/08/index.php?action_kouhyou_detail_004_kani=true&JigyosyoCd=0861490050-00&ServiceCd=130&Type=search", "url2": null }, "geometry": { "type": "Point", "coordinates": [ 140.663811900000013, 36.7432609 ] } },
{ "type": "Feature", "properties": { "内容": "多賀医師会訪問看護ステーション【訪問看護】茨城県高萩市本町１－２０８", "url": "https://www.kaigokensaku.mhlw.go.jp/08/index.php?action_kouhyou_detail_004_kani=true&JigyosyoCd=0861490019-00&ServiceCd=130&Type=search", "url2": null }, "geometry": { "type": "Point", "coordinates": [ 140.708160499999963, 36.7130642 ] } },
{ "type": "Feature", "properties": { "内容": "安良川訪問看護ステーション【訪問看護】茨城県高萩市安良川９６３－８", "url": "https://www.kaigokensaku.mhlw.go.jp/08/index.php?action_kouhyou_detail_004_kani=true&JigyosyoCd=0861490027-00&ServiceCd=130&Type=search", "url2": "https://arakawa-center.com/houkan/index.html" }, "geometry": { "type": "Point", "coordinates": [ 140.70757720000006, 36.710445 ] } },
{ "type": "Feature", "properties": { "内容": "訪問看護リハビリテーションセンター秋山【訪問看護】茨城県高萩市秋山558番地の1", "url": "https://www.kaigokensaku.mhlw.go.jp/08/index.php?action_kouhyou_detail_004_kani=true&JigyosyoCd=0861490035-00&ServiceCd=130&Type=search", "url2": "https://www.riha-support.com" }, "geometry": { "type": "Point", "coordinates": [ 140.684788853967348, 36.71649003053215 ] } },
{ "type": "Feature", "properties": { "内容": "高萩それいゆ病院通所リハビリテーション事業所【訪問看護】茨城県高萩市上手綱赤塚268", "url": "https://www.kaigokensaku.mhlw.go.jp/08/index.php?action_kouhyou_detail_004_kani=true&JigyosyoCd=0811410224-00&ServiceCd=130&Type=search", "url2": "https://www.takahagi-soleil-hospital.jp/" }, "geometry": { "type": "Point", "coordinates": [ 140.6992793, 36.7307396 ] } },
{ "type": "Feature", "properties": { "内容": "医療法人芳医会訪問看護ステーションみらい【訪問看護】茨城県北茨城市磯原町磯原２－３０５", "url": "https://www.kaigokensaku.mhlw.go.jp/08/index.php?action_kouhyou_detail_004_kani=true&JigyosyoCd=0861590016-00&ServiceCd=130&Type=search", "url2": "https://www.takih.jp/" }, "geometry": { "type": "Point", "coordinates": [ 140.739796699999943, 36.7910925 ] } },
{ "type": "Feature", "properties": { "内容": "訪問看護ステーションCollabo【訪問看護】茨城県北茨城市磯原町磯原1丁目33番地シーワン101号室", "url": "https://www.kaigokensaku.mhlw.go.jp/08/index.php?action_kouhyou_detail_004_kani=true&JigyosyoCd=0861590073-00&ServiceCd=130&Type=search", "url2": null }, "geometry": { "type": "Point", "coordinates": [ 140.746398, 36.7915047 ] } },
{ "type": "Feature", "properties": { "内容": "北茨城市民病院　訪問看護ステーション【訪問看護】茨城県北茨城市関南町関本下1050", "url": "https://www.kaigokensaku.mhlw.go.jp/08/index.php?action_kouhyou_detail_004_kani=true&JigyosyoCd=0861590065-00&ServiceCd=130&Type=search", "url2": "https://kitaibaraki.info/" }, "geometry": { "type": "Point", "coordinates": [ 140.771379700000011, 36.843301 ] } },
{ "type": "Feature", "properties": { "内容": "有限会社ともべ看護ケアセンター　ともべ訪問看護ステーション【訪問看護】茨城県笠間市旭町４６８－３０", "url": "https://www.kaigokensaku.mhlw.go.jp/08/index.php?action_kouhyou_detail_004_kani=true&JigyosyoCd=0861690030-00&ServiceCd=130&Type=search", "url2": "//www.tomobe-care.com" }, "geometry": { "type": "Point", "coordinates": [ 140.325280199999952, 36.3247582 ] } },
{ "type": "Feature", "properties": { "内容": "セントケア訪問看護ステーション友部【訪問看護】茨城県笠間市南友部1955-4", "url": "https://www.kaigokensaku.mhlw.go.jp/08/index.php?action_kouhyou_detail_004_kani=true&JigyosyoCd=0861690097-00&ServiceCd=130&Type=search", "url2": "www.saint-care.com/" }, "geometry": { "type": "Point", "coordinates": [ 140.2991729, 36.3592282 ] } },
{ "type": "Feature", "properties": { "内容": "聖北会　訪問看護ステーションやまびこ【訪問看護】茨城県笠間市八雲2‐12‐34", "url": "https://www.kaigokensaku.mhlw.go.jp/08/index.php?action_kouhyou_detail_004_kani=true&JigyosyoCd=0863290029-00&ServiceCd=130&Type=search", "url2": "https://yamabiko-suzurann.com" }, "geometry": { "type": "Point", "coordinates": [ 140.300298450787295, 36.344856787979872 ] } },
{ "type": "Feature", "properties": { "内容": "一般社団法人笠間市医師会　訪問看護ステーションふきのとう【訪問看護】笠間市来栖２６６－４", "url": "https://www.kaigokensaku.mhlw.go.jp/08/index.php?action_kouhyou_detail_004_kani=true&JigyosyoCd=0861690014-00&ServiceCd=130&Type=search", "url2": "http://www.kasama-med.or.jp/" }, "geometry": { "type": "Point", "coordinates": [ 140.242845399999965, 36.3768416 ] } },
{ "type": "Feature", "properties": { "内容": "訪問看護ステーショングリーンハウス【訪問看護】茨城県笠間市石井甲32-1ケアハウスかさま", "url": "https://www.kaigokensaku.mhlw.go.jp/08/index.php?action_kouhyou_detail_004_kani=true&JigyosyoCd=0861690113-00&ServiceCd=130&Type=search", "url2": "http://www.shoseikai.com" }, "geometry": { "type": "Point", "coordinates": [ 140.2424728, 36.3870552 ] } },
{ "type": "Feature", "properties": { "内容": "フロイデともべ訪問看護ステーション【訪問看護】茨城県笠間市鯉淵6526-19", "url": "https://www.kaigokensaku.mhlw.go.jp/08/index.php?action_kouhyou_detail_004_kani=true&JigyosyoCd=0861690089-00&ServiceCd=130&Type=search", "url2": "http://www.hakuyukai-sfg.com" }, "geometry": { "type": "Point", "coordinates": [ 140.321426400000064, 36.3490917 ] } },
{ "type": "Feature", "properties": { "内容": "訪問看護ステーション東取手【訪問看護】茨城県取手市井野245", "url": "https://www.kaigokensaku.mhlw.go.jp/08/index.php?action_kouhyou_detail_004_kani=true&JigyosyoCd=0861790046-00&ServiceCd=130&Type=search", "url2": "http://www.higashi-t.or.jp" }, "geometry": { "type": "Point", "coordinates": [ 140.0863329, 35.9036603 ] } },
{ "type": "Feature", "properties": { "内容": "医療法人社団　宗仁会病院【訪問看護】茨城県取手市岡１４９３番地", "url": "https://www.kaigokensaku.mhlw.go.jp/08/index.php?action_kouhyou_detail_004_kani=true&JigyosyoCd=0811710821-00&ServiceCd=130&Type=search", "url2": "http://www.soujinkai.com" }, "geometry": { "type": "Point", "coordinates": [ 140.055895299999946, 35.9217878 ] } },
{ "type": "Feature", "properties": { "内容": "公益社団法人　取手市医師会　訪問看護ステーションひまわり【訪問看護】茨城県取手市野々井1926-2", "url": "https://www.kaigokensaku.mhlw.go.jp/08/index.php?action_kouhyou_detail_004_kani=true&JigyosyoCd=0861790012-00&ServiceCd=130&Type=search", "url2": "http://himawari-ishikai.jp" }, "geometry": { "type": "Point", "coordinates": [ 140.026038617860422, 35.917756256879571 ] } },
{ "type": "Feature", "properties": { "内容": "株式会社ハート　アンド　ハート　訪問看護ステーションまごころ【訪問看護】茨城県取手市白山6-22-7", "url": "https://www.kaigokensaku.mhlw.go.jp/08/index.php?action_kouhyou_detail_004_kani=true&JigyosyoCd=0861790053-00&ServiceCd=130&Type=search", "url2": null }, "geometry": { "type": "Point", "coordinates": [ 140.0596343, 35.9049073 ] } },
{ "type": "Feature", "properties": { "内容": "愛サク訪問看護ステーション【訪問看護】茨城県取手市小浮気182-6", "url": "https://www.kaigokensaku.mhlw.go.jp/08/index.php?action_kouhyou_detail_004_kani=true&JigyosyoCd=0861790095-00&ServiceCd=130&Type=search", "url2": null }, "geometry": { "type": "Point", "coordinates": [ 140.1155077, 35.9203425 ] } },
{ "type": "Feature", "properties": { "内容": "ご長寿くらぶ取手駒場Ⅰ訪問看護事業所【訪問看護】茨城県取手市駒場3丁目9-55-1ご長寿くらぶ取手駒場Ⅰ", "url": "https://www.kaigokensaku.mhlw.go.jp/08/index.php?action_kouhyou_detail_004_kani=true&JigyosyoCd=0861790129-00&ServiceCd=130&Type=search", "url2": null }, "geometry": { "type": "Point", "coordinates": [ 140.0519654, 35.9169079 ] } },
{ "type": "Feature", "properties": { "内容": "訪問看護ステーション　そら【訪問看護】茨城県取手市小文間谷耕地5720番1", "url": "https://www.kaigokensaku.mhlw.go.jp/08/index.php?action_kouhyou_detail_004_kani=true&JigyosyoCd=0861790079-00&ServiceCd=130&Type=search", "url2": null }, "geometry": { "type": "Point", "coordinates": [ 140.0953543, 35.8920313 ] } },
{ "type": "Feature", "properties": { "内容": "訪問看護ステーションとりで【訪問看護】茨城県取手市本郷2-1-1", "url": "https://www.kaigokensaku.mhlw.go.jp/08/index.php?action_kouhyou_detail_004_kani=true&JigyosyoCd=0861790020-00&ServiceCd=130&Type=search", "url2": null }, "geometry": { "type": "Point", "coordinates": [ 140.068951700000014, 35.9110389 ] } },
{ "type": "Feature", "properties": { "内容": "訪問看護ステーションにしまぎ【訪問看護】茨城県取手市戸頭3-2-8", "url": "https://www.kaigokensaku.mhlw.go.jp/08/index.php?action_kouhyou_detail_004_kani=true&JigyosyoCd=0861790038-00&ServiceCd=130&Type=search", "url2": "houkan.nishimagi@gmail.com" }, "geometry": { "type": "Point", "coordinates": [ 140.013015789549286, 35.919035933550035 ] } },
{ "type": "Feature", "properties": { "内容": "ドットライフ取手駅前（訪問看護・リハビリ）【訪問看護】茨城県取手市取手3-4-21中村ビル4ｰB号室", "url": "https://www.kaigokensaku.mhlw.go.jp/08/index.php?action_kouhyou_detail_004_kani=true&JigyosyoCd=0861790145-00&ServiceCd=130&Type=search", "url2": null }, "geometry": { "type": "Point", "coordinates": [ 140.0649214, 35.8946594 ] } },
{ "type": "Feature", "properties": { "内容": "つばき訪問看護ステーション【訪問看護】茨城県取手市戸頭4-7-16", "url": "https://www.kaigokensaku.mhlw.go.jp/08/index.php?action_kouhyou_detail_004_kani=true&JigyosyoCd=0861790137-00&ServiceCd=130&Type=search", "url2": "https://tsubaki-kango.com/" }, "geometry": { "type": "Point", "coordinates": [ 140.0136966, 35.9269652 ] } },
{ "type": "Feature", "properties": { "内容": "マイナース茨城【訪問看護】茨城県取手市井野台5丁目4-14", "url": "https://www.kaigokensaku.mhlw.go.jp/08/index.php?action_kouhyou_detail_004_kani=true&JigyosyoCd=0861790152-00&ServiceCd=130&Type=search", "url2": "https://mirkucare.wixsite.com" }, "geometry": { "type": "Point", "coordinates": [ 140.067936599999967, 35.909295299999982 ] } },
{ "type": "Feature", "properties": { "内容": "Forestheart訪問看護ステーションPLUM【訪問看護】茨城県　牛久市　南　5-37-15", "url": "https://www.kaigokensaku.mhlw.go.jp/08/index.php?action_kouhyou_detail_004_kani=true&JigyosyoCd=0861990091-00&ServiceCd=130&Type=search", "url2": "http://www.f-heart.net/" }, "geometry": { "type": "Point", "coordinates": [ 140.148010435581995, 35.96348865223014 ] } },
{ "type": "Feature", "properties": { "内容": "ナースステーション笑福【訪問看護】茨城県牛久市南7-51-13", "url": "https://www.kaigokensaku.mhlw.go.jp/08/index.php?action_kouhyou_detail_004_kani=true&JigyosyoCd=0861990125-00&ServiceCd=130&Type=search", "url2": "https://shofuku.co.jp" }, "geometry": { "type": "Point", "coordinates": [ 140.143738842327878, 35.961117604546928 ] } },
{ "type": "Feature", "properties": { "内容": "ゆうあい訪問看護ステーション【訪問看護】茨城県牛久市上柏田4-58-1", "url": "https://www.kaigokensaku.mhlw.go.jp/08/index.php?action_kouhyou_detail_004_kani=true&JigyosyoCd=0861990034-00&ServiceCd=130&Type=search", "url2": "http://www.central.or.jp" }, "geometry": { "type": "Point", "coordinates": [ 140.158190612828093, 35.983979756477815 ] } },
{ "type": "Feature", "properties": { "内容": "一般社団法人牛久市医師会　訪問看護ステーションうしく【訪問看護】茨城県牛久市結束町495-4", "url": "https://www.kaigokensaku.mhlw.go.jp/08/index.php?action_kouhyou_detail_004_kani=true&JigyosyoCd=0861990083-00&ServiceCd=130&Type=search", "url2": null }, "geometry": { "type": "Point", "coordinates": [ 140.1712437, 35.9637127 ] } },
{ "type": "Feature", "properties": { "内容": "うしく愛和訪問看護ステーション【訪問看護】茨城県牛久市猪子町891番地2", "url": "https://www.kaigokensaku.mhlw.go.jp/08/index.php?action_kouhyou_detail_004_kani=true&JigyosyoCd=0861990026-00&ServiceCd=130&Type=search", "url2": "http://www.jojinkai.com" }, "geometry": { "type": "Point", "coordinates": [ 140.140951399999949, 35.9985334 ] } },
{ "type": "Feature", "properties": { "内容": "訪問看護ステーションあやめつくば北【訪問看護】茨城県つくば市筑穂2-21-4アネシス・スピティB101号", "url": "https://www.kaigokensaku.mhlw.go.jp/08/index.php?action_kouhyou_detail_004_kani=true&JigyosyoCd=0862090214-00&ServiceCd=130&Type=search", "url2": "https://firstnurse.co.jp/" }, "geometry": { "type": "Point", "coordinates": [ 140.080894, 36.1314428 ] } },
{ "type": "Feature", "properties": { "内容": "訪問看護ステーションあやめつくば東【訪問看護】茨城県つくば市上ノ室897-1上ノ室テナント101号室・102号室", "url": "https://www.kaigokensaku.mhlw.go.jp/08/index.php?action_kouhyou_detail_004_kani=true&JigyosyoCd=0862090297-00&ServiceCd=130&Type=search", "url2": "https://firstnurse.co.jp/" }, "geometry": { "type": "Point", "coordinates": [ 140.1421083, 36.0786374 ] } },
{ "type": "Feature", "properties": { "内容": "HIM訪問看護ステーション【訪問看護】研究学園5丁目１５－１５", "url": "https://www.kaigokensaku.mhlw.go.jp/08/index.php?action_kouhyou_detail_004_kani=true&JigyosyoCd=0862090347-00&ServiceCd=130&Type=search", "url2": "https://him-hldgs.co.jp/" }, "geometry": { "type": "Point", "coordinates": [ 140.082756879762258, 36.083577358936715 ] } },
{ "type": "Feature", "properties": { "内容": "訪問看護ステーションかがやき【訪問看護】茨城県つくば市真瀬2522-11", "url": "https://www.kaigokensaku.mhlw.go.jp/08/index.php?action_kouhyou_detail_004_kani=true&JigyosyoCd=0862090370-00&ServiceCd=130&Type=search", "url2": null }, "geometry": { "type": "Point", "coordinates": [ 140.033965200000011, 36.0418134 ] } },
{ "type": "Feature", "properties": { "内容": "みんなのかかりつけ訪問看護ステーションつくば【訪問看護】みどりの1-1-4グランドパレスNS-10407号室", "url": "https://www.kaigokensaku.mhlw.go.jp/08/index.php?action_kouhyou_detail_004_kani=true&JigyosyoCd=0862090321-00&ServiceCd=130&Type=search", "url2": "https://kakaritsuke.co.jp/about/station/#kanto" }, "geometry": { "type": "Point", "coordinates": [ 140.0551499, 36.0291279 ] } },
{ "type": "Feature", "properties": { "内容": "訪問看護ステーションそよかぜ【訪問看護】茨城県つくば市上横場2573-1", "url": "https://www.kaigokensaku.mhlw.go.jp/08/index.php?action_kouhyou_detail_004_kani=true&JigyosyoCd=0862090040-00&ServiceCd=130&Type=search", "url2": "http:/www.gakuen-hospital.or.jp" }, "geometry": { "type": "Point", "coordinates": [ 140.098777399999989, 36.0391148 ] } },
{ "type": "Feature", "properties": { "内容": "けやき訪問看護ステーション【訪問看護】茨城県つくば市上郷3623", "url": "https://www.kaigokensaku.mhlw.go.jp/08/index.php?action_kouhyou_detail_004_kani=true&JigyosyoCd=0862090396-00&ServiceCd=130&Type=search", "url2": "https://tsukubanurse.com" }, "geometry": { "type": "Point", "coordinates": [ 140.012155799999988, 36.0986298 ] } },
{ "type": "Feature", "properties": { "内容": "桜水会訪問看護ステーション【訪問看護】茨城県つくば市大角豆1745-5", "url": "https://www.kaigokensaku.mhlw.go.jp/08/index.php?action_kouhyou_detail_004_kani=true&JigyosyoCd=0862090032-00&ServiceCd=130&Type=search", "url2": null }, "geometry": { "type": "Point", "coordinates": [ 140.137881458899386, 36.068809749441215 ] } },
{ "type": "Feature", "properties": { "内容": "結訪問看護ステーション【訪問看護】茨城県つくば市樋の沢263-4", "url": "https://www.kaigokensaku.mhlw.go.jp/08/index.php?action_kouhyou_detail_004_kani=true&JigyosyoCd=0862090438-00&ServiceCd=130&Type=search", "url2": "https://www.yui-homonkango.com/" }, "geometry": { "type": "Point", "coordinates": [ 140.133779800000013, 36.0213676 ] } },
{ "type": "Feature", "properties": { "内容": "ビーンズ訪問看護ステーション【訪問看護】茨城県つくば市大角豆2012-247", "url": "https://www.kaigokensaku.mhlw.go.jp/08/index.php?action_kouhyou_detail_004_kani=true&JigyosyoCd=0862090081-00&ServiceCd=130&Type=search", "url2": "http://www.tsukuba.rehabilitation.pro/" }, "geometry": { "type": "Point", "coordinates": [ 140.143321600000036, 36.0545261 ] } },
{ "type": "Feature", "properties": { "内容": "訪問看護ステーション　ハイク【訪問看護】茨城県つくば市二の宮2-5-1吉春ビルⅢ301", "url": "https://www.kaigokensaku.mhlw.go.jp/08/index.php?action_kouhyou_detail_004_kani=true&JigyosyoCd=0862090339-00&ServiceCd=130&Type=search", "url2": null }, "geometry": { "type": "Point", "coordinates": [ 140.1192357, 36.0652001 ] } },
{ "type": "Feature", "properties": { "内容": "訪問看護ステーション　イノベル茨城【訪問看護】茨城県つくば市東新井20-5グローバル5　102号", "url": "https://www.kaigokensaku.mhlw.go.jp/08/index.php?action_kouhyou_detail_004_kani=true&JigyosyoCd=0862090420-00&ServiceCd=130&Type=search", "url2": null }, "geometry": { "type": "Point", "coordinates": [ 140.1116155, 36.0758287 ] } },
{ "type": "Feature", "properties": { "内容": "う・た・し【訪問看護】茨城県つくば市梅園2丁目33番地25", "url": "https://www.kaigokensaku.mhlw.go.jp/08/index.php?action_kouhyou_detail_004_kani=true&JigyosyoCd=0862090222-00&ServiceCd=130&Type=search", "url2": "https://koto-ha.com/" }, "geometry": { "type": "Point", "coordinates": [ 140.136321900000013, 36.0568454 ] } },
{ "type": "Feature", "properties": { "内容": "医療法人社団　筑波記念会　つくば訪問看護ステーション【訪問看護】茨城県つくば市要1187-299S棟1階", "url": "https://www.kaigokensaku.mhlw.go.jp/08/index.php?action_kouhyou_detail_004_kani=true&JigyosyoCd=0862090016-00&ServiceCd=130&Type=search", "url2": null }, "geometry": { "type": "Point", "coordinates": [ 140.079894599999989, 36.1067691 ] } },
{ "type": "Feature", "properties": { "内容": "筑波メディカルセンター　訪問看護ふれあい【訪問看護】茨城県つくば市天久保一丁目１番地の１メディカルスクエア2階", "url": "https://www.kaigokensaku.mhlw.go.jp/08/index.php?action_kouhyou_detail_004_kani=true&JigyosyoCd=0862090024-00&ServiceCd=130&Type=search", "url2": "http://www.tmch.or.jp/care/customers/fureai/index.html" }, "geometry": { "type": "Point", "coordinates": [ 140.105365099999972, 36.0914517 ] } },
{ "type": "Feature", "properties": { "内容": "医心館訪問看護ステーションつくば【訪問看護】茨城県つくば市学園の森三丁目12番9", "url": "https://www.kaigokensaku.mhlw.go.jp/08/index.php?action_kouhyou_detail_004_kani=true&JigyosyoCd=0862090289-00&ServiceCd=130&Type=search", "url2": null }, "geometry": { "type": "Point", "coordinates": [ 140.087615699999986, 36.0952232 ] } },
{ "type": "Feature", "properties": { "内容": "訪問看護ステーションTERMS【訪問看護】茨城県つくば市上郷1368番3", "url": "https://www.kaigokensaku.mhlw.go.jp/08/index.php?action_kouhyou_detail_004_kani=true&JigyosyoCd=0862090107-00&ServiceCd=130&Type=search", "url2": "http://terms.jimdo.com/" }, "geometry": { "type": "Point", "coordinates": [ 140.015096752172582, 36.107969006668071 ] } },
{ "type": "Feature", "properties": { "内容": "いちはら訪問看護ステーション【訪問看護】つくば市大曽根３６８１", "url": "https://www.kaigokensaku.mhlw.go.jp/08/index.php?action_kouhyou_detail_004_kani=true&JigyosyoCd=0862090057-00&ServiceCd=130&Type=search", "url2": "http://www.ichihara-hospital.or.jp/" }, "geometry": { "type": "Point", "coordinates": [ 140.0798534, 36.138759 ] } },
{ "type": "Feature", "properties": { "内容": "医心館訪問看護ステーションつくばⅡ【訪問看護】茨城県つくば市⼆の宮1丁⽬12-1", "url": "https://www.kaigokensaku.mhlw.go.jp/08/index.php?action_kouhyou_detail_004_kani=true&JigyosyoCd=0862090313-00&ServiceCd=130&Type=search", "url2": null }, "geometry": { "type": "Point", "coordinates": [ 140.076445400000011, 36.0835255 ] } },
{ "type": "Feature", "properties": { "内容": "在宅看護センターゆう【訪問看護】茨城県つくば市みどりの1-1-4グランドパレスNS-10　307号室", "url": "https://www.kaigokensaku.mhlw.go.jp/08/index.php?action_kouhyou_detail_004_kani=true&JigyosyoCd=0862090164-00&ServiceCd=130&Type=search", "url2": "https://www.you3kango.com/" }, "geometry": { "type": "Point", "coordinates": [ 140.0560159, 36.030871 ] } },
{ "type": "Feature", "properties": { "内容": "ロンフィール訪問看護リハビリステーション【訪問看護】茨城県つくば市梅園2-2-18アーバンクレストM102", "url": "https://www.kaigokensaku.mhlw.go.jp/08/index.php?action_kouhyou_detail_004_kani=true&JigyosyoCd=0862090255-00&ServiceCd=130&Type=search", "url2": "https://lonfiel.com" }, "geometry": { "type": "Point", "coordinates": [ 140.14120410000001, 36.059785600000026 ] } },
{ "type": "Feature", "properties": { "内容": "WADEWADE訪問看護ステーションつくば【訪問看護】茨城県つくば市松代5-2-29つくばアイビースクエア201", "url": "https://www.kaigokensaku.mhlw.go.jp/08/index.php?action_kouhyou_detail_004_kani=true&JigyosyoCd=0862090263-00&ServiceCd=130&Type=search", "url2": "https://www.yoboiryo.co.jp/company/" }, "geometry": { "type": "Point", "coordinates": [ 140.1187069, 36.0660255 ] } },
{ "type": "Feature", "properties": { "内容": "訪問看護　なかよし【訪問看護】茨城県つくば市北条4326-2", "url": "https://www.kaigokensaku.mhlw.go.jp/08/index.php?action_kouhyou_detail_004_kani=true&JigyosyoCd=0862090446-00&ServiceCd=130&Type=search", "url2": "https://iimura-cl.com/%E8%A8%AA%E5%95%8F%E7%9C%8B%E8%AD%B7%E3%81%AA%E3%81%8B%E3%82%88%E3%81%97" }, "geometry": { "type": "Point", "coordinates": [ 140.0900407, 36.1759484 ] } },
{ "type": "Feature", "properties": { "内容": "恵愛小林クリニック【訪問看護】茨城県ひたちなか市幸町16-1", "url": "https://www.kaigokensaku.mhlw.go.jp/08/index.php?action_kouhyou_detail_004_kani=true&JigyosyoCd=0812110773-00&ServiceCd=130&Type=search", "url2": "http://www.katsujinkai.or.jp/" }, "geometry": { "type": "Point", "coordinates": [ 140.585358199999973, 36.3485772 ] } },
{ "type": "Feature", "properties": { "内容": "医療法人　沼田内科クリニック【訪問看護】茨城県ひたちなか市津田2829-5", "url": "https://www.kaigokensaku.mhlw.go.jp/08/index.php?action_kouhyou_detail_004_kani=true&JigyosyoCd=0812110856-00&ServiceCd=130&Type=search", "url2": "http://www.numatanaika.com/" }, "geometry": { "type": "Point", "coordinates": [ 140.494968800000038, 36.4050077 ] } },
{ "type": "Feature", "properties": { "内容": "こすもす訪問看護リハビリステーション【訪問看護】茨城県ひたちなか市市毛515-3グランドスポットB-201", "url": "https://www.kaigokensaku.mhlw.go.jp/08/index.php?action_kouhyou_detail_004_kani=true&JigyosyoCd=0862190139-00&ServiceCd=130&Type=search", "url2": "https://cosmos-care.jp" }, "geometry": { "type": "Point", "coordinates": [ 140.508047592065395, 36.395939770515504 ] } },
{ "type": "Feature", "properties": { "内容": "訪問看護ステーションあやめひたちなか【訪問看護】東石川23-1セイレンコート101", "url": "https://www.kaigokensaku.mhlw.go.jp/08/index.php?action_kouhyou_detail_004_kani=true&JigyosyoCd=0862190162-00&ServiceCd=130&Type=search", "url2": "http://www.firstnurse.co.jp" }, "geometry": { "type": "Point", "coordinates": [ 140.518309499999987, 36.4071452 ] } },
{ "type": "Feature", "properties": { "内容": "訪問看護ステーションらしさ【訪問看護】茨城県ひたちなか市大字金上９１３－１サンハイツ３０Ｈ１０２", "url": "https://www.kaigokensaku.mhlw.go.jp/08/index.php?action_kouhyou_detail_004_kani=true&JigyosyoCd=0862190170-00&ServiceCd=130&Type=search", "url2": "http://hp.kaipoke.biz/d9f/" }, "geometry": { "type": "Point", "coordinates": [ 140.5382861, 36.3751343 ] } },
{ "type": "Feature", "properties": { "内容": "訪問看護ステーションあおいそら【訪問看護】茨城県ひたちなか市高場2247-4ひかりビル３０１号室", "url": "https://www.kaigokensaku.mhlw.go.jp/08/index.php?action_kouhyou_detail_004_kani=true&JigyosyoCd=0862190113-00&ServiceCd=130&Type=search", "url2": "https://aoisora20150524.wixsite.com/victorysky" }, "geometry": { "type": "Point", "coordinates": [ 140.534079499999962, 36.422392 ] } },
{ "type": "Feature", "properties": { "内容": "ご長寿くらぶ佐和訪問看護事業所【訪問看護】茨城県ひたちなか市大字高場字道脇988-8", "url": "https://www.kaigokensaku.mhlw.go.jp/08/index.php?action_kouhyou_detail_004_kani=true&JigyosyoCd=0862190220-00&ServiceCd=130&Type=search", "url2": "https://www.urbanarchitech.com" }, "geometry": { "type": "Point", "coordinates": [ 140.536494, 36.424287 ] } },
{ "type": "Feature", "properties": { "内容": "訪問看護ステーションKUINA【訪問看護】茨城県ひたちなか市長砂1561-4", "url": "https://www.kaigokensaku.mhlw.go.jp/08/index.php?action_kouhyou_detail_004_kani=true&JigyosyoCd=0862190253-00&ServiceCd=130&Type=search", "url2": "https://machikura.or.jp/" }, "geometry": { "type": "Point", "coordinates": [ 140.575720600000011, 36.4131467 ] } },
{ "type": "Feature", "properties": { "内容": "訪問看護ステーションかけはし【訪問看護】茨城県ひたちなか市石川町２０－１", "url": "https://www.kaigokensaku.mhlw.go.jp/08/index.php?action_kouhyou_detail_004_kani=true&JigyosyoCd=0862190030-00&ServiceCd=130&Type=search", "url2": "http://www:hitachi.co.jp/hospital/mito/kaigo/kakehashi/index.html." }, "geometry": { "type": "Point", "coordinates": [ 140.5299824, 36.3923819 ] } },
{ "type": "Feature", "properties": { "内容": "訪問看護ステーションたすく【訪問看護】茨城県ひたちなか市笹野１丁目16番地51号アルカディア笹野101", "url": "https://www.kaigokensaku.mhlw.go.jp/08/index.php?action_kouhyou_detail_004_kani=true&JigyosyoCd=0862190212-00&ServiceCd=130&Type=search", "url2": "https://hp.kaipoke.biz/c3h/" }, "geometry": { "type": "Point", "coordinates": [ 140.539315638763725, 36.394831273894866 ] } },
{ "type": "Feature", "properties": { "内容": "訪問看護ステーション　おおしま【訪問看護】茨城県ひたちなか市東大島４丁目１２番地１", "url": "https://www.kaigokensaku.mhlw.go.jp/08/index.php?action_kouhyou_detail_004_kani=true&JigyosyoCd=0862190188-00&ServiceCd=130&Type=search", "url2": null }, "geometry": { "type": "Point", "coordinates": [ 140.531540231848624, 36.404984211835774 ] } },
{ "type": "Feature", "properties": { "内容": "医療法人社団愛友会　訪問看護ステーションかつた【訪問看護】茨城県ひたちなか市中根5123-12海野ハイツ102号", "url": "https://www.kaigokensaku.mhlw.go.jp/08/index.php?action_kouhyou_detail_004_kani=true&JigyosyoCd=0862190238-00&ServiceCd=130&Type=search", "url2": "https://katsuta-aiyukai.jp/feature/visiting-nurse-stations.php" }, "geometry": { "type": "Point", "coordinates": [ 140.545445300000011, 36.3839676 ] } },
{ "type": "Feature", "properties": { "内容": "医心館訪問看護ステーションひたちなか【訪問看護】茨城県ひたちなか市外野一丁目35番20号", "url": "https://www.kaigokensaku.mhlw.go.jp/08/index.php?action_kouhyou_detail_004_kani=true&JigyosyoCd=0862190261-00&ServiceCd=130&Type=search", "url2": null }, "geometry": { "type": "Point", "coordinates": [ 140.5384674, 36.406616 ] } },
{ "type": "Feature", "properties": { "内容": "訪問看護ステーション　グリーンハウスひたちなか【訪問看護】茨城県ひたちなか市東石川3183-1", "url": "https://www.kaigokensaku.mhlw.go.jp/08/index.php?action_kouhyou_detail_004_kani=true&JigyosyoCd=0862190105-00&ServiceCd=130&Type=search", "url2": "http://www.shoseikai.com" }, "geometry": { "type": "Point", "coordinates": [ 140.537347299999965, 36.4154492 ] } },
{ "type": "Feature", "properties": { "内容": "ウェルネス訪問看護ステーション【訪問看護】茨城県ひたちなか市足崎1457-159ウェルネス足崎", "url": "https://www.kaigokensaku.mhlw.go.jp/08/index.php?action_kouhyou_detail_004_kani=true&JigyosyoCd=0862190154-00&ServiceCd=130&Type=search", "url2": "http://www.wellness.ne.jp/" }, "geometry": { "type": "Point", "coordinates": [ 140.553475, 36.4114661 ] } },
{ "type": "Feature", "properties": { "内容": "訪問看護ステーションあさがお【訪問看護】茨城県ひたちなか市中根3337-103", "url": "https://www.kaigokensaku.mhlw.go.jp/08/index.php?action_kouhyou_detail_004_kani=true&JigyosyoCd=0862190089-00&ServiceCd=130&Type=search", "url2": "https://seibikai.jp.net/asagao/" }, "geometry": { "type": "Point", "coordinates": [ 140.5534644, 36.392896 ] } },
{ "type": "Feature", "properties": { "内容": "フロイデひたちなか訪問看護ステーション【訪問看護】ひたちなか市足崎1474-8", "url": "https://www.kaigokensaku.mhlw.go.jp/08/index.php?action_kouhyou_detail_004_kani=true&JigyosyoCd=0862190147-00&ServiceCd=130&Type=search", "url2": "https://www.hakujinkai.com/" }, "geometry": { "type": "Point", "coordinates": [ 140.552680299861152, 36.404108245842998 ] } },
{ "type": "Feature", "properties": { "内容": "公益社団法人茨城県看護協会　鹿嶋訪問看護ステーション【訪問看護】茨城県鹿嶋市緑ヶ丘3-9-20", "url": "https://www.kaigokensaku.mhlw.go.jp/08/index.php?action_kouhyou_detail_004_kani=true&JigyosyoCd=0862290012-00&ServiceCd=130&Type=search", "url2": "http://www.ina.or.jp" }, "geometry": { "type": "Point", "coordinates": [ 140.620065899999986, 35.971846 ] } },
{ "type": "Feature", "properties": { "内容": "クローバー訪問看護ステーション【訪問看護】茨城県鹿嶋市荒野1571-42", "url": "https://www.kaigokensaku.mhlw.go.jp/08/index.php?action_kouhyou_detail_004_kani=true&JigyosyoCd=0862290103-00&ServiceCd=130&Type=search", "url2": "https://clover-goodliv.com/" }, "geometry": { "type": "Point", "coordinates": [ 140.6241963, 36.0145382 ] } },
{ "type": "Feature", "properties": { "内容": "訪問看護ステーションルリエ【訪問看護】茨城県鹿嶋市小山1033-39", "url": "https://www.kaigokensaku.mhlw.go.jp/08/index.php?action_kouhyou_detail_004_kani=true&JigyosyoCd=0862290061-00&ServiceCd=130&Type=search", "url2": "https://www.houmon-relier.jp" }, "geometry": { "type": "Point", "coordinates": [ 140.6280706, 36.0083696 ] } },
{ "type": "Feature", "properties": { "内容": "訪問看護ステーションあやめ潮来【訪問看護】茨城県潮来市辻185-1ラ・フォーレ辻A棟103号室", "url": "https://www.kaigokensaku.mhlw.go.jp/08/index.php?action_kouhyou_detail_004_kani=true&JigyosyoCd=0862390010-00&ServiceCd=130&Type=search", "url2": "https://firstnurse.co.jp/" }, "geometry": { "type": "Point", "coordinates": [ 140.560178799999989, 35.9463912 ] } },
{ "type": "Feature", "properties": { "内容": "訪問看護ステーションたきび【訪問看護】茨城県潮来市大塚野1-14-17", "url": "https://www.kaigokensaku.mhlw.go.jp/08/index.php?action_kouhyou_detail_004_kani=true&JigyosyoCd=0862390028-00&ServiceCd=130&Type=search", "url2": "https://takibi-houkan.com/" }, "geometry": { "type": "Point", "coordinates": [ 140.5397174, 35.9441593 ] } },
{ "type": "Feature", "properties": { "内容": "アネシス訪問看護ステーション【訪問看護】茨城県守谷市薬師台2-16-3", "url": "https://www.kaigokensaku.mhlw.go.jp/08/index.php?action_kouhyou_detail_004_kani=true&JigyosyoCd=0862490042-00&ServiceCd=130&Type=search", "url2": "http://care-net.biz/08/sasetotal/" }, "geometry": { "type": "Point", "coordinates": [ 139.967444300000011, 35.9626608 ] } },
{ "type": "Feature", "properties": { "内容": "訪問看護ステーションあやめ守谷【訪問看護】茨城県守谷市御所ヶ丘2丁目12-7ハイツ御所ヶ丘103号室", "url": "https://www.kaigokensaku.mhlw.go.jp/08/index.php?action_kouhyou_detail_004_kani=true&JigyosyoCd=0862490083-00&ServiceCd=130&Type=search", "url2": "http://www.firstnurse.co.jp" }, "geometry": { "type": "Point", "coordinates": [ 139.98102, 35.9644 ] } },
{ "type": "Feature", "properties": { "内容": "訪問看護ステーションもりや【訪問看護】茨城県守谷市松前台２－４－１", "url": "https://www.kaigokensaku.mhlw.go.jp/08/index.php?action_kouhyou_detail_004_kani=true&JigyosyoCd=0862490109-00&ServiceCd=130&Type=search", "url2": "http://www.yushoukai.jp/" }, "geometry": { "type": "Point", "coordinates": [ 139.9704002, 35.9696531 ] } },
{ "type": "Feature", "properties": { "内容": "ひばり訪問看護ステーションもりや【訪問看護】茨城県守谷市鈴塚305番地5号", "url": "https://www.kaigokensaku.mhlw.go.jp/08/index.php?action_kouhyou_detail_004_kani=true&JigyosyoCd=0862490125-00&ServiceCd=130&Type=search", "url2": "https://www.hibari-moriya.com/" }, "geometry": { "type": "Point", "coordinates": [ 139.985358504192163, 35.940050007614957 ] } },
{ "type": "Feature", "properties": { "内容": "社会医療法人社団光仁会　ひかり訪問看護ステーション【訪問看護】茨城県守谷市松前台1-17", "url": "https://www.kaigokensaku.mhlw.go.jp/08/index.php?action_kouhyou_detail_004_kani=true&JigyosyoCd=0862490026-00&ServiceCd=130&Type=search", "url2": "https://www.daiichi.or.jp/" }, "geometry": { "type": "Point", "coordinates": [ 139.968597100000011, 35.9676794 ] } },
{ "type": "Feature", "properties": { "内容": "リンク訪問看護ステーション【訪問看護】茨城県守谷市ひがし野２丁目７番地５ファミーユⅡ‐103号室", "url": "https://www.kaigokensaku.mhlw.go.jp/08/index.php?action_kouhyou_detail_004_kani=true&JigyosyoCd=0862490117-00&ServiceCd=130&Type=search", "url2": "https://www.link-houkan.net" }, "geometry": { "type": "Point", "coordinates": [ 140.000541199999986, 35.9522669 ] } },
{ "type": "Feature", "properties": { "内容": "訪問看護ステーションてとめとて。【訪問看護】茨城県守谷市美園1-2-11", "url": "https://www.kaigokensaku.mhlw.go.jp/08/index.php?action_kouhyou_detail_004_kani=true&JigyosyoCd=0862490091-00&ServiceCd=130&Type=search", "url2": "tetometote.com" }, "geometry": { "type": "Point", "coordinates": [ 140.003046899999958, 35.9284463 ] } },
{ "type": "Feature", "properties": { "内容": "訪問看護ステーションしあわせ【訪問看護】茨城県守谷市高野1661-1", "url": "https://www.kaigokensaku.mhlw.go.jp/08/index.php?action_kouhyou_detail_004_kani=true&JigyosyoCd=0862490075-00&ServiceCd=130&Type=search", "url2": "https://www.siawase-st.com/" }, "geometry": { "type": "Point", "coordinates": [ 139.985992211032084, 35.931328558471286 ] } },
{ "type": "Feature", "properties": { "内容": "医療法人慶友会訪問看護ステーションたんぽぽ【訪問看護】茨城県守谷市松並1630-1", "url": "https://www.kaigokensaku.mhlw.go.jp/08/index.php?action_kouhyou_detail_004_kani=true&JigyosyoCd=0862490018-00&ServiceCd=130&Type=search", "url2": "http://www.keiyu.or.jp" }, "geometry": { "type": "Point", "coordinates": [ 139.998516599999988, 35.9557775 ] } },
{ "type": "Feature", "properties": { "内容": "茨城リハビリテーション病院訪問看護ステーション【訪問看護】茨城県守谷市同地字仲山358-5", "url": "https://www.kaigokensaku.mhlw.go.jp/08/index.php?action_kouhyou_detail_004_kani=true&JigyosyoCd=0862490067-00&ServiceCd=130&Type=search", "url2": "https://ymg-irh.jp" }, "geometry": { "type": "Point", "coordinates": [ 140.0149156, 35.9518158 ] } },
{ "type": "Feature", "properties": { "内容": "おおみや訪問看護ステーション【訪問看護】茨城県常陸大宮市上町321", "url": "https://www.kaigokensaku.mhlw.go.jp/08/index.php?action_kouhyou_detail_004_kani=true&JigyosyoCd=0863390027-00&ServiceCd=130&Type=search", "url2": "http;//www.hakujinkai.com/" }, "geometry": { "type": "Point", "coordinates": [ 140.413978300000053, 36.5491174 ] } },
{ "type": "Feature", "properties": { "内容": "西山堂慶和病院【訪問看護】茨城県那珂市鴻巣3247-1", "url": "https://www.kaigokensaku.mhlw.go.jp/08/index.php?action_kouhyou_detail_004_kani=true&JigyosyoCd=0812610053-00&ServiceCd=130&Type=search", "url2": "http://www.mito.ne.jp/~hospital/keiwa/" }, "geometry": { "type": "Point", "coordinates": [ 140.486246915344282, 36.458204960073445 ] } },
{ "type": "Feature", "properties": { "内容": "ナザレ園訪問看護ステ－ション【訪問看護】茨城県那珂市中里361番地2", "url": "https://www.kaigokensaku.mhlw.go.jp/08/index.php?action_kouhyou_detail_004_kani=true&JigyosyoCd=0863390076-00&ServiceCd=130&Type=search", "url2": "https://nazareen.or.jp" }, "geometry": { "type": "Point", "coordinates": [ 140.457549400000062, 36.484428500000014 ] } },
{ "type": "Feature", "properties": { "内容": "訪問看護ステーション　こもれ陽【訪問看護】菅谷2388-1フォーレストサイドハイツ105号室", "url": "https://www.kaigokensaku.mhlw.go.jp/08/index.php?action_kouhyou_detail_004_kani=true&JigyosyoCd=0862690096-00&ServiceCd=130&Type=search", "url2": null }, "geometry": { "type": "Point", "coordinates": [ 140.50153, 36.44375 ] } },
{ "type": "Feature", "properties": { "内容": "訪問看護ステーション1up【訪問看護】茨城県那珂市菅谷6151", "url": "https://www.kaigokensaku.mhlw.go.jp/08/index.php?action_kouhyou_detail_004_kani=true&JigyosyoCd=0862690054-00&ServiceCd=130&Type=search", "url2": "http://1up.co.jp" }, "geometry": { "type": "Point", "coordinates": [ 140.4905839, 36.4446992 ] } },
{ "type": "Feature", "properties": { "内容": "訪問看護ステーション「のぞみ」【訪問看護】茨城県那珂市菅谷６０５", "url": "https://www.kaigokensaku.mhlw.go.jp/08/index.php?action_kouhyou_detail_004_kani=true&JigyosyoCd=0863390043-00&ServiceCd=130&Type=search", "url2": null }, "geometry": { "type": "Point", "coordinates": [ 140.496483399999988, 36.460527 ] } },
{ "type": "Feature", "properties": { "内容": "訪問看護ステーションこころ【訪問看護】茨城県那珂市豊喰505", "url": "https://www.kaigokensaku.mhlw.go.jp/08/index.php?action_kouhyou_detail_004_kani=true&JigyosyoCd=0862690039-00&ServiceCd=130&Type=search", "url2": "http://www.yuhokai-kuritah.com/" }, "geometry": { "type": "Point", "coordinates": [ 140.464629, 36.4312713 ] } },
{ "type": "Feature", "properties": { "内容": "訪問看護ステーション　ふくら笑顔【訪問看護】茨城県那珂市中台750-5", "url": "https://www.kaigokensaku.mhlw.go.jp/08/index.php?action_kouhyou_detail_004_kani=true&JigyosyoCd=0862690047-00&ServiceCd=130&Type=search", "url2": "https://www.fukura.co.jp" }, "geometry": { "type": "Point", "coordinates": [ 140.4848433, 36.4102359 ] } },
{ "type": "Feature", "properties": { "内容": "一般社団法人　真壁医師会　訪問看護ステーションしもだて【訪問看護】筑西市二木成1491大武店舗1階南側", "url": "https://www.kaigokensaku.mhlw.go.jp/08/index.php?action_kouhyou_detail_004_kani=true&JigyosyoCd=0860690015-00&ServiceCd=130&Type=search", "url2": null }, "geometry": { "type": "Point", "coordinates": [ 139.98083718828903, 36.300662895359608 ] } },
{ "type": "Feature", "properties": { "内容": "筑西診療所　訪問看護ステーション【訪問看護】茨城県筑西市玉戸1658番地", "url": "https://www.kaigokensaku.mhlw.go.jp/08/index.php?action_kouhyou_detail_004_kani=true&JigyosyoCd=0860690031-00&ServiceCd=130&Type=search", "url2": "https://iwmo.or.jp" }, "geometry": { "type": "Point", "coordinates": [ 139.93857220000001, 36.2966729 ] } },
{ "type": "Feature", "properties": { "内容": "訪問看護ステーション　りあん【訪問看護】茨城県筑西市藤ヶ谷2264番地2", "url": "https://www.kaigokensaku.mhlw.go.jp/08/index.php?action_kouhyou_detail_004_kani=true&JigyosyoCd=0862790060-00&ServiceCd=130&Type=search", "url2": null }, "geometry": { "type": "Point", "coordinates": [ 139.9501678, 36.2600972 ] } },
{ "type": "Feature", "properties": { "内容": "Tamadoナースステーションきなり【訪問看護】茨城県筑西市玉戸1289番地38", "url": "https://www.kaigokensaku.mhlw.go.jp/08/index.php?action_kouhyou_detail_004_kani=true&JigyosyoCd=0862790102-00&ServiceCd=130&Type=search", "url2": "https://kinari-kids.com/" }, "geometry": { "type": "Point", "coordinates": [ 139.942793369213121, 36.287999714263357 ] } },
{ "type": "Feature", "properties": { "内容": "みやた訪問看護ステーション【訪問看護】筑西市丙５８－３", "url": "https://www.kaigokensaku.mhlw.go.jp/08/index.php?action_kouhyou_detail_004_kani=true&JigyosyoCd=0860690023-00&ServiceCd=130&Type=search", "url2": "http://gogyo.hs.plala.or.jp/mhoukan.html" }, "geometry": { "type": "Point", "coordinates": [ 139.981556800000021, 36.3082217 ] } },
{ "type": "Feature", "properties": { "内容": "訪問看護ステーション夢眠ちくせい【訪問看護】茨城県筑西市二木成1530番地", "url": "https://www.kaigokensaku.mhlw.go.jp/08/index.php?action_kouhyou_detail_004_kani=true&JigyosyoCd=0862790078-00&ServiceCd=130&Type=search", "url2": "http://muminhome.jp/chikusei/" }, "geometry": { "type": "Point", "coordinates": [ 139.98104, 36.2985726 ] } },
{ "type": "Feature", "properties": { "内容": "医療法人清風会　訪問看護ステーション愛心会【訪問看護】茨城県坂東市沓掛４１１－1", "url": "https://www.kaigokensaku.mhlw.go.jp/08/index.php?action_kouhyou_detail_004_kani=true&JigyosyoCd=0864390059-00&ServiceCd=130&Type=search", "url2": "http://group-seifu.or.jp/aisin/index.html" }, "geometry": { "type": "Point", "coordinates": [ 139.895823299999961, 36.0909196 ] } },
{ "type": "Feature", "properties": { "内容": "ユーノ訪問看護ステーション【訪問看護】茨城県稲敷市江戸崎甲3567-1ファミリータウン3号", "url": "https://www.kaigokensaku.mhlw.go.jp/08/index.php?action_kouhyou_detail_004_kani=true&JigyosyoCd=0862990058-00&ServiceCd=130&Type=search", "url2": "http://hp.kaipoke.biz/fsc/" }, "geometry": { "type": "Point", "coordinates": [ 140.3175473, 35.9762146 ] } },
{ "type": "Feature", "properties": { "内容": "訪問看護ステーションあやめ稲敷【訪問看護】茨城県稲敷市江戸崎甲3567-1ファミリータウン3号室", "url": "https://www.kaigokensaku.mhlw.go.jp/08/index.php?action_kouhyou_detail_004_kani=true&JigyosyoCd=0862990066-00&ServiceCd=130&Type=search", "url2": "https://firstnurse.co.jp/" }, "geometry": { "type": "Point", "coordinates": [ 140.317317, 35.956184 ] } },
{ "type": "Feature", "properties": { "内容": "あずま訪問看護ステーション【訪問看護】稲敷市幸田１２４７", "url": "https://www.kaigokensaku.mhlw.go.jp/08/index.php?action_kouhyou_detail_004_kani=true&JigyosyoCd=0863890034-00&ServiceCd=130&Type=search", "url2": "https://miyamoto-hp.or.jp/" }, "geometry": { "type": "Point", "coordinates": [ 140.386108400000012, 35.9395241 ] } },
{ "type": "Feature", "properties": { "内容": "訪問看護ステーション　紅白かすみがうら【訪問看護】上稲吉３８番地１", "url": "https://www.kaigokensaku.mhlw.go.jp/08/index.php?action_kouhyou_detail_004_kani=true&JigyosyoCd=0863090015-00&ServiceCd=130&Type=search", "url2": "http://www.medagricare.jp/" }, "geometry": { "type": "Point", "coordinates": [ 140.2178419, 36.1373821 ] } },
{ "type": "Feature", "properties": { "内容": "訪問看護リハビリステーションエトワ【訪問看護】稲吉南３丁目7番16号", "url": "https://www.kaigokensaku.mhlw.go.jp/08/index.php?action_kouhyou_detail_004_kani=true&JigyosyoCd=0863090023-00&ServiceCd=130&Type=search", "url2": "https://www.etowa-hope.com" }, "geometry": { "type": "Point", "coordinates": [ 140.23903, 36.1267376 ] } },
{ "type": "Feature", "properties": { "内容": "医療法人　隆仁会　さくらがわ地域医療センター　訪問看護ステーション【訪問看護】茨城県桜川市高森1000", "url": "https://www.kaigokensaku.mhlw.go.jp/08/index.php?action_kouhyou_detail_004_kani=true&JigyosyoCd=0865190011-00&ServiceCd=130&Type=search", "url2": null }, "geometry": { "type": "Point", "coordinates": [ 140.0720586, 36.3473069 ] } },
{ "type": "Feature", "properties": { "内容": "訪問看護ステーションあやめ桜川【訪問看護】茨城県桜川市西桜川3丁目36宮ハイツ6号室", "url": "https://www.kaigokensaku.mhlw.go.jp/08/index.php?action_kouhyou_detail_004_kani=true&JigyosyoCd=0865190029-00&ServiceCd=130&Type=search", "url2": "https://firstnurse.co.jp/" }, "geometry": { "type": "Point", "coordinates": [ 140.10041050000001, 36.3634933 ] } },
{ "type": "Feature", "properties": { "内容": "社会医療法人恒貴会訪問看護ステーション愛美園【訪問看護】茨城県桜川市大国玉２５１３－１２", "url": "https://www.kaigokensaku.mhlw.go.jp/08/index.php?action_kouhyou_detail_004_kani=true&JigyosyoCd=0867190019-00&ServiceCd=130&Type=search", "url2": "http://www.kokikai.com" }, "geometry": { "type": "Point", "coordinates": [ 140.0648741, 36.3176842 ] } },
{ "type": "Feature", "properties": { "内容": "訪問看護ステーションコニファー【訪問看護】茨城県神栖市掘割2-8-22ハーモニーF棟ハーモニーF棟", "url": "https://www.kaigokensaku.mhlw.go.jp/08/index.php?action_kouhyou_detail_004_kani=true&JigyosyoCd=0865290043-00&ServiceCd=130&Type=search", "url2": null }, "geometry": { "type": "Point", "coordinates": [ 140.637091, 35.9243088 ] } },
{ "type": "Feature", "properties": { "内容": "訪問看護ステーション　ケアプラスかみす【訪問看護】茨城県神栖市知手中央４－１２－９", "url": "https://www.kaigokensaku.mhlw.go.jp/08/index.php?action_kouhyou_detail_004_kani=true&JigyosyoCd=0865290019-00&ServiceCd=130&Type=search", "url2": null }, "geometry": { "type": "Point", "coordinates": [ 140.716896916719605, 35.878235039288704 ] } },
{ "type": "Feature", "properties": { "内容": "訪問看護ステーションあやめ神栖【訪問看護】茨城県神栖市平泉281-10茨城県神栖市平泉281-10", "url": "https://www.kaigokensaku.mhlw.go.jp/08/index.php?action_kouhyou_detail_004_kani=true&JigyosyoCd=0865290050-00&ServiceCd=130&Type=search", "url2": "https://firstnurse.co.jp/" }, "geometry": { "type": "Point", "coordinates": [ 140.6352028, 35.9172405 ] } },
{ "type": "Feature", "properties": { "内容": "訪問看護ステーションかいんご3【訪問看護】茨城県神栖市奥野谷5509-7Ｂ号室", "url": "https://www.kaigokensaku.mhlw.go.jp/08/index.php?action_kouhyou_detail_004_kani=true&JigyosyoCd=0865290118-00&ServiceCd=130&Type=search", "url2": null }, "geometry": { "type": "Point", "coordinates": [ 140.685614, 35.879046 ] } },
{ "type": "Feature", "properties": { "内容": "社会福祉法人　白十字会　神栖訪問看護ステーション【訪問看護】茨城県神栖市賀2148-26", "url": "https://www.kaigokensaku.mhlw.go.jp/08/index.php?action_kouhyou_detail_004_kani=true&JigyosyoCd=0863690012-00&ServiceCd=130&Type=search", "url2": null }, "geometry": { "type": "Point", "coordinates": [ 140.623012230491526, 35.899462132333127 ] } },
{ "type": "Feature", "properties": { "内容": "訪問看護ステーション母里【訪問看護】茨城県神栖市太田3292-1", "url": "https://www.kaigokensaku.mhlw.go.jp/08/index.php?action_kouhyou_detail_004_kani=true&JigyosyoCd=0865290068-00&ServiceCd=130&Type=search", "url2": "https://fglow.jp/" }, "geometry": { "type": "Point", "coordinates": [ 140.719722600000011, 35.8432156 ] } },
{ "type": "Feature", "properties": { "内容": "済生会訪問看護ステーションかみす【訪問看護】神栖市知手中央７丁目2番45号", "url": "https://www.kaigokensaku.mhlw.go.jp/08/index.php?action_kouhyou_detail_004_kani=true&JigyosyoCd=0863690053-00&ServiceCd=130&Type=search", "url2": "http://houmon-saisei.jp/" }, "geometry": { "type": "Point", "coordinates": [ 140.708715877909896, 35.873396806276418 ] } },
{ "type": "Feature", "properties": { "内容": "ふくふく神栖【訪問看護】茨城県神栖市若松中央２丁目２０番地", "url": "https://www.kaigokensaku.mhlw.go.jp/08/index.php?action_kouhyou_detail_004_kani=true&JigyosyoCd=0865290027-00&ServiceCd=130&Type=search", "url2": "http://www.ns-group" }, "geometry": { "type": "Point", "coordinates": [ 140.7358279, 35.8351983 ] } },
{ "type": "Feature", "properties": { "内容": "訪問看護ステーションなめがた【訪問看護】茨城県行方市井上藤井98-8土浦協同病院なめがた地域医療センター内", "url": "https://www.kaigokensaku.mhlw.go.jp/08/index.php?action_kouhyou_detail_004_kani=true&JigyosyoCd=0865390017-00&ServiceCd=130&Type=search", "url2": "https://www.ndgh.jp/" }, "geometry": { "type": "Point", "coordinates": [ 140.459370800000016, 36.069313500000014 ] } },
{ "type": "Feature", "properties": { "内容": "社会福祉法人　白十字会　白十字会訪問看護ステーション【訪問看護】茨城県行方市麻生3290-12", "url": "https://www.kaigokensaku.mhlw.go.jp/08/index.php?action_kouhyou_detail_004_kani=true&JigyosyoCd=0863790028-00&ServiceCd=130&Type=search", "url2": null }, "geometry": { "type": "Point", "coordinates": [ 140.498312400000032, 36.0194818 ] } },
{ "type": "Feature", "properties": { "内容": "水郷医師会訪問看護ステーション【訪問看護】茨城県行方市麻生１５７０－１", "url": "https://www.kaigokensaku.mhlw.go.jp/08/index.php?action_kouhyou_detail_004_kani=true&JigyosyoCd=0863790010-00&ServiceCd=130&Type=search", "url2": null }, "geometry": { "type": "Point", "coordinates": [ 140.489739200000031, 35.9909155 ] } },
{ "type": "Feature", "properties": { "内容": "訪問看護ステーション　　たいよう【訪問看護】茨城県鉾田市汲上3128", "url": "https://www.kaigokensaku.mhlw.go.jp/08/index.php?action_kouhyou_detail_004_kani=true&JigyosyoCd=0863690087-00&ServiceCd=130&Type=search", "url2": "http://www003.upp.so-net.ne.jp/shinseikai/takimoto/" }, "geometry": { "type": "Point", "coordinates": [ 140.579147558335876, 36.118067101423883 ] } },
{ "type": "Feature", "properties": { "内容": "訪問看護ステーション　もみやま【訪問看護】茨城県鉾田市樅山576-27", "url": "https://www.kaigokensaku.mhlw.go.jp/08/index.php?action_kouhyou_detail_004_kani=true&JigyosyoCd=0863690046-00&ServiceCd=130&Type=search", "url2": null }, "geometry": { "type": "Point", "coordinates": [ 140.550210600000014, 36.2007615 ] } },
{ "type": "Feature", "properties": { "内容": "医療法人　三尚会　訪問看護にこにこステーション【訪問看護】茨城県鉾田市鉾田２５７０", "url": "https://www.kaigokensaku.mhlw.go.jp/08/index.php?action_kouhyou_detail_004_kani=true&JigyosyoCd=0863690079-00&ServiceCd=130&Type=search", "url2": "http://www.takasu-hospital.com" }, "geometry": { "type": "Point", "coordinates": [ 140.509677112828086, 36.153220377510337 ] } },
{ "type": "Feature", "properties": { "内容": "訪問看護ステーション　紅白【訪問看護】茨城県つくばみらい市高岡112-11", "url": "https://www.kaigokensaku.mhlw.go.jp/08/index.php?action_kouhyou_detail_004_kani=true&JigyosyoCd=0865590020-00&ServiceCd=130&Type=search", "url2": "http://www.medagricare.jp/" }, "geometry": { "type": "Point", "coordinates": [ 140.064351583991993, 36.004745240019325 ] } },
{ "type": "Feature", "properties": { "内容": "訪問看護ステーションあやめつくばみらい【訪問看護】茨城県つくばみらい市紫峰ヶ丘1丁目23番4号アンジュ・パレC　102号室", "url": "https://www.kaigokensaku.mhlw.go.jp/08/index.php?action_kouhyou_detail_004_kani=true&JigyosyoCd=0865590038-00&ServiceCd=130&Type=search", "url2": "https://firstnurse.co.jp/" }, "geometry": { "type": "Point", "coordinates": [ 140.0399875, 36.0008087 ] } },
{ "type": "Feature", "properties": { "内容": "みらい訪問看護リハビリステーション【訪問看護】茨城県つくばみらい市陽光台２－１－３デュオセーヌつくばみらい", "url": "https://www.kaigokensaku.mhlw.go.jp/08/index.php?action_kouhyou_detail_004_kani=true&JigyosyoCd=0865590012-00&ServiceCd=130&Type=search", "url2": "https://www.miraihoukan.com" }, "geometry": { "type": "Point", "coordinates": [ 140.041510116632139, 35.997502584001865 ] } },
{ "type": "Feature", "properties": { "内容": "SUNAO訪問看護ステーション（つくばみらい店）【訪問看護】茨城県つくばみらい市板橋3022-3", "url": "https://www.kaigokensaku.mhlw.go.jp/08/index.php?action_kouhyou_detail_004_kani=true&JigyosyoCd=0865590061-00&ServiceCd=130&Type=search", "url2": "https://sunao-houkan.com/" }, "geometry": { "type": "Point", "coordinates": [ 140.061381, 35.9804614 ] } },
{ "type": "Feature", "properties": { "内容": "訪問看護リハビリステーションmelife-みらいふ-【訪問看護】茨城県つくばみらい市上長沼1497-4", "url": "https://www.kaigokensaku.mhlw.go.jp/08/index.php?action_kouhyou_detail_004_kani=true&JigyosyoCd=0865590046-00&ServiceCd=130&Type=search", "url2": null }, "geometry": { "type": "Point", "coordinates": [ 140.0124071, 36.0078452 ] } },
{ "type": "Feature", "properties": { "内容": "訪問看護ステーションこづる【訪問看護】東茨城郡茨城町小鶴１２７－１", "url": "https://www.kaigokensaku.mhlw.go.jp/08/index.php?action_kouhyou_detail_004_kani=true&JigyosyoCd=0863190088-00&ServiceCd=130&Type=search", "url2": "http://www.ibc.or.jp" }, "geometry": { "type": "Point", "coordinates": [ 140.423758600000042, 36.2908868 ] } },
{ "type": "Feature", "properties": { "内容": "堀越医院【訪問看護】茨城県東茨城郡茨城町長岡3317-22", "url": "https://www.kaigokensaku.mhlw.go.jp/08/index.php?action_kouhyou_detail_004_kani=true&JigyosyoCd=0813110806-00&ServiceCd=130&Type=search", "url2": null }, "geometry": { "type": "Point", "coordinates": [ 140.437378327647366, 36.310513275495133 ] } },
{ "type": "Feature", "properties": { "内容": "公益財団法人　報恩会　訪問看護ステーションいしざき【訪問看護】茨城県東茨城郡茨城町上石崎4698", "url": "https://www.kaigokensaku.mhlw.go.jp/08/index.php?action_kouhyou_detail_004_kani=true&JigyosyoCd=0863190070-00&ServiceCd=130&Type=search", "url2": null }, "geometry": { "type": "Point", "coordinates": [ 140.478937623417664, 36.312601771951066 ] } },
{ "type": "Feature", "properties": { "内容": "在宅看護センター和音【訪問看護】茨城県東茨城郡茨城町前田1707-360", "url": "https://www.kaigokensaku.mhlw.go.jp/08/index.php?action_kouhyou_detail_004_kani=true&JigyosyoCd=0863190112-00&ServiceCd=130&Type=search", "url2": "http://harmony-nurse.jp" }, "geometry": { "type": "Point", "coordinates": [ 140.441879244180342, 36.315608331661274 ] } },
{ "type": "Feature", "properties": { "内容": "訪問看護ステーションそるぶ【訪問看護】茨城県大洗町大貫町1683-2", "url": "https://www.kaigokensaku.mhlw.go.jp/08/index.php?action_kouhyou_detail_004_kani=true&JigyosyoCd=0863190153-00&ServiceCd=130&Type=search", "url2": null }, "geometry": { "type": "Point", "coordinates": [ 140.5576218, 36.304128877305352 ] } },
{ "type": "Feature", "properties": { "内容": "訪問看護ステーション　ＫＥＩ【訪問看護】茨城県東茨城郡城里町那珂西2540-1", "url": "https://www.kaigokensaku.mhlw.go.jp/08/index.php?action_kouhyou_detail_004_kani=true&JigyosyoCd=0863190138-00&ServiceCd=130&Type=search", "url2": "https://kei2023.jimdofree.com/" }, "geometry": { "type": "Point", "coordinates": [ 140.3946708, 36.469561 ] } },
{ "type": "Feature", "properties": { "内容": "訪問看護ステーションとうかい【訪問看護】那珂郡東海村石神内宿1724－1", "url": "https://www.kaigokensaku.mhlw.go.jp/08/index.php?action_kouhyou_detail_004_kani=true&JigyosyoCd=0863390050-00&ServiceCd=130&Type=search", "url2": "http://www.ibc.or.jp" }, "geometry": { "type": "Point", "coordinates": [ 140.572406300000011, 36.4809067 ] } },
{ "type": "Feature", "properties": { "内容": "訪問看護ステーションあやめ茨城東海村【訪問看護】茨城県那珂郡東海村舟石川駅西3丁目5-7クレスト杉浦102号室", "url": "https://www.kaigokensaku.mhlw.go.jp/08/index.php?action_kouhyou_detail_004_kani=true&JigyosyoCd=0863390126-00&ServiceCd=130&Type=search", "url2": "https://firstnurse.co.jp/" }, "geometry": { "type": "Point", "coordinates": [ 140.5639335, 36.4680547 ] } },
{ "type": "Feature", "properties": { "内容": "ナーシング　オリヴィエ【訪問看護】083411301", "url": "https://www.kaigokensaku.mhlw.go.jp/08/index.php?action_kouhyou_detail_004_kani=true&JigyosyoCd=0863390142-00&ServiceCd=130&Type=search", "url2": "https://olive-olivie.com/" }, "geometry": { "type": "Point", "coordinates": [ 140.56665, 36.47156 ] } },
{ "type": "Feature", "properties": { "内容": "あうるの杜　訪問看護ステーション【訪問看護】茨城県那珂郡東海村舟石川駅東1‐5‐9ベルフィスA102", "url": "https://www.kaigokensaku.mhlw.go.jp/08/index.php?action_kouhyou_detail_004_kani=true&JigyosyoCd=0863390134-00&ServiceCd=130&Type=search", "url2": "https://tink-c.com" }, "geometry": { "type": "Point", "coordinates": [ 140.5645466, 36.4627759 ] } },
{ "type": "Feature", "properties": { "内容": "なないろつむぎ訪問看護リハビリステーション【訪問看護】茨城県那珂郡東海村大字舟石川288番地４", "url": "https://www.kaigokensaku.mhlw.go.jp/08/index.php?action_kouhyou_detail_004_kani=true&JigyosyoCd=0863390118-00&ServiceCd=130&Type=search", "url2": "http://hp.kaipoke.biz/xx3/" }, "geometry": { "type": "Point", "coordinates": [ 140.5547494, 36.4683812 ] } },
{ "type": "Feature", "properties": { "内容": "訪問看護ステーションやすらぎ【訪問看護】茨城県久慈郡大子町大子825-1", "url": "https://www.kaigokensaku.mhlw.go.jp/08/index.php?action_kouhyou_detail_004_kani=true&JigyosyoCd=0863490058-00&ServiceCd=130&Type=search", "url2": null }, "geometry": { "type": "Point", "coordinates": [ 140.3544613, 36.7704199 ] } },
{ "type": "Feature", "properties": { "内容": "大子訪問看護ステーション【訪問看護】茨城県久慈郡大子町大字矢田93-1", "url": "https://www.kaigokensaku.mhlw.go.jp/08/index.php?action_kouhyou_detail_004_kani=true&JigyosyoCd=0863490025-00&ServiceCd=130&Type=search", "url2": null }, "geometry": { "type": "Point", "coordinates": [ 140.358739499999956, 36.7959541 ] } },
{ "type": "Feature", "properties": { "内容": "茨城西南医療センター訪問看護ステーション【訪問看護】茨城県猿島郡境町2,190番地", "url": "https://www.kaigokensaku.mhlw.go.jp/08/index.php?action_kouhyou_detail_004_kani=true&JigyosyoCd=0864390042-00&ServiceCd=130&Type=search", "url2": "http://www.seinann-mch.or.jp" }, "geometry": { "type": "Point", "coordinates": [ 139.805799, 36.1090381 ] } },
{ "type": "Feature", "properties": { "内容": "訪問看護ステーションあやめ阿見【訪問看護】岡崎1丁目6-26パルテールノグチ102号室", "url": "https://www.kaigokensaku.mhlw.go.jp/08/index.php?action_kouhyou_detail_004_kani=true&JigyosyoCd=0863890109-00&ServiceCd=130&Type=search", "url2": "https://firstnurse.co.jp/" }, "geometry": { "type": "Point", "coordinates": [ 140.219827400000014, 36.0411837 ] } },
{ "type": "Feature", "properties": { "内容": "訪問看護ステーショングリーン【訪問看護】茨城県稲敷郡阿見町荒川本郷1854-21", "url": "https://www.kaigokensaku.mhlw.go.jp/08/index.php?action_kouhyou_detail_004_kani=true&JigyosyoCd=0863890083-00&ServiceCd=130&Type=search", "url2": "https://www.comedico.jp/" }, "geometry": { "type": "Point", "coordinates": [ 140.183443, 36.01668 ] } },
{ "type": "Feature", "properties": { "内容": "東京医科大学霞ヶ浦訪問看護ステーション【訪問看護】茨城県稲敷郡阿見町中央3-21-1", "url": "https://www.kaigokensaku.mhlw.go.jp/08/index.php?action_kouhyou_detail_004_kani=true&JigyosyoCd=0863890018-00&ServiceCd=130&Type=search", "url2": "http://kms.tokyo-med.ac.jp" }, "geometry": { "type": "Point", "coordinates": [ 140.21474139999998, 36.0362861 ] } },
{ "type": "Feature", "properties": { "内容": "訪問看護ステーション　おひさま【訪問看護】茨城県猿島郡五霞町川妻494-5", "url": "https://www.kaigokensaku.mhlw.go.jp/08/index.php?action_kouhyou_detail_004_kani=true&JigyosyoCd=0864390091-00&ServiceCd=130&Type=search", "url2": "http://hp.kaipoke.biz/wuf/" }, "geometry": { "type": "Point", "coordinates": [ 139.7329703, 36.1277972 ] } },
{ "type": "Feature", "properties": { "内容": "訪問看護ステーション春かぜ【訪問看護】茨城県猿島郡五霞町原宿台3丁目20-6", "url": "https://www.kaigokensaku.mhlw.go.jp/08/index.php?action_kouhyou_detail_004_kani=true&JigyosyoCd=0864390075-00&ServiceCd=130&Type=search", "url2": null }, "geometry": { "type": "Point", "coordinates": [ 139.737694913491794, 36.097029434559524 ] } },
{ "type": "Feature", "properties": { "内容": "訪問看護ステーションクレヨン【訪問看護】茨城県猿島郡境町塚崎1154-2", "url": "https://www.kaigokensaku.mhlw.go.jp/08/index.php?action_kouhyou_detail_004_kani=true&JigyosyoCd=0864390083-00&ServiceCd=130&Type=search", "url2": "https://www.sibakawa.co.jp/" }, "geometry": { "type": "Point", "coordinates": [ 139.770057914680478, 36.131110867321489 ] } },
{ "type": "Feature", "properties": { "内容": "Imagine訪問看護ステーション【訪問看護】茨城県北相馬郡利根町布川2115-100", "url": "https://www.kaigokensaku.mhlw.go.jp/08/index.php?action_kouhyou_detail_004_kani=true&JigyosyoCd=0864490073-00&ServiceCd=130&Type=search", "url2": "http://imaginehmkg.jimdofree.com/" }, "geometry": { "type": "Point", "coordinates": [ 140.154597099999989, 35.858831400000014 ] } }
]
}
