{
"type": "FeatureCollection",
"name": "geo_08_短期大学",
"crs": { "type": "name", "properties": { "name": "urn:ogc:def:crs:EPSG::6668" } },
"features": [
{ "type": "Feature", "properties": { "P29_001": "08226", "P29_002": "F208310101516", "P29_003": "16006", "P29_004": "茨城女子短期大学", "P29_005": "茨城県那珂市東木倉960-2", "P29_006": "4", "P29_007": "0", "P29_008": "00", "P29_009": null }, "geometry": { "type": "Point", "coordinates": [ 140.473642099629956, 36.42320611711078 ] } },
{ "type": "Feature", "properties": { "P29_001": "08203", "P29_002": "F208310101525", "P29_003": "16006", "P29_004": "つくば国際短期大学", "P29_005": "茨城県土浦市真鍋6-20-1", "P29_006": "4", "P29_007": "0", "P29_008": "00", "P29_009": null }, "geometry": { "type": "Point", "coordinates": [ 140.198153482900409, 36.102413405808242 ] } },
{ "type": "Feature", "properties": { "P29_001": "08201", "P29_002": "F208310101534", "P29_003": "16006", "P29_004": "常磐短期大学", "P29_005": "茨城県水戸市見和1-430-1", "P29_006": "4", "P29_007": "0", "P29_008": "00", "P29_009": null }, "geometry": { "type": "Point", "coordinates": [ 140.438908450441659, 36.382167180336552 ] } }
]
}
